{"type": "Feature","bbox": [12.5989,-4.0542,13.8716,-3.212],"geometry": {"type": "MultiPolygon","coordinates": [[[[13.3521,-3.9672,215.1206],[13.3531,-3.9781,304.1673],[13.3622,-4.0017,175.4048],[13.3697,-4.0267,169.0383],[13.3736,-4.0339,172.0466],[13.3806,-4.0411,169.3727],[13.3881,-4.0439,177.5645],[13.4264,-4.0472,195.3842],[13.4411,-4.0542,186.6207],[13.4786,-4.0464,209.4493],[13.5008,-4.0369,191.3722],[13.515,-4.0225,202.7366],[13.5169,-4.0144,230.5278],[13.5175,-3.9989,224.1281],[13.5217,-3.9831,250.0392],[13.5203,-3.96,277.9983],[13.5225,-3.9458,278.7513],[13.5267,-3.9378,295.9107],[13.5336,-3.9303,330.6751],[13.5639,-3.9081,377.8882],[13.5694,-3.9006,486.2854],[13.5694,-3.8847,490.9637],[13.5667,-3.8703,465.7482],[13.5675,-3.8628,493.0424],[13.5831,-3.8561,468.6374],[13.5908,-3.8489,494.1943],[13.5961,-3.8411,481.498],[13.6025,-3.8219,456.4594],[13.5908,-3.8197,462.5574],[13.5869,-3.8169,469.8545],[13.5861,-3.8119,486.7347],[13.5914,-3.7978,483.0863],[13.5867,-3.7956,459.4286],[13.5747,-3.7975,467.2487],[13.5692,-3.7961,477.4827],[13.5678,-3.7706,455.0143],[13.5697,-3.7658,467.9235],[13.5822,-3.7578,443.4788],[13.5886,-3.7572,445.0855],[13.5947,-3.7578,446.1765],[13.6133,-3.7672,462.159],[13.6194,-3.7681,466.9118],[13.6244,-3.7661,476.5676],[13.6356,-3.7564,475.9929],[13.65,-3.7506,438.6005],[13.6514,-3.7467,471.7076],[13.6436,-3.7339,464.4109],[13.6475,-3.7314,468.7837],[13.6669,-3.7303,440.2287],[13.6931,-3.7375,462.9938],[13.7036,-3.7342,461.5563],[13.7131,-3.7386,452.1717],[13.7194,-3.7381,450.5749],[13.7219,-3.7339,466.8389],[13.7222,-3.7269,451.6932],[13.7169,-3.7117,483.023],[13.7178,-3.7056,469.5312],[13.7256,-3.6925,477.4918],[13.7319,-3.685,478.4966],[13.7397,-3.6792,479.0271],[13.7667,-3.6722,464.5657],[13.7808,-3.6517,452.7388],[13.7789,-3.64,449.5172],[13.7747,-3.6314,463.8543],[13.7778,-3.6206,467.5232],[13.785,-3.6069,472.0271],[13.7883,-3.6033,452.2341],[13.7933,-3.6017,459.2635],[13.8064,-3.6025,463.9648],[13.8169,-3.5992,478.8051],[13.8267,-3.5883,480.7748],[13.8381,-3.5653,488.028],[13.8514,-3.5439,480.59],[13.8716,-3.5323,488.616],[13.8656,-3.5278,461.088],[13.8461,-3.5071,556.6699],[13.8301,-3.5016,582.8852],[13.8088,-3.4857,607.9835],[13.7961,-3.471,596.9908],[13.7733,-3.4506,640.786],[13.7517,-3.444,581.1973],[13.7421,-3.4233,576.1767],[13.7222,-3.3997,604.997],[13.6682,-3.3865,527.1163],[13.6255,-3.3792,479.3521],[13.5779,-3.363,590.3239],[13.5285,-3.3423,626.3241],[13.4842,-3.3191,579.2446],[13.4038,-3.2982,472.2126],[13.3589,-3.3242,452.8074],[13.324,-3.3164,514.9979],[13.3,-3.3148,477.919],[13.2688,-3.3279,452.158],[13.2507,-3.3389,480.1833],[13.2128,-3.3396,440.3208],[13.1891,-3.3168,436.1654],[13.1754,-3.2875,456.3218],[13.162,-3.2726,451.925],[13.117,-3.2572,450.8213],[13.1031,-3.2473,468.9702],[13.0798,-3.2416,445.5384],[13.0645,-3.2291,427.6784],[13.0311,-3.212,425.6833],[13.0253,-3.2161,444.0004],[13.0192,-3.2233,455.8974],[13.015,-3.2311,441.2289],[13.0156,-3.2389,433.9176],[13.0078,-3.2431,378.9213],[12.9931,-3.2406,323.1138],[12.9772,-3.2456,335.26],[12.9619,-3.2536,283.1986],[12.9544,-3.2544,279.6858],[12.9472,-3.2542,288.6139],[12.9239,-3.2469,278.0746],[12.9219,-3.2519,302.3598],[12.9233,-3.2911,278.4576],[12.9219,-3.2967,244.5],[12.9183,-3.3,289.7999],[12.9128,-3.3,287.4925],[12.9081,-3.2978,255.2427],[12.9006,-3.2844,300.4348],[12.8958,-3.2825,283.4149],[12.8903,-3.2839,260.6221],[12.8839,-3.2911,265.2499],[12.8722,-3.3,267.1516],[12.8625,-3.3039,225.7415],[12.8556,-3.3036,207.2866],[12.8508,-3.3017,216.9913],[12.8344,-3.2903,257.0151],[12.8094,-3.2925,239.9677],[12.7914,-3.3019,142.9441],[12.7806,-3.3044,132.1379],[12.7439,-3.2989,97.7107],[12.7308,-3.2992,142.7195],[12.7142,-3.3031,144.419],[12.6989,-3.3153,142.9997],[12.6794,-3.3231,196.5472],[12.6758,-3.3264,181.1278],[12.6689,-3.3403,170.2899],[12.6678,-3.36,176.1934],[12.6653,-3.3717,135.8866],[12.6497,-3.4044,178.9447],[12.64,-3.4083,167.0703],[12.6206,-3.4064,219.9458],[12.6164,-3.4078,239.3305],[12.6075,-3.4125,144.6968],[12.5989,-3.4239,143.5372],[12.605,-3.4317,66.0],[12.6178,-3.4394,71.6165],[12.6206,-3.4439,92.8605],[12.6192,-3.4492,111.9315],[12.6081,-3.4586,166.2952],[12.6092,-3.4628,179.259],[12.6208,-3.4636,92.5199],[12.625,-3.4667,89.9594],[12.6297,-3.4756,87.0336],[12.6267,-3.4867,107.2336],[12.6281,-3.4919,138.6605],[12.6319,-3.495,180.4178],[12.6375,-3.4936,96.2779],[12.6508,-3.4944,121.8139],[12.655,-3.4975,183.2628],[12.6575,-3.5017,142.864],[12.6581,-3.5078,122.2579],[12.6536,-3.5242,152.4518],[12.6569,-3.5347,98.9384],[12.6614,-3.5367,110.9737],[12.6872,-3.5364,88.9093],[12.6956,-3.5244,277.4747],[12.7156,-3.5239,272.2592],[12.7258,-3.5275,124.6473],[12.7306,-3.5367,94.8284],[12.7269,-3.54,81.8817],[12.7203,-3.54,101.1024],[12.7158,-3.5425,99.2665],[12.7139,-3.5472,123.5018],[12.7139,-3.5528,188.2393],[12.7178,-3.5628,93.5592],[12.7233,-3.5639,106.8283],[12.7556,-3.5628,217.1196],[12.7694,-3.5561,223.7032],[12.775,-3.5561,196.1333],[12.7947,-3.5708,106.3266],[12.805,-3.5744,123.2408],[12.8083,-3.5781,118.7356],[12.8078,-3.5828,84.3344],[12.7986,-3.5875,136.3841],[12.7958,-3.5917,239.9471],[12.7978,-3.5964,321.7768],[12.8025,-3.5983,126.5171],[12.8144,-3.5981,119.7341],[12.8119,-3.6153,122.3521],[12.8136,-3.6269,236.1107],[12.8239,-3.6375,106.4261],[12.8336,-3.6417,113.1815],[12.8367,-3.6453,115.9673],[12.8364,-3.6578,120.8012],[12.84,-3.6611,119.4851],[12.855,-3.6669,155.7117],[12.8625,-3.6731,132.7574],[12.8656,-3.6975,111.6978],[12.8697,-3.7003,105.2697],[12.8714,-3.705,116.9898],[12.8692,-3.7167,144.4567],[12.8711,-3.7286,131.4527],[12.8744,-3.7319,205.9523],[12.8869,-3.7322,108.576],[12.8858,-3.7508,190.4652],[12.8761,-3.7617,131.9352],[12.8792,-3.7722,181.2418],[12.8819,-3.7761,175.3091],[12.8936,-3.7786,124.071],[12.8956,-3.7833,106.0801],[12.8917,-3.8003,162.6807],[12.8928,-3.8131,146.9388],[12.8914,-3.8253,208.0304],[12.8942,-3.8364,190.1031],[12.8978,-3.8381,177.3602],[12.9047,-3.8339,125.6386],[12.9119,-3.8322,118.2716],[12.9192,-3.8339,195.935],[12.9447,-3.8633,189.762],[12.9531,-3.87,156.1187],[12.9614,-3.8708,241.5434],[12.9689,-3.8689,218.1097],[12.9769,-3.8692,167.8187],[12.9842,-3.8728,156.9489],[12.9875,-3.8814,167.084],[12.9906,-3.8969,159.2575],[12.9983,-3.9008,145.2158],[13.0125,-3.9031,260.0652],[13.0175,-3.9172,155.5094],[13.0219,-3.925,160.0625],[13.0306,-3.9292,160.3838],[13.0456,-3.9306,237.4247],[13.0528,-3.9297,313.4147],[13.0756,-3.9225,224.4345],[13.0911,-3.9231,288.5468],[13.1289,-3.9194,324.8833],[13.1378,-3.9203,253.6536],[13.1617,-3.9314,217.6884],[13.1697,-3.9306,242.9184],[13.1769,-3.9289,280.165],[13.1842,-3.925,269.2385],[13.2067,-3.9092,289.3034],[13.215,-3.9056,281.9465],[13.2231,-3.9044,288.8962],[13.23,-3.9053,292.6442],[13.245,-3.9111,374.7178],[13.2739,-3.9317,314.509],[13.2903,-3.9297,264.7648],[13.3047,-3.9219,272.8253],[13.3125,-3.9222,248.536],[13.3275,-3.9325,253.258],[13.3353,-3.9356,261.4033],[13.3406,-3.9283,302.9729],[13.3406,-3.9208,426.7503],[13.3481,-3.925,429.5569],[13.3506,-3.9328,317.1384],[13.3578,-3.94,323.608],[13.3622,-3.9475,219.9144],[13.3528,-3.9625,209.8831],[13.3521,-3.9672,215.1206]]]]}
,"properties": {"GID_2": "COG.6.3_1","GID_0": "COG","country": "RepublicoftheCongo","GID_1": "COG.6_1","province": "Lékoumou","NL_NAME_1": "NA","county": "Sibiti","VARNAME_2": "NA","NL_NAME_2": "NA","TYPE_2": "District","ENGTYPE_2": "District","CC_2": "NA","HASC_2": "CG.LE.SI","name": "Sibiti.county","area_km2": 7270.456,"hist_schema_id": "Elevation0-9000","hist_area_km2": {"75": 15.513,"100": 55.655,"125": 128.396,"150": 167.897,"175": 245.284,"200": 273.678,"225": 259.148,"250": 247.79,"275": 294.582,"300": 314.748,"325": 245.717,"350": 254.238,"375": 312.914,"400": 335.104,"425": 329.441,"450": 863.534,"475": 1197.96,"500": 702.534,"525": 355.697,"550": 254.718,"575": 176.746,"600": 110.449,"625": 78.049,"650": 35.046,"675": 12.042,"700": 3.492,"725": 0.085}}}