{"type":"Feature","properties":{"GID_2":"COG.7.2_1","GID_0":"COG","country":"RepublicoftheCongo","GID_1":"COG.7_1","province":"Likouala","NL_NAME_1":"NA","county":"Epéna","VARNAME_2":"NA","NL_NAME_2":"NA","TYPE_2":"District","ENGTYPE_2":"District","CC_2":"NA","HASC_2":"CG.LI.EP","name":"Epéna.county"},
"geometry":{"type": "MultiPolygon","coordinates": [[[[17.5587,-0.7538,293.5],[17.7803,2.0664,340.8461],[17.7259,2.0936,343.8515],[17.6497,2.1423,342.1329],[17.6163,2.1691,348.882],[17.5497,2.2074,355.8039],[17.4259,2.2544,355.2677],[17.2636,2.3578,412.6945],[17.1828,2.3938,428.9955],[17.1232,2.4315,449.6172],[17.0202,2.469,377.572],[16.9613,2.4885,420.0915],[16.8739,2.4984,477.3928],[16.8114,2.4951,511.7303],[16.6819,2.4811,534.7222],[16.6978,2.4531,516.4971],[16.7119,2.4228,470.4421],[16.7406,2.3858,479.4599],[16.7431,2.3786,488.7077],[16.7392,2.3394,461.0282],[16.7439,2.3056,453.0475],[16.7344,2.25,477.2703],[16.7344,2.2275,437.3016],[16.7378,2.1819,435.8035],[16.7386,2.1747,409.7037],[16.7453,2.1603,406.7338],[16.7603,2.1522,419.3133],[16.7639,2.145,417.6982],[16.7608,2.1364,437.2362],[16.7614,2.1217,430.9758],[16.7597,2.1139,450.7225],[16.7375,2.1064,428.3885],[16.7303,2.1008,412.778],[16.7236,2.0772,426.3898],[16.7217,2.0519,396.7808],[16.7289,1.9914,406.7397],[16.7369,1.9675,390.5522],[16.7375,1.96,388.1555],[16.7347,1.9378,392.5766],[16.7417,1.9222,386.2411],[16.7344,1.9069,392.6341],[16.735,1.8978,406.2776],[16.7483,1.8344,382.6859],[16.7617,1.8208,409.4787],[16.7636,1.8128,406.8817],[16.7494,1.7808,382.0271],[16.7444,1.7644,371.665],[16.7328,1.7364,386.517],[16.7231,1.7058,374.2579],[16.7197,1.6903,374.3691],[16.7064,1.6753,377.0047],[16.7031,1.6681,387.3007],[16.7031,1.66,378.713],[16.7125,1.6444,399.2875],[16.7214,1.6358,388.43],[16.7233,1.6286,396.0409],[16.7183,1.6214,420.5502],[16.7167,1.6139,405.7044],[16.7186,1.5989,389.9803],[16.7261,1.5733,369.4326],[16.7331,1.5336,419.8614],[16.7311,1.5258,391.683],[16.7264,1.5183,420.8061],[16.7131,1.5044,372.6141],[16.6997,1.4864,372.4868],[16.6947,1.4719,399.1906],[16.7003,1.4647,402.4456],[16.7147,1.4619,403.18],[16.7211,1.4547,399.7195],[16.7189,1.44,379.3291],[16.7119,1.4183,366.9595],[16.7153,1.4006,392.0168],[16.7269,1.385,396.4703],[16.7303,1.3778,394.1622],[16.7297,1.3708,379.6332],[16.7331,1.355,351.3487],[16.7453,1.3231,363.0709],[16.7508,1.3153,359.6278],[16.7583,1.3086,359.7202],[16.7731,1.3003,337.8887],[16.7778,1.2931,337.0084],[16.7764,1.2783,351.6805],[16.7786,1.2622,358.6582],[16.7897,1.2233,343.8427],[16.7964,1.2081,365.5045],[16.8025,1.1839,364.6257],[16.8025,1.1756,336.096],[16.7806,1.1442,335.343],[16.7739,1.1294,333.98],[16.7814,1.1053,332.83],[16.7836,1.0897,334.4774],[16.7825,1.0739,332.8152],[16.7797,1.0667,334.8282],[16.7747,1.0586,346.2669],[16.7672,1.0522,349.9832],[16.7211,1.0292,360.9689],[16.7056,1.0136,344.1363],[16.6919,0.9917,347.2696],[16.6906,0.9842,370.5925],[16.6931,0.9689,376.699],[16.6931,0.9467,346.7402],[16.6903,0.8914,362.2548],[16.6933,0.875,334.5334],[16.7061,0.8428,334.9858],[16.7153,0.8261,335.1505],[16.7283,0.8097,332.7646],[16.7325,0.7994,331.1597],[16.7614,0.7647,331.3314],[16.9006,0.5797,326.1859],[16.9417,0.5272,327.0671],[16.9731,0.4906,329.6104],[17.0228,0.4244,333.6163],[17.0497,0.3942,336.5254],[17.0753,0.3872,334.9096],[17.0908,0.38,333.4408],[17.1033,0.3669,328.603],[17.1133,0.3442,324.6892],[17.1244,0.3286,326.1301],[17.1453,0.3042,328.5926],[17.1825,0.2497,330.0531],[17.2019,0.2178,326.5432],[17.2097,0.2006,328.1922],[17.21,0.1944,324.8412],[17.2081,0.1897,328.2499],[17.2044,0.1861,328.4579],[17.1936,0.1833,327.7068],[17.18,0.1836,322.0838],[17.1744,0.1822,326.2621],[17.1717,0.1786,325.7174],[17.1717,0.1717,326.5993],[17.1836,0.1425,327.7966],[17.1847,0.1247,328.8824],[17.1931,0.1056,325.482],[17.1919,0.0939,324.7058],[17.1844,0.0878,323.4941],[17.15,0.0678,328.0023],[17.1439,0.0603,322.908],[17.1425,0.055,326.3477],[17.1428,0.0486,324.4884],[17.1572,0.0286,330.6297],[17.1619,0.0128,329.3847],[17.1594,-0.0194,328.8203],[17.1647,-0.0275,326.5188],[17.1661,-0.0331,325.64],[17.1636,-0.0789,337.032],[17.1703,-0.1064,324.1639],[17.1836,-0.1339,335.7342],[17.1864,-0.1517,323.2084],[17.1853,-0.1647,329.6617],[17.1819,-0.175,332.1513],[17.1761,-0.1831,327.8363],[17.1556,-0.1967,319.6777],[17.1514,-0.2061,312.3443],[17.1533,-0.2244,325.5808],[17.1508,-0.2622,321.6638],[17.1533,-0.2869,315.08],[17.1569,-0.2903,324.9659],[17.1678,-0.2933,328.5536],[17.1717,-0.2961,316.1859],[17.1744,-0.3003,312.9715],[17.1736,-0.3064,337.2368],[17.1586,-0.3183,343.3378],[17.135,-0.3292,322.5752],[17.1289,-0.3367,323.5873],[17.1314,-0.3478,316.4421],[17.1342,-0.3517,322.3379],[17.1439,-0.3561,305.7467],[17.1631,-0.3547,304.3444],[17.1719,-0.3597,333.4466],[17.1758,-0.3692,343.6648],[17.1731,-0.3803,318.3754],[17.1686,-0.39,324.2344],[17.1417,-0.4244,317.5032],[17.1389,-0.4353,323.325],[17.1394,-0.4469,319.3063],[17.1403,-0.4533,321.5389],[17.1447,-0.4619,317.568],[17.1508,-0.4631,317.4051],[17.1628,-0.4472,323.8922],[17.1725,-0.4433,295.5],[17.1786,-0.4442,317.4425],[17.1875,-0.4489,313.6852],[17.1961,-0.4608,319.3774],[17.2125,-0.4717,319.9439],[17.2175,-0.4808,311.1397],[17.22,-0.4917,323.5711],[17.2231,-0.5158,317.7337],[17.2214,-0.5281,323.5214],[17.2092,-0.5361,321.3295],[17.205,-0.5456,321.9539],[17.2072,-0.5506,321.8748],[17.1981,-0.5553,318.3303],[17.1953,-0.5594,317.1626],[17.1944,-0.5656,314.58],[17.1953,-0.5717,315.8239],[17.2011,-0.5792,316.2175],[17.2072,-0.5936,317.5287],[17.2125,-0.6086,317.5018],[17.2147,-0.6206,317.505],[17.2033,-0.6575,320.7915],[17.205,-0.6758,314.7437],[17.2033,-0.6936,300.8458],[17.2047,-0.6992,297.2936],[17.2089,-0.7019,305.5547],[17.2314,-0.6967,295.1136],[17.2406,-0.7014,296.2334],[17.2431,-0.7058,297.3362],[17.2439,-0.7119,297.3227],[17.2394,-0.7281,297.0216],[17.2414,-0.7467,308.9359],[17.2606,-0.745,294.615],[17.4864,-0.7514,295.4188],[17.5336,-0.7503,293.5],[17.5511,-0.7569,296.9052],[17.5536,-0.7593,293.5],[17.5587,-0.7538,293.5]]]]}}