{"type":"Feature","properties":{"GID_2":"COG.7.3_1","GID_0":"COG","country":"RepublicoftheCongo","GID_1":"COG.7_1","province":"Likouala","NL_NAME_1":"NA","county":"Impfondo","VARNAME_2":"NA","NL_NAME_2":"NA","TYPE_2":"District","ENGTYPE_2":"District","CC_2":"NA","HASC_2":"CG.LI.IM","name":"Impfondo.county"},
"geometry":{"type": "MultiPolygon","coordinates": [[[[18.0687,1.8839,313.0],[17.7803,2.0664,340.8461],[17.5587,-0.7538,293.5],[17.5745,-0.732,300.9709],[17.6096,-0.6935,294.0],[17.638,-0.6563,294.0],[17.6549,-0.6251,294.0],[17.6836,-0.5953,302.3061],[17.7001,-0.5676,294.0],[17.7097,-0.5406,294.0],[17.7187,-0.5031,294.0],[17.7282,-0.4422,307.067],[17.7404,-0.3977,301.0364],[17.7418,-0.381,300.7991],[17.7386,-0.3265,302.0544],[17.7346,-0.3073,299.6634],[17.722,-0.2753,317.4295],[17.7153,-0.2328,320.16],[17.714,-0.2169,316.8276],[17.716,-0.199,318.0326],[17.712,-0.157,320.5345],[17.714,-0.128,309.2703],[17.725,-0.095,295.0],[17.747,-0.054,295.0],[17.771,0.0,310.5328],[17.758,0.018,295.0],[17.764,0.041,295.0],[17.7683,0.0798,295.5],[17.7752,0.1076,295.5],[17.787,0.143,320.2931],[17.8,0.173,295.5],[17.813,0.196,296.0],[17.821,0.216,296.0],[17.843,0.244,297.5654],[17.845,0.249,296.0],[17.855,0.26,298.0497],[17.8946,0.2884,296.5],[17.923,0.316,313.2633],[17.926,0.3225,296.5],[17.9421,0.3424,317.3128],[17.954,0.3653,296.5],[17.96,0.389,297.0],[17.9603,0.3995,297.0],[17.9626,0.4085,297.0],[17.9599,0.4662,297.0],[17.9551,0.4899,297.5],[17.9443,0.5121,297.5],[17.905,0.549,298.0],[17.886,0.572,298.0],[17.876,0.594,298.0],[17.873,0.612,298.5],[17.874,0.66,298.5],[17.88,0.675,313.6216],[17.8807,0.685,303.6093],[17.885,0.6915,303.5751],[17.891,0.707,299.0],[17.885,0.739,327.5016],[17.8953,0.7751,326.5172],[17.887,0.8031,330.7996],[17.8862,0.8268,323.0494],[17.8832,0.8382,314.1443],[17.8795,0.8457,300.0],[17.8612,0.8711,300.0],[17.845,0.919,307.987],[17.8451,0.9363,327.1008],[17.8522,0.9775,301.0],[17.8532,0.9974,301.5],[17.8501,1.0124,301.5],[17.8536,1.023,322.5674],[17.8595,1.0299,312.9236],[17.8611,1.0446,304.7295],[17.864,1.052,326.3751],[17.8831,1.0841,303.0],[17.9152,1.1149,304.0],[17.9286,1.1351,304.5],[17.9418,1.1645,305.0],[17.945,1.1875,305.5],[17.9549,1.2316,312.6873],[17.9549,1.2512,324.9554],[17.9578,1.2665,331.5077],[17.9706,1.309,335.4761],[17.976,1.338,310.1141],[17.9868,1.3603,308.5],[18.0,1.393,309.0],[18.0076,1.4064,309.0],[18.013,1.429,313.0495],[18.019,1.444,312.959],[18.0381,1.477,317.3072],[18.0596,1.5032,310.0],[18.0664,1.514,324.9366],[18.068,1.5214,310.0],[18.0665,1.5398,310.25],[18.0716,1.5578,310.5],[18.072,1.59,310.5],[18.0794,1.6174,311.5125],[18.076,1.6335,311.0],[18.0784,1.6542,311.0],[18.0872,1.6651,311.5],[18.088,1.678,311.5],[18.0833,1.7039,311.5],[18.0659,1.7629,313.3848],[18.0644,1.7836,312.0],[18.0583,1.8038,312.5],[18.06,1.8491,325.8595],[18.0677,1.8582,317.4409],[18.0675,1.8805,313.0],[18.0687,1.8839,313.0]]]]}}