{"type": "Feature","id": "4855","bbox": [14.95605,-4.52008,15.95785,-3.44801],"geometry": {"type": "Polygon","coordinates": [[[15.5804,-3.64543,668.6453],[15.55393,-3.63907,660.4705],[15.52208,-3.60722,682.6788],[15.48625,-3.56342,697.6002],[15.45839,-3.53555,673.8618],[15.4345,-3.50769,714.4047],[15.39071,-3.49176,720.2036],[15.33463,-3.47588,738.3649],[15.30278,-3.45199,501.108],[15.27492,-3.44801,564.1024],[15.25501,-3.48384,455.2682],[15.24705,-3.54754,507.9245],[15.24307,-3.61522,755.621],[15.2351,-3.67892,743.2712],[15.2152,-3.73864,753.4182],[15.1776,-3.77857,459.7226],[15.12186,-3.81042,472.0751],[15.09399,-3.86218,669.5278],[15.09399,-3.91393,696.4223],[15.1139,-3.97763,559.58],[15.11788,-4.02939,502.3997],[15.10195,-4.10503,396.3549],[15.0701,-4.15679,326.7968],[15.04622,-4.2165,344.6266],[15.02631,-4.26428,340.3127],[14.98252,-4.32002,377.9817],[14.95605,-4.36405,435.5711],[14.99188,-4.39988,468.2283],[15.01975,-4.43173,377.0898],[15.04363,-4.4795,384.5653],[15.07611,-4.52008,393.2321],[15.09792,-4.49993,335.0912],[15.15068,-4.42515,295.1423],[15.18804,-4.37219,271.2031],[15.19342,-4.35875,295.6038],[15.20396,-4.33901,284.1957],[15.22835,-4.32485,254.5],[15.25574,-4.31307,258.5],[15.27527,-4.30036,263.75],[15.38658,-4.24434,271.9823],[15.42545,-4.23018,281.3276],[15.45025,-4.21726,275.3672],[15.45893,-4.21385,274.2866],[15.46286,-4.20713,274.9572],[15.48498,-4.18388,268.0],[15.49035,-4.1752,268.0],[15.52115,-4.0768,271.5],[15.53376,-4.05799,271.5],[15.54906,-4.04621,271.5],[15.56683,-4.03805,271.5],[15.71122,-3.99216,272.0],[15.75514,-3.98565,272.0],[15.8,-3.97883,272.5],[15.84423,-3.9656,272.5],[15.88299,-3.94534,277.013],[15.88802,-3.94052,315.5602],[15.91213,-3.91743,272.5],[15.93032,-3.85863,272.5],[15.93611,-3.8485,273.0],[15.94314,-3.84075,273.0],[15.95785,-3.8151,281.632],[15.93703,-3.7901,499.7473],[15.9211,-3.7702,543.8051],[15.90518,-3.74631,575.142],[15.9012,-3.71048,531.963],[15.88527,-3.66669,559.9873],[15.86139,-3.61891,412.9653],[15.82954,-3.56716,613.9443],[15.80335,-3.53395,630.3829],[15.74761,-3.51405,635.2115],[15.71178,-3.49812,622.8157],[15.67595,-3.50608,547.2576],[15.64808,-3.53395,581.0514],[15.62818,-3.56978,654.8578],[15.60429,-3.62154,662.1965],[15.5804,-3.64543,668.6453]]]}
,"properties": {"ISO3166-1-Alpha-3": "COG","country": "Republic of the Congo","fill": "#F0F","name": "Brazzaville","area_km2": 6039.269,"hist_schema_id": "Elevation0-9000","hist_area_km2": {"225": 6.658,"250": 32.091,"275": 396.045,"300": 199.693,"325": 248.227,"350": 234.098,"375": 224.42,"400": 215.265,"425": 192.418,"450": 177.406,"475": 159.223,"500": 138.84,"525": 117.018,"550": 108.053,"575": 107.129,"600": 123.296,"625": 230.611,"650": 900.654,"675": 828.95,"700": 707.031,"725": 486.784,"750": 203.201,"775": 2.158}}}