{"type":"Feature","properties":{"featurecla":"River","scalerank":2,"rivernum":45,"dissolve":"45River","name":"Congo7","name_alt":null,"note":null,"min_zoom":2.1,"strokeweig":1.5,"name_en":"Congo","min_label":3.1},
"geometry":{"type": "LineString","coordinates": [[16.622460937500023,-1.69890715938088,288.9282],[16.616601562500023,-1.7285458312558859,284.0],[16.603662109375023,-1.75383880000588,283.5],[16.52197265625,-1.86150481563088,283.0],[16.5166015625,-1.8735653625058859,283.0],[16.513427734375,-1.8872372375058859,286.0112],[16.507226562500023,-1.89006926875588,283.8401],[16.489892578125023,-1.9033505187558859,283.0],[16.474267578125023,-1.909991143755889,287.0344],[16.469482421875,-1.9126278625058859,286.4243],[16.460351562500023,-1.920733331255889,283.0],[16.445068359375,-1.94036223750588,283.0],[16.382080078125,-2.0019833312558859,283.0],[16.339746093750023,-2.0340145812558892,283.0],[16.283935546875,-2.0874325500058859,282.5],[16.255615234375,-2.1067684875058892,282.0],[16.230712890625,-2.12883880000588,282.0],[16.206298828125,-2.1606747375058859,282.0],[16.194091796875,-2.18181731563088,282.0],[16.186914062500023,-2.2044247375058892,282.4864],[16.188134765625023,-2.2275692687558859,282.0],[16.189599609375023,-2.23528411250588,282.0],[16.189453125,-2.24163176875588,282.0],[16.176416015625023,-2.2866513000058859,281.5],[16.17431640625,-2.30291106563088,281.0],[16.177734375,-2.31829192500588,285.0145],[16.186914062500023,-2.3320614562558859,281.2912],[16.189355468750023,-2.33733489375588,281.2531],[16.191162109375,-2.3467098937558859,280.5],[16.191796875000023,-2.39495208125588,280.0],[16.22509765625,-2.6350888000058892,277.0],[16.204003906250023,-2.7825497375058892,276.0],[16.180322265625023,-2.85393645625588,275.5],[16.177734375,-2.86785247188088,275.0],[16.176513671875,-2.88225676875588,275.0],[16.187744140625,-2.97625090938088,274.0],[16.183984375000023,-3.0259091125058859,274.0],[16.189355468750023,-3.08220794063088,419.2522],[16.185205078125023,-3.1362606750058859,277.9103],[16.189453125,-3.1528622375058859,307.2485],[16.198632812500023,-3.1717098937558892,273.0],[16.198974609375,-3.1946591125058892,285.308],[16.19287109375,-3.23821380000588,338.0843],[16.198144531250023,-3.2593075500058859,299.1018],[16.209716796875,-3.2708309875058892,273.0],[16.2216796875,-3.27898528438088,275.339],[16.226953125000023,-3.28972747188088,279.9891],[16.22509765625,-3.3130184875058859,273.0],[16.22021484375,-3.33147551875588,318.3731],[16.20703125,-3.36174895625588,287.1542],[16.157861328125023,-3.4471005187558892,307.6182],[16.137353515625023,-3.5005184875058859,352.0231],[16.114990234375,-3.54412200313088,312.7784],[16.052734375,-3.6199520812558892,291.8663],[16.01220703125,-3.70208098750588,273.0],[16.004785156250023,-3.7246395812558859,293.3834],[15.990625,-3.7387997375058859,273.0],[15.973779296875023,-3.78630950313088,287.4613],[15.942626953125,-3.8406552062558892,273.0],[15.935546875,-3.84832122188088,273.0],[15.929833984375023,-3.8584286437558859,272.5],[15.911767578125023,-3.91716887813088,272.5],[15.882470703125023,-3.94524505000588,282.9831],[15.843652343750023,-3.9653622375058859,272.5],[15.799560546875,-3.9785458312558859,272.5],[15.754638671875,-3.98552825313088,272.0]]}}