{"type":"Feature","properties":{"featurecla":"River","scalerank":2,"rivernum":45,"dissolve":"45River","name":"Congo6","name_alt":null,"note":null,"min_zoom":2.1,"strokeweig":1.5,"name_en":"Congo","min_label":3.1},
"geometry":{"type": "LineString","coordinates": [[15.754638671875,-3.98552825313088,272.0],[15.710693359375,-3.99212005000588,272.0],[15.566162109375,-4.0379208312558887,271.5],[15.548583984375,-4.04607512813088,271.5],[15.533203125,-4.05779387813088,271.5],[15.5205078125,-4.0766903625058859,271.5],[15.489892578125023,-4.17498137813088,268.0],[15.484521484375023,-4.18377044063088,268.0],[15.462304687500023,-4.20696380000588,274.9572],[15.458398437500023,-4.2137020812558887,278.7328],[15.44970703125,-4.2171200500058887,275.3672],[15.424951171875023,-4.22991301875588,281.3276],[15.386132812500023,-4.24407317500588,271.9823],[15.27490234375,-4.30022551875588,263.75],[15.255273437500023,-4.31292083125588,258.5],[15.227783203125,-4.3247372375058859,254.5],[15.203369140625,-4.33879973750588,273.4846],[15.19287109375,-4.35857512813088,285.3318],[15.1875,-4.37200286250588,271.2031],[15.097412109375,-4.4998348937558887,335.0912],[15.075585937500023,-4.51995208125588,410.3692],[15.022216796875,-4.54680755000588,258.0054],[15.01416015625,-4.55779387813088,224.5],[15.007714843750023,-4.5708309875058859,224.5],[14.930419921875,-4.64666106563088,340.1787],[14.848535156250023,-4.78362395625588,374.0965],[14.8408203125,-4.79998137813088,376.5256],[14.830712890625023,-4.81487395625588,352.3555],[14.81494140625,-4.82781340938088,345.5723],[14.76806640625,-4.84807708125588,200.0],[14.701806640625023,-4.8894833312558887,406.589],[14.672265625000023,-4.8997372375058887,309.0232],[14.633935546875023,-4.90349700313088,367.8525],[14.622802734375,-4.8992489562558887,424.7744],[14.591552734375,-4.8804013000058859,359.461],[14.5791015625,-4.87615325313088,285.0765],[14.574609375000023,-4.87346770625588,287.9947],[14.56640625,-4.8603817687558859,234.5973],[14.561767578125,-4.8557919250058887,315.9364],[14.553369140625023,-4.85491301875588,207.8765],[14.531884765625023,-4.8559872375058859,223.617],[14.527490234375023,-4.85198333125588,208.899],[14.519287109375,-4.8411434875058887,329.2085],[14.5009765625,-4.84050872188088,237.7397],[14.4814453125,-4.84563567500588,179.5],[14.469482421875,-4.85198333125588,178.375],[14.449121093750023,-4.8738583312558887,175.5],[14.436669921875023,-4.88005950313088,174.0],[14.417626953125023,-4.8831356750058887,249.3475]]}}