{"type": "Feature","bbox": [13.9005,-4.5185,14.921,-3.95],"geometry": {"type": "MultiPolygon","coordinates": [[[[14.4365,-4.4097,446.1681],[14.4743,-4.3934,502.082],[14.4904,-4.391,509.1785],[14.5084,-4.3817,466.711],[14.5248,-4.377,475.0986],[14.559,-4.3552,452.8654],[14.599,-4.3335,450.9868],[14.6255,-4.3055,455.6732],[14.6332,-4.285,445.9083],[14.6265,-4.2443,435.8141],[14.6417,-4.1806,442.491],[14.6311,-4.1539,448.3619],[14.6351,-4.1114,432.0294],[14.6487,-4.0851,432.407],[14.6733,-4.0703,447.7546],[14.7079,-4.0835,463.9828],[14.7372,-4.0722,457.4937],[14.7635,-4.0814,462.5295],[14.8547,-4.0622,378.3387],[14.8786,-4.0503,334.5413],[14.9048,-4.0502,333.4174],[14.921,-4.0298,385.3658],[14.8959,-4.0265,326.4858],[14.8649,-4.0319,350.1493],[14.8159,-4.0106,426.2847],[14.7718,-4.0159,444.8502],[14.7073,-4.0101,517.2924],[14.6692,-4.0038,492.4622],[14.6437,-4.0065,460.7262],[14.5825,-3.9622,661.0066],[14.5598,-3.951,594.6858],[14.5188,-3.9587,359.5131],[14.4964,-3.966,405.7466],[14.4618,-3.9827,306.1337],[14.4525,-3.9702,298.0563],[14.4276,-3.9764,252.0013],[14.4127,-3.9697,290.2249],[14.3853,-3.9533,221.438],[14.3729,-3.95,229.9391],[14.3739,-3.9542,255.4976],[14.3711,-3.9583,217.5184],[14.355,-3.9628,237.6578],[14.3475,-3.9692,235.2249],[14.3453,-3.9814,251.0744],[14.3381,-3.9881,213.9222],[14.3319,-3.9889,249.0072],[14.3278,-3.9917,205.5898],[14.3264,-4.0039,240.0484],[14.3239,-4.0086,214.8997],[14.3192,-4.0106,209.9024],[14.3131,-4.0097,246.7789],[14.3042,-4.0047,255.1],[14.2925,-4.0025,252.7044],[14.2833,-4.0072,242.9008],[14.2778,-4.0083,219.6369],[14.2722,-4.0072,213.0668],[14.2517,-3.9931,214.0448],[14.2469,-3.9908,238.5199],[14.2408,-3.9917,220.2074],[14.2297,-4.0008,211.0488],[14.2275,-4.0058,268.0931],[14.2267,-4.0186,215.9498],[14.2203,-4.0261,218.2169],[14.2119,-4.0317,217.6776],[14.2019,-4.0425,239.4739],[14.1797,-4.0478,262.8713],[14.1783,-4.06,211.5784],[14.1747,-4.0633,203.1177],[14.1589,-4.0681,221.7075],[14.1561,-4.0719,242.2374],[14.1475,-4.0911,251.9677],[14.1467,-4.0972,281.4025],[14.1528,-4.105,206.7895],[14.1539,-4.1228,248.0853],[14.1578,-4.1258,227.1229],[14.1633,-4.1342,216.9143],[14.1644,-4.1467,195.4206],[14.1594,-4.1553,237.8676],[14.1506,-4.1603,202.774],[14.1475,-4.1642,203.1088],[14.1464,-4.1697,203.0564],[14.1475,-4.1753,199.4589],[14.1453,-4.18,182.0673],[14.1344,-4.1811,231.6774],[14.1231,-4.1781,233.4423],[14.095,-4.1839,231.4838],[14.0908,-4.1867,216.0079],[14.0817,-4.1983,212.4501],[14.055,-4.2206,228.5831],[14.0492,-4.2356,195.6982],[14.0433,-4.2439,179.8648],[14.0261,-4.2525,232.1138],[13.9792,-4.2669,216.7467],[13.9706,-4.2722,222.71],[13.9614,-4.2836,211.4752],[13.9533,-4.3131,203.8169],[13.9508,-4.3361,244.5797],[13.9461,-4.3508,230.7071],[13.9492,-4.375,250.2701],[13.9469,-4.3908,219.8831],[13.9333,-4.4136,276.5637],[13.9253,-4.4439,577.4415],[13.9178,-4.4503,611.4878],[13.9117,-4.4583,634.8077],[13.9086,-4.4667,652.0588],[13.9005,-4.5084,652.0789],[13.9193,-4.5096,656.9598],[13.9441,-4.5185,642.6736],[13.9597,-4.5182,637.09],[13.9691,-4.5113,626.8807],[14.001,-4.4739,644.449],[14.0176,-4.434,614.9119],[14.0205,-4.4308,623.4507],[14.0535,-4.4201,600.8232],[14.0823,-4.4146,585.6852],[14.1283,-4.4156,597.7692],[14.1557,-4.4087,597.0291],[14.1714,-4.4009,623.2581],[14.1849,-4.3977,631.9301],[14.1993,-4.3909,625.9584],[14.2517,-4.3612,583.7795],[14.286,-4.3374,549.5228],[14.3013,-4.3301,573.6208],[14.3138,-4.3174,584.5468],[14.3206,-4.3141,568.7367],[14.34,-4.3127,577.9813],[14.3583,-4.3142,539.1198],[14.3617,-4.31,526.9272],[14.3622,-4.3023,527.0522],[14.37,-4.3018,537.8654],[14.3817,-4.2981,505.0591],[14.4084,-4.3077,475.1094],[14.4031,-4.3232,533.3251],[14.3958,-4.3313,553.7361],[14.3866,-4.3373,573.6101],[14.3873,-4.3412,583.5555],[14.4171,-4.3825,468.2163],[14.4208,-4.3906,469.8385],[14.4365,-4.4097,446.1681]]]]}
,"properties": {"GID_2": "COG.11.5_1","GID_0": "COG","country": "RepublicoftheCongo","GID_1": "COG.11_1","province": "Pool","NL_NAME_1": "NA","county": "Mindouli","VARNAME_2": "NA","NL_NAME_2": "NA","TYPE_2": "District","ENGTYPE_2": "District","CC_2": "NA","HASC_2": "CG.PO.MI","name": "Mindouli.county","area_km2": 2970.465,"hist_schema_id": "Elevation0-9000","hist_area_km2": {"175": 15.013,"200": 65.258,"225": 127.701,"250": 128.295,"275": 177.589,"300": 249.083,"325": 220.55,"350": 176.352,"375": 157.974,"400": 178.36,"425": 214.273,"450": 372.697,"475": 299.275,"500": 167.341,"525": 120.647,"550": 92.27,"575": 63.723,"600": 49.342,"625": 52.848,"650": 31.961,"675": 9.111,"700": 0.803}}}