{"type": "Feature","bbox": [15.3112,-2.5952,16.6674,-1.454],"geometry": {"type": "MultiPolygon","coordinates": [[[[16.6674,-1.5902,285.5],[16.6236,-1.5903,285.5],[16.6064,-1.5933,298.3907],[16.5953,-1.5908,294.9209],[16.5933,-1.5858,288.6208],[16.5939,-1.5797,299.6212],[16.6031,-1.5611,297.0507],[16.605,-1.5381,289.9136],[16.5822,-1.5411,303.6223],[16.5781,-1.5383,289.6628],[16.5728,-1.53,300.2713],[16.5631,-1.5256,304.2277],[16.5397,-1.5303,302.8461],[16.5156,-1.5292,300.0975],[16.5075,-1.5347,300.9792],[16.4997,-1.5478,304.3143],[16.495,-1.5497,305.6397],[16.4894,-1.5497,306.5486],[16.4769,-1.5411,294.5615],[16.4708,-1.5419,304.5854],[16.4642,-1.5486,305.9744],[16.4578,-1.5494,302.9451],[16.4333,-1.5461,304.8895],[16.4319,-1.5408,305.9977],[16.4353,-1.5372,306.0622],[16.4447,-1.5333,305.1666],[16.4444,-1.5272,303.1782],[16.4403,-1.5244,301.8289],[16.4142,-1.5228,292.0],[16.4039,-1.5192,292.0],[16.4006,-1.5156,305.4534],[16.3992,-1.51,306.4317],[16.4025,-1.5069,305.4206],[16.4139,-1.5042,303.9204],[16.4089,-1.4953,305.9974],[16.3892,-1.5025,294.7195],[16.3831,-1.5017,306.125],[16.3719,-1.4919,305.8867],[16.3664,-1.4908,294.9701],[16.3611,-1.4919,305.8073],[16.3583,-1.4958,304.8242],[16.3533,-1.4981,305.9642],[16.3496,-1.4954,307.75],[16.3454,-1.5101,299.0079],[16.3269,-1.5421,295.0186],[16.3208,-1.5645,294.6595],[16.3056,-1.5768,297.6872],[16.2805,-1.5822,296.8402],[16.2386,-1.5549,297.3075],[16.2032,-1.55,296.7841],[16.1655,-1.533,308.593],[16.1469,-1.5324,309.773],[16.1464,-1.5204,316.5723],[16.1384,-1.5093,301.8875],[16.1355,-1.4855,328.9505],[16.1308,-1.4647,314.916],[16.1038,-1.4572,322.1124],[16.0633,-1.466,332.0612],[16.0359,-1.454,312.1189],[16.0035,-1.457,325.7959],[15.9504,-1.4676,347.4805],[15.9178,-1.4717,356.1261],[15.8825,-1.482,362.3813],[15.8367,-1.4901,368.7819],[15.7903,-1.501,368.3846],[15.7081,-1.5136,404.3987],[15.672,-1.5353,411.382],[15.6286,-1.5882,381.8205],[15.6023,-1.6154,425.7011],[15.5992,-1.6357,438.6871],[15.5822,-1.6933,373.448],[15.5752,-1.7273,368.8109],[15.5717,-1.7539,376.2383],[15.544,-1.8075,350.075],[15.5478,-1.8418,332.8599],[15.5454,-1.8746,413.3736],[15.5128,-1.8948,401.0694],[15.4752,-1.9041,413.1448],[15.4502,-1.912,418.4174],[15.4109,-1.9192,480.2469],[15.3606,-1.9332,400.9597],[15.3386,-1.9416,480.9627],[15.3112,-1.9963,376.0578],[15.3197,-2.0058,345.2549],[15.3434,-2.0256,459.5947],[15.3598,-2.0515,429.355],[15.3805,-2.0766,551.5123],[15.3896,-2.1042,525.7076],[15.4088,-2.1208,583.1808],[15.4225,-2.1529,552.3577],[15.4296,-2.1797,648.2626],[15.4454,-2.2065,637.5798],[15.4631,-2.2284,648.5935],[15.5025,-2.2391,632.8296],[15.5495,-2.2271,585.6331],[15.5835,-2.2404,529.5437],[15.6117,-2.2544,553.5706],[15.6555,-2.272,560.8967],[15.6866,-2.2682,541.7038],[15.7925,-2.3018,469.1947],[15.8435,-2.3486,477.6235],[15.8732,-2.414,501.8398],[15.9112,-2.4729,472.8309],[15.9474,-2.5044,593.0786],[15.993,-2.5185,519.2808],[16.0633,-2.5339,528.849],[16.0975,-2.5374,470.0762],[16.1304,-2.5543,413.4038],[16.1644,-2.5682,398.0237],[16.1756,-2.5755,332.9597],[16.2326,-2.5952,278.0],[16.2092,-2.5166,279.0],[16.1891,-2.4238,280.0],[16.1843,-2.3829,280.5],[16.1852,-2.3199,281.0],[16.1897,-2.2729,281.5],[16.1915,-2.225,282.0],[16.201,-2.198,282.0],[16.242,-2.123,282.0],[16.2678,-2.1071,282.5],[16.3235,-2.0689,283.0],[16.3592,-2.0383,283.0],[16.4055,-1.992,285.323],[16.4879,-1.8956,283.0],[16.538,-1.829,284.0193],[16.552,-1.804,283.0],[16.589,-1.7452,287.9489],[16.6674,-1.5902,285.5]]]]}
,"properties": {"GID_2": "COG.9.3_1","GID_0": "COG","country": "RepublicoftheCongo","GID_1": "COG.9_1","province": "Plateaux","NL_NAME_1": "NA","county": "Gamboma","VARNAME_2": "NA","NL_NAME_2": "NA","TYPE_2": "District","ENGTYPE_2": "District","CC_2": "NA","HASC_2": "CG.PL.GA","name": "Gamboma.county","area_km2": 10048.88,"hist_schema_id": "Elevation0-9000","hist_area_km2": {"275": 1218.899,"300": 2171.896,"325": 1022.272,"350": 935.593,"375": 1027.81,"400": 1040.346,"425": 773.289,"450": 561.736,"475": 392.547,"500": 274.113,"525": 214.897,"550": 157.463,"575": 95.491,"600": 52.141,"625": 50.914,"650": 59.133,"675": 0.339}}}