{"type": "Feature","bbox": [14.4102,-1.1785,15.1854,-0.2145],"geometry": {"type": "MultiPolygon","coordinates": [[[[14.4314,-1.0376,569.0704],[14.4637,-1.1785,592.4019],[14.6366,-1.1453,545.5372],[14.6587,-1.1324,497.2704],[14.6749,-1.1063,508.7822],[14.7489,-1.1229,522.4796],[14.7753,-1.1187,490.4987],[14.7959,-1.1132,465.934],[14.8304,-1.116,450.5113],[14.9252,-1.1108,506.7636],[14.9761,-1.0978,394.1527],[15.0237,-1.0805,421.3376],[15.0393,-1.0686,434.8377],[15.0542,-1.0296,420.0211],[15.088,-0.992,418.3572],[15.1371,-0.9495,379.1461],[15.1446,-0.9379,387.2397],[15.1723,-0.8705,377.5914],[15.1854,-0.8576,380.4178],[15.1734,-0.8362,378.0383],[15.1518,-0.8099,387.8615],[15.1245,-0.7846,405.7731],[15.0703,-0.7482,423.6413],[15.0404,-0.7215,427.1608],[15.008,-0.6859,423.9475],[15.0591,-0.6232,409.6149],[15.0714,-0.6152,404.592],[15.0944,-0.5936,385.8138],[15.1121,-0.5722,371.7366],[15.1225,-0.5522,369.9028],[15.1348,-0.5195,398.7138],[15.1434,-0.508,381.7846],[15.1542,-0.4696,345.574],[15.1429,-0.448,352.6053],[15.132,-0.3811,388.0838],[15.1259,-0.3563,383.0842],[15.1086,-0.3242,403.7263],[15.1052,-0.2989,415.5901],[15.0971,-0.2726,432.9025],[15.0886,-0.254,416.5168],[15.0208,-0.2466,415.0241],[14.9694,-0.238,441.0496],[14.9549,-0.2314,421.9765],[14.9398,-0.2145,422.2851],[14.9174,-0.253,424.7322],[14.8615,-0.2764,449.0166],[14.8459,-0.2853,465.0352],[14.8198,-0.3126,429.2523],[14.796,-0.3207,446.082],[14.7764,-0.3337,441.5062],[14.7522,-0.3559,448.4251],[14.7108,-0.4045,473.9165],[14.7081,-0.4429,516.0235],[14.7045,-0.461,512.7323],[14.7112,-0.4982,451.6291],[14.7067,-0.5165,443.8987],[14.7042,-0.5469,447.3643],[14.692,-0.5629,454.4044],[14.652,-0.5938,430.0665],[14.6357,-0.594,463.5189],[14.6139,-0.5975,461.9927],[14.589,-0.596,505.4475],[14.4926,-0.615,484.0856],[14.4971,-0.6331,513.6385],[14.4995,-0.6572,528.2237],[14.4987,-0.6809,532.8464],[14.4866,-0.7161,530.4672],[14.4709,-0.7412,522.434],[14.4648,-0.7612,508.9875],[14.4586,-0.8012,525.6335],[14.4408,-0.8525,513.3001],[14.4304,-0.8726,531.1153],[14.4156,-0.888,472.1861],[14.4102,-0.909,472.7323],[14.4195,-0.9429,527.9293],[14.423,-1.0006,578.6328],[14.4314,-1.0376,569.0704]]]]}
,"properties": {"GID_2": "COG.3.1_1","GID_0": "COG","country": "RepublicoftheCongo","GID_1": "COG.3_1","province": "Cuvette-Ouest","NL_NAME_1": "NA","county": "Ewo","VARNAME_2": "NA","NL_NAME_2": "NA","TYPE_2": "District","ENGTYPE_2": "District","CC_2": "NA","HASC_2": "CG.CO.EW","name": "Ewo.county","area_km2": 5820.606,"hist_schema_id": "Elevation0-9000","hist_area_km2": {"325": 0.254,"350": 86.713,"375": 527.983,"400": 1258.315,"425": 1512.802,"450": 964.226,"475": 589.735,"500": 375.718,"525": 247.693,"550": 137.37,"575": 86.725,"600": 29.191,"625": 3.795,"650": 0.064}}}