{"type":"Feature","properties":{"GID_2":"COG.5.4_1","GID_0":"COG","country":"RepublicoftheCongo","GID_1":"COG.5_1","province":"Kouilou","NL_NAME_1":"NA","county":"Mvouti","VARNAME_2":"NA","NL_NAME_2":"NA","TYPE_2":"District","ENGTYPE_2":"District","CC_2":"NA","HASC_2":"CG.KO.MV","name":"Mvouti.county"},
"geometry":{"type": "MultiPolygon","coordinates": [[[[12.7362,-4.4904,715.9822],[12.7555,-4.4881,504.9012],[12.7601,-4.486,506.2524],[12.7539,-4.4771,442.8499],[12.7458,-4.4715,438.2834],[12.7375,-4.4621,423.1503],[12.726,-4.4376,595.8704],[12.723,-4.427,561.3332],[12.7237,-4.4173,658.9793],[12.728,-4.3998,713.1592],[12.7344,-4.386,677.9808],[12.7433,-4.3777,797.3434],[12.7513,-4.3726,657.2035],[12.7648,-4.3745,551.8866],[12.7422,-4.3531,603.1743],[12.7256,-4.3408,619.7247],[12.7019,-4.3311,580.689],[12.6878,-4.3294,598.1348],[12.6236,-4.3333,620.1127],[12.6081,-4.3314,480.6048],[12.5928,-4.3244,486.1328],[12.5858,-4.3172,558.7972],[12.5547,-4.2722,621.4667],[12.5475,-4.2569,747.8307],[12.545,-4.2475,590.4329],[12.5475,-4.2175,431.1711],[12.5561,-4.1797,400.415],[12.5564,-4.1722,331.8137],[12.5494,-4.1681,330.7091],[12.5431,-4.1611,373.3865],[12.5381,-4.1458,304.7579],[12.5231,-4.1325,300.6233],[12.5181,-4.1247,333.5444],[12.5036,-4.1108,279.5821],[12.4456,-4.0414,222.2104],[12.4367,-4.0339,190.062],[12.4289,-4.0311,232.2028],[12.4058,-4.0314,226.5481],[12.3983,-4.0297,330.0266],[12.3908,-4.0258,230.9544],[12.3875,-4.0178,213.4235],[12.3919,-4.0033,228.5059],[12.39,-3.9964,259.6448],[12.3825,-3.9908,318.1681],[12.3583,-3.9836,213.5457],[12.3511,-3.9789,176.529],[12.3439,-3.9767,175.7456],[12.3272,-3.9783,164.9316],[12.3197,-3.9775,117.7962],[12.2875,-3.9658,145.6877],[12.2719,-3.9661,216.9818],[12.2631,-3.9631,142.9221],[12.2481,-3.9511,146.9857],[12.2333,-3.9494,189.1011],[12.2178,-3.9517,45.8753],[12.2103,-3.9489,108.2239],[12.2114,-3.925,131.9309],[12.2103,-3.9181,263.8946],[12.2025,-3.9147,260.4308],[12.1953,-3.9144,207.5469],[12.1881,-3.9119,166.9344],[12.18,-3.9067,128.8675],[12.1711,-3.894,143.1447],[12.1574,-3.9117,148.4224],[12.1525,-3.929,174.1798],[12.1491,-3.9576,187.4359],[12.1569,-4.0018,237.2603],[12.1746,-4.0234,177.0968],[12.2024,-4.0937,279.8359],[12.2214,-4.1492,542.0181],[12.2112,-4.1763,415.0968],[12.2047,-4.2273,423.139],[12.2141,-4.2778,309.6425],[12.1994,-4.3065,179.7223],[12.1825,-4.3184,212.3647],[12.1514,-4.3237,123.8425],[12.1043,-4.3377,125.5872],[12.0763,-4.339,84.8391],[12.0857,-4.3742,87.175],[12.1107,-4.4227,87.4171],[12.1162,-4.4479,36.2427],[12.1354,-4.4896,102.8067],[12.1545,-4.5168,80.1369],[12.1685,-4.5333,76.5303],[12.1928,-4.5466,68.7338],[12.2322,-4.5641,82.2813],[12.2413,-4.5846,94.1928],[12.2257,-4.6087,91.987799999999993],[12.2144,-4.6335,23.2324],[12.21,-4.6684,17.391],[12.2157,-4.7075,27.246],[12.2089,-4.7644,81.7302],[12.2093,-4.7692,62.4265],[12.2102,-4.7677,68.59],[12.2132,-4.7696,55.2558],[12.244,-4.8086,131.5792],[12.2538,-4.8174,122.8863],[12.2908,-4.8157,168.0965],[12.3016,-4.8136,168.4511],[12.3238,-4.7947,146.1119],[12.3513,-4.7666,91.7186],[12.3586,-4.7571,98.1467],[12.4135,-4.6719,97.1788],[12.443,-4.6208,196.9606],[12.4543,-4.604,256.2325],[12.4624,-4.5961,201.6971],[12.505,-4.5891,271.9566],[12.5536,-4.5771,454.212],[12.5644,-4.5762,386.5898],[12.6161,-4.5643,235.2556],[12.621,-4.5579,200.4737],[12.6235,-4.5486,192.8371],[12.6292,-4.5382999999999996,199.1232],[12.6464,-4.5155,253.9276],[12.6583,-4.4918,273.733],[12.6628,-4.4874,268.9985],[12.686,-4.4832,523.56],[12.7034,-4.4836,375.7647],[12.7362,-4.4904,715.9822]]]]}}