{"type":"Feature","properties":{"featurecla":"River","scalerank":8,"rivernum":727,"dissolve":"727River","name":"Niari1","name_alt":null,"note":null,"min_zoom":7.0,"strokeweig":0.2,"name_en":"Niari","min_label":8.0},
"geometry":{"type": "LineString","coordinates": [[14.544921875,-3.5019833312558859,460.2832],[14.5244140625,-3.5349911437558892,483.4455],[14.521240234375,-3.5432919250058892,457.8206],[14.521240234375,-3.58757903438088,452.8907],[14.511621093750023,-3.6038388000058892,450.214],[14.496240234375023,-3.60955169063088,452.4637],[14.42138671875,-3.60881926875588,448.0016],[14.416650390625023,-3.61052825313088,445.9625],[14.400292968750023,-3.61858489375588,446.6132],[14.390380859375,-3.62175872188088,449.3921],[14.322509765625,-3.6233700500058892,493.4956],[14.278076171875,-3.6470028625058859,463.2344],[14.2705078125,-3.64910247188088,444.3878],[14.262939453125,-3.6523739562558859,437.3229],[14.2490234375,-3.6689755187558859,450.8102],[14.239501953125,-3.67644622188088,450.8065],[14.224853515625,-3.67839934688088,444.1819],[14.214746093750023,-3.6746395812558892,431.8713],[14.210595703125023,-3.6753231750058859,438.1281],[14.212792968750023,-3.6907528625058892,451.0568],[14.239501953125,-3.7390927062558892,414.3352],[14.261132812500023,-3.76409270625588,408.0422],[14.294189453125,-3.81755950313088,297.1075],[14.294189453125,-3.8354794250058859,440.153],[14.296875,-3.8518856750058892,412.1223],[14.30615234375,-3.8640927062558892,287.6396],[14.3251953125,-3.86882903438088,342.4849],[14.343994140625,-3.87883880000588,293.4984],[14.355224609375,-3.90227630000588,272.8032],[14.364501953125,-3.9297177062558859,215.0269],[14.377343750000023,-3.95134856563088,241.3926],[14.365136718750023,-3.9554013000058892,254.699],[14.35693359375,-3.96160247188088,224.4005],[14.342675781250023,-3.97869231563088,253.1402],[14.327050781250023,-4.00188567500588,208.5722],[14.322021484375,-4.0066708312558887,212.465],[14.280517578125,-4.0066708312558887,227.6457],[14.248291015625,-3.98748137813088,251.5781],[14.239501953125,-3.98552825313088,254.2455],[14.234619140625,-3.99065520625588,262.5795],[14.229638671875023,-4.01116301875588,234.9801],[14.2265625,-4.01970794063088,220.5988],[14.2197265625,-4.0268856750058859,234.2069],[14.168847656250023,-4.0623348937558887,218.129],[14.155908203125023,-4.07537200313088,225.0875],[14.143945312500023,-4.0947567687558859,257.7002],[14.16162109375,-4.1346005187558887,200.3872],[14.16064453125,-4.15129973750588,224.0821],[14.143945312500023,-4.16301848750588,249.8747],[14.1513671875,-4.1704403625058859,184.8787],[14.135644531250023,-4.1772763000058859,206.4753],[14.10205078125,-4.18547942500588,243.4684],[14.088623046875,-4.1909481750058859,214.0768],[14.078271484375023,-4.1990536437558887,214.5399],[14.04833984375,-4.2319638000058859,216.7127],[14.025537109375023,-4.24920012813088,213.0341],[13.989648437500023,-4.26677825313088,217.0763],[13.9521484375,-4.27385833125588,173.317],[13.9248046875,-4.25920989375588,196.01],[13.900634765625,-4.27263762813088,185.1985],[13.890283203125023,-4.2715145812558859,162.3006],[13.883544921875,-4.26091887813088,192.3933],[13.8701171875,-4.2461239562558859,159.3746],[13.837792968750023,-4.23113372188088,187.2837],[13.828125,-4.2190731750058887,218.3251],[13.834863281250023,-4.1977841125058859,173.4594],[13.826171875,-4.1929013000058859,155.4577],[13.8193359375,-4.18621184688088,157.457],[13.815332031250023,-4.17644622188088,214.9512],[13.81494140625,-4.16301848750588,161.2378],[13.802636718750023,-4.16887786250588,194.4739],[13.792724609375,-4.1694638000058859,151.9893],[13.783935546875,-4.16863372188088,179.1554],[13.774072265625023,-4.1704403625058859,153.3395],[13.771142578125023,-4.1668270812558887,150.6297],[13.76025390625,-4.15618255000588,172.8575],[13.756982421875023,-4.16057708125588,157.403],[13.754785156250023,-4.1611630187558859,147.1867],[13.751953125,-4.1609677062558887,148.7443],[13.74609375,-4.16301848750588,149.1209],[13.746826171875,-4.1453427062558887,188.2431],[13.725732421875023,-4.1465145812558859,190.2207],[13.69775390625,-4.15789153438088,153.7449],[13.677880859375023,-4.1704403625058859,148.6653],[13.677636718750023,-4.16057708125588,147.4044],[13.678369140625023,-4.1533505187558859,146.2697],[13.680566406250023,-4.1477841125058887,178.1717],[13.684716796875023,-4.14251067500588,199.6348],[13.673486328125023,-4.1389950500058887,189.1738],[13.664697265625023,-4.1416317687558859,174.6738],[13.655664062500023,-4.1465145812558859,175.1704],[13.643701171875023,-4.1499325500058859,161.0799],[13.633447265625023,-4.1482723937558887,170.5984],[13.541748046875,-4.11419036250588,230.6219],[13.512353515625023,-4.11174895625588,216.574],[13.499658203125023,-4.1326473937558887,184.1092],[13.426904296875023,-4.12224700313088,221.3039],[13.4072265625,-4.12542083125588,223.1224],[13.405175781250023,-4.1346005187558887,237.167],[13.407470703125,-4.1445614562558859,152.4825],[13.406396484375023,-4.14837005000588,144.613],[13.380517578125023,-4.13005950313088,152.1601],[13.366845703125023,-4.12395598750588,178.4413],[13.35546875,-4.1248348937558887,246.8712],[13.348876953125,-4.1362606750058859,142.7232],[13.3310546875,-4.12932708125588,228.7889],[13.319580078125,-4.1394833312558887,177.8942],[13.308984375000023,-4.1546200500058887,160.2695],[13.293603515625023,-4.16301848750588,122.2494],[13.28955078125,-4.1609677062558887,123.1232],[13.259521484375,-4.1499325500058859,143.8949],[13.2568359375,-4.14128997188088,146.0407],[13.260498046875,-4.13567473750588,120.8353],[13.265625,-4.13201262813088,149.7446],[13.266845703125,-4.12883880000588,196.3151],[13.251123046875023,-4.11931731563088,183.6495],[13.2314453125,-4.11931731563088,157.1749],[13.210595703125023,-4.12224700313088,144.8004],[13.191162109375,-4.1221005187558859,131.9153]]}}