{"type":"Feature","properties":{"featurecla":"River","scalerank":8,"rivernum":954,"dissolve":"954River","name":"Kouilou","name_alt":null,"note":null,"min_zoom":7.0,"strokeweig":0.25,"name_en":"Kouilou","min_label":8.0},
"geometry":{"type": "LineString","coordinates": [[12.701171875,-3.5193661437558892,264.8778],[12.692285156250023,-3.5215145812558859,169.9342],[12.672265625000023,-3.5307919250058859,107.4086],[12.660302734375023,-3.5330380187558892,101.2979],[12.656982421875,-3.5281552062558892,99.5051],[12.656884765625023,-3.4951473937558859,154.0323],[12.652490234375023,-3.4910458312558892,130.5224],[12.64306640625,-3.49163176875588,118.1093],[12.6337890625,-3.49065520625588,92.5004],[12.62939453125,-3.48186614375588,119.7589],[12.628662109375,-3.4707333312558859,88.3329],[12.62548828125,-3.4632138000058892,84.1395],[12.619140625,-3.4588192687558892,97.6861],[12.6083984375,-3.45794036250588,166.2952],[12.6083984375,-3.45110442500588,113.1703],[12.614990234375,-3.43840911250588,89.3221],[12.599511718750023,-3.42302825313088,143.5372],[12.578125,-3.41741301875588,127.7007],[12.5673828125,-3.43401458125588,83.8966],[12.560302734375,-3.4546200500058859,155.7598],[12.542724609375,-3.46160247188088,116.4256],[12.5205078125,-3.4638973937558859,106.9866],[12.499169921875023,-3.4710263000058892,84.311],[12.483544921875023,-3.49041106563088,76.5042],[12.457177734375023,-3.5428036437558892,97.2255],[12.44140625,-3.5535458312558892,79.8884],[12.430908203125,-3.5432919250058892,80.5333],[12.427734375,-3.53850676875588,74.6038],[12.4208984375,-3.5403622375058892,75.8897],[12.410302734375023,-3.5467098937558892,78.1196],[12.384912109375023,-3.5390927062558859,79.364],[12.372705078125023,-3.5335263000058892,87.5746],[12.362548828125,-3.52556731563088,84.2743],[12.348535156250023,-3.5342098937558859,76.0629],[12.331933593750023,-3.54192473750588,80.5752],[12.315185546875,-3.5449520812558859,78.0007],[12.300439453125023,-3.5398739562558892,110.2711],[12.304443359375,-3.56072356563088,62.9869],[12.32861328125,-3.59099700313088,73.425299999999993],[12.361083984375,-3.6181942687558859,68.6322],[12.389892578125,-3.6292294250058892,145.6581],[12.389892578125,-3.63543059688088,71.7042],[12.344384765625023,-3.6460263000058859,109.5362],[12.319238281250023,-3.67693450313088,134.9681],[12.286865234375,-3.7527645812558892,167.6468],[12.274072265625023,-3.7649716125058892,105.9999],[12.258203125000023,-3.7754208312558859,59.2548],[12.244775390625023,-3.7874325500058892,135.7908],[12.239013671875,-3.8040341125058892,131.9566],[12.237939453125023,-3.81414153438088,198.185],[12.212158203125,-3.93157317500588,161.0035],[12.211181640625,-3.95452239375588,111.5324],[12.205810546875,-3.9656552062558892,225.2574],[12.182373046875,-3.9804989562558859,183.697],[12.177001953125,-3.9892880187558859,149.2605],[12.178466796875,-4.00115325313088,119.5472],[12.181054687500023,-4.01018645625588,80.2558],[12.181542968750023,-4.01970794063088,128.1421],[12.177001953125,-4.03264739375588,220.1534],[12.164794921875,-4.0429989562558859,358.1695],[12.114990234375,-4.07048919063088,363.1402],[12.109521484375023,-4.0857723937558887,213.3853],[12.096337890625023,-4.0945614562558887,65.7626],[12.08056640625,-4.1009091125058887,186.2042],[12.067138671875,-4.1084286437558859,173.3874]]}}