{"type":"Feature","properties":{"featurecla":"River","scalerank":8,"rivernum":727,"dissolve":"727River","name":"Niari2","name_alt":null,"note":null,"min_zoom":7.0,"strokeweig":0.25,"name_en":"Niari","min_label":8.0},
"geometry":{"type": "LineString","coordinates": [[13.191162109375,-4.1221005187558859,131.9153],[13.186181640625023,-4.11809661250588,125.0771],[13.181884765625,-4.11101653438088,119.6991],[13.177490234375,-4.10100676875588,202.1887],[13.172607421875,-4.10051848750588,210.862],[13.161865234375,-4.1015927062558859,150.82],[13.156982421875,-4.10100676875588,144.9107],[13.160058593750023,-4.10320403438088,130.7968],[13.145654296875023,-4.1015927062558859,124.3552],[13.138330078125023,-4.0991513000058859,116.469],[13.122949218750023,-4.0879208312558859,213.5153],[13.117578125000023,-4.0970028625058887,129.7069],[13.110986328125023,-4.0991513000058859,113.4889],[13.105224609375,-4.09417083125588,116.6419],[13.1025390625,-4.0810848937558859,181.1024],[13.094970703125,-4.0874325500058859,112.2993],[13.089599609375,-4.0906552062558887,137.6955],[13.075097656250023,-4.0947567687558859,150.8507],[13.08935546875,-4.0810848937558859,124.8167],[13.069726562500023,-4.08049895625588,167.0346],[13.044580078125023,-4.0887020812558887,119.6966],[13.02294921875,-4.08879973750588,112.5337],[13.013671875,-4.0637997375058887,112.0604],[13.007470703125023,-4.0586239562558859,119.0168],[12.972070312500023,-4.04705169063088,105.6759],[12.9609375,-4.03923919063088,107.6641],[12.934814453125,-4.00969817500588,114.7997],[12.931884765625,-4.00017669063088,146.8087],[12.940673828125,-3.99138762813088,173.4103],[12.952539062500023,-3.98308684688088,150.0802],[12.958398437500023,-3.97527434688088,130.3909],[12.956298828125,-3.97087981563088,130.4281],[12.949365234375023,-3.94646575313088,117.3656],[12.951562500000023,-3.94451262813088,110.5489],[12.949365234375023,-3.93914153438088,156.0355],[12.950341796875023,-3.9348934875058892,161.8763],[12.949462890625,-3.93206145625588,169.0381],[12.941650390625,-3.9309872375058892,126.0715],[12.93359375,-3.9311825500058859,114.3858],[12.928125,-3.9306942687558859,103.7734],[12.92529296875,-3.9277645812558859,161.5312],[12.92431640625,-3.92034270625588,168.8038],[12.928955078125,-3.9070614562558892,167.6595],[12.937255859375,-3.89641692500588,131.6562],[12.94091796875,-3.88665130000588,118.7291],[12.93115234375,-3.87566497188088,201.6118],[12.9345703125,-3.85930755000588,116.2782],[12.899804687500023,-3.83220794063088,192.0932],[12.89013671875,-3.81072356563088,137.3763],[12.89013671875,-3.7732723937558892,102.4995],[12.879150390625,-3.76799895625588,128.4922],[12.874902343750023,-3.76287200313088,131.9352],[12.879638671875,-3.75554778438088,167.0847],[12.883447265625023,-3.75090911250588,209.1273],[12.89013671875,-3.73162200313088,151.7341],[12.87744140625,-3.7283505187558892,133.562],[12.869531250000023,-3.7185848937558892,159.5752],[12.8544921875,-3.67302825313088,175.3463],[12.85009765625,-3.6660458312558859,109.8598],[12.841699218750023,-3.6565731750058892,109.9103],[12.83935546875,-3.6518856750058859,93.3557],[12.838037109375023,-3.64080169063088,149.6483],[12.83544921875,-3.63543059688088,132.8391],[12.831445312500023,-3.6336239562558892,103.287],[12.818359375,-3.63201262813088,101.1738],[12.814453125,-3.6292294250058892,202.1812],[12.811767578125,-3.61443450313088,102.4804],[12.812402343750023,-3.6020809875058859,117.5094],[12.808984375000023,-3.59295012813088,97.315],[12.7939453125,-3.58757903438088,113.124],[12.8076171875,-3.5808895812558892,102.4246],[12.7958984375,-3.56218840938088,101.7609],[12.779443359375023,-3.5576473937558859,133.823],[12.7392578125,-3.55974700313088,147.004],[12.718164062500023,-3.5498348937558859,165.1455],[12.7236328125,-3.5244442687558859,165.4948],[12.701171875,-3.5193661437558892,264.8778]]}}