{"type": "Feature","id": "2185","bbox": [13.83123,-1.18573,15.2853,1.39108],"geometry": {"type": "Polygon","coordinates": [[[14.74911,1.18003,530.8479],[14.69505,1.18752,531.6117],[14.58663,1.22039,680.6828],[14.56503,1.22985,645.4208],[14.53537,1.25067,704.7359],[14.53103,1.25724,681.8586],[14.52845,1.26468,722.4857],[14.51987,1.32814,792.5435],[14.5146,1.3439,781.3184],[14.51294,1.35175,786.728],[14.51201,1.36834,808.965],[14.51026,1.37702,782.2061],[14.50457,1.38643,785.4971],[14.49971,1.38979,789.7521],[14.49413,1.39108,788.2349],[14.44587,1.38203,793.5424],[14.4346,1.38317,604.9719],[14.41683,1.38648,535.1097],[14.41052,1.38601,538.7796],[14.40504,1.38477,538.0453],[14.39636,1.38162,535.251],[14.37807,1.37826,533.6338],[14.36567,1.37718,524.9885],[14.32143,1.38074,521.0989],[14.31502,1.38069,517.5082],[14.30913,1.37997,513.7189],[14.2712,1.37113,507.9565],[14.25218,1.36839,508.9315],[14.23596,1.36333,498.8221],[14.21994,1.35502,517.1442],[14.22149,1.34948,513.5207],[14.23007,1.34395,509.9877],[14.24144,1.3392,505.5701],[14.25218,1.33082,512.4462],[14.25818,1.31966,514.0253],[14.27306,1.25724,518.0698],[14.27575,1.23109,519.0565],[14.27471,1.15564,524.007],[14.28288,1.13011,519.3016],[14.29849,1.10924,531.4761],[14.34644,1.08712,529.051],[14.36008,1.06676,538.4573],[14.37569,1.0156,539.6844],[14.38675,0.99224,557.4783],[14.40081,0.97033,551.6554],[14.41755,0.95059,555.2409],[14.43657,0.93328,577.5883],[14.46044,0.92124,583.3699],[14.46809,0.91323,586.1625],[14.46623,0.89964,623.6885],[14.45703,0.89033,698.879],[14.44514,0.88325,632.5068],[14.4376,0.87514,614.9992],[14.44101,0.86279,604.7866],[14.44762,0.81623,617.8208],[14.41341,0.77504,583.0167],[14.36732,0.73551,568.3757],[14.33838,0.69391,561.1758],[14.33538,0.6426,579.9722],[14.32877,0.6212,601.2986],[14.25466,0.55712,570.6296],[14.25094,0.55185,587.12],[14.24526,0.54772,574.6099],[14.23182,0.54255,594.3492],[14.18159,0.53986,564.5927],[14.12547,0.54617,556.6603],[14.07597,0.53945,541.1239],[14.04558,0.49728,528.0312],[14.05685,0.47641,548.9643],[14.06305,0.45594,561.4475],[14.05912,0.43527,551.446],[14.04041,0.41377,556.4039],[13.96652,0.37305,561.3518],[13.94523,0.35042,547.2029],[13.90978,0.27094,604.2393],[13.87577,0.2203,606.2556],[13.87123,0.19642,586.7245],[13.87619,0.17131,601.6955],[13.8859,0.1403,579.7666],[13.89066,0.11591,593.2809],[13.89489,0.04367,573.3989],[13.9014,0.03685,568.9087],[13.91308,0.03654,580.1042],[13.92507,0.03437,604.7158],[13.93293,0.02207,560.1154],[13.93138,0.01163,578.1301],[13.91722,-0.00667,549.517],[13.91298,-0.01659,568.7066],[13.91494,-0.03126,558.0665],[13.92011,-0.04243,565.1178],[13.92114,-0.05297,551.4903],[13.91071,-0.06589,579.7357],[13.90047,-0.0756,579.0934],[13.88805,-0.09209,582.0824],[13.8427,-0.15229,551.0187],[13.83216,-0.17709,577.7914],[13.83123,-0.20541,548.5909],[13.87743,-0.2605,533.4402],[13.88342,-0.26494,522.3932],[13.88983,-0.2637,485.7177],[13.90306,-0.25885,501.4055],[13.9073,-0.2544,507.1183],[13.90998,-0.24717,517.9239],[13.91381,-0.24055,535.9993],[13.92156,-0.23787,494.05],[13.95732,-0.242,509.2883],[13.96703,-0.24582,495.3766],[13.97509,-0.25254,502.3207],[13.98233,-0.26226,484.0149],[14.01871,-0.25264,517.1884],[14.05881,-0.25885,521.5916],[14.0954,-0.27662,462.7296],[14.12144,-0.30215,507.1145],[14.13829,-0.33636,522.6172],[14.15059,-0.37646,461.9209],[14.15793,-0.4177,505.8056],[14.15968,-0.45511,514.3399],[14.17653,-0.44612,547.5395],[14.19307,-0.44044,572.7396],[14.21022,-0.44033,539.9766],[14.22852,-0.44778,481.4617],[14.24474,-0.4516,500.691],[14.26004,-0.44643,525.5616],[14.27554,-0.43909,505.3351],[14.2927,-0.43641,548.6268],[14.3206,-0.44447,557.5085],[14.35864,-0.46131,460.914],[14.39233,-0.4824,533.054],[14.41445,-0.51216,532.8255],[14.45424,-0.53955,489.511],[14.46654,-0.55268,482.9166],[14.49,-0.60094,516.5671],[14.49899,-0.63092,509.7727],[14.49217,-0.66337,517.3036],[14.45155,-0.75122,505.4013],[14.44597,-0.77571,515.4021],[14.44618,-0.80031,532.8575],[14.4529,-0.82574,509.8668],[14.45713,-0.85612,496.9199],[14.44587,-0.87752,527.1953],[14.42819,-0.89695,501.2272],[14.41279,-0.92154,520.8244],[14.40752,-0.94449,520.3657],[14.40256,-0.98769,589.059],[14.39202,-1.00898,630.8591],[14.39181,-1.02335,649.8841],[14.42034,-1.10179,591.5557],[14.43098,-1.12339,548.5898],[14.43439,-1.13507,542.8434],[14.43357,-1.14365,568.6804],[14.42799,-1.16091,574.5739],[14.4283,-1.16949,562.5367],[14.43533,-1.18168,526.438],[14.43943,-1.18573,550.3561],[14.56906,-1.16313,477.7755],[14.63996,-1.14334,549.2896],[14.66363,-1.12024,472.3903],[14.68844,-1.10939,522.6179],[14.72967,-1.11859,530.9559],[14.91736,-1.11125,465.5854],[14.9924,-1.09425,425.8761],[15.04738,-1.04722,396.054],[15.14567,-0.93539,388.4889],[15.16407,-0.89168,378.8214],[15.18536,-0.85767,380.4178],[15.16686,-0.8247,371.5374],[15.00976,-0.68792,418.9212],[15.05255,-0.63262,397.5929],[15.10929,-0.57562,374.5678],[15.12862,-0.54291,380.0416],[15.1434,-0.50803,381.7846],[15.15022,-0.47336,353.9876],[15.10392,-0.29487,403.0094],[15.08914,-0.26055,423.8238],[15.05534,-0.25022,421.9308],[14.98175,-0.24081,434.1208],[14.95033,-0.22557,445.7498],[14.93845,-0.19353,413.8347],[14.92935,-0.15482,395.7622],[14.90217,-0.09787,380.5287],[14.89556,-0.07493,375.16],[14.89721,-0.0586,378.7698],[14.8969,-0.04253,392.3138],[14.88832,-0.00419,366.8228],[14.89752,0.03297,354.8672],[14.93028,0.03679,354.3521],[14.96553,0.03338,382.4951],[15.00449,0.03974,404.9827],[15.0233,0.03695,389.142],[15.04201,0.03643,369.1935],[15.11849,0.05095,365.0665],[15.1928,0.07503,353.3156],[15.24262,0.12873,380.8845],[15.22753,0.19658,400.6168],[15.16293,0.24381,441.896],[15.13399,0.30107,405.3799],[15.1683,0.32169,437.202],[15.20665,0.33864,431.3223],[15.23672,0.35528,377.6071],[15.26153,0.37708,365.5997],[15.2853,0.41145,357.0622],[15.2853,0.41145,357.0622],[15.28292,0.41357,356.5236],[15.27931,0.41357,360.3117],[15.27682,0.41207,363.6472],[15.27403,0.40855,356.2244],[15.26907,0.40551,354.5866],[15.26659,0.40788,358.563],[15.26546,0.41295,362.3738],[15.26504,0.4193,360.9069],[15.26391,0.42504,356.641],[15.26163,0.42953,359.9868],[15.2576,0.4331,360.9574],[15.25212,0.43574,356.1053],[15.22019,0.44473,360.6694],[15.21151,0.4438,352.1289],[15.20665,0.44679,368.1985],[15.20437,0.45041,366.8909],[15.20417,0.45548,367.5199],[15.2051,0.46126,363.5892],[15.19538,0.46736,368.4016],[15.17957,0.47253,390.0887],[15.17399,0.47604,402.3499],[15.17151,0.48075,411.5121],[15.1712,0.48545,391.3358],[15.16934,0.49015,414.8436],[15.16262,0.49449,381.7237],[15.159,0.49785,397.9525],[15.15425,0.50012,406.3564],[15.10195,0.51847,479.7212],[15.09575,0.5225,449.7968],[15.09151,0.527,433.2356],[15.08955,0.5318,424.7263],[15.08831,0.53723,407.3817],[15.085,0.56131,397.0598],[15.08459,0.57371,382.2867],[15.08531,0.58384,369.1888],[15.08583,0.58632,371.6149],[15.08655,0.58859,359.8045],[15.088,0.5919,370.5148],[15.10113,0.61242,380.9679],[15.10257,0.61743,380.2653],[15.10268,0.62322,384.1955],[15.10175,0.6288,372.0095],[15.08862,0.66993,422.9052],[15.08552,0.68714,397.3025],[15.085,0.76026,409.8693],[15.0942,0.81266,421.5954],[15.09399,0.82119,412.6341],[15.09151,0.83034,378.9219],[15.07818,0.85106,383.2425],[15.07601,0.85571,387.0365],[15.07291,0.8662,402.2943],[15.07012,0.8831,393.7791],[15.07002,0.88847,420.0424],[15.07105,0.89183,437.6546],[15.07312,0.89452,434.412],[15.08035,0.89917,435.1589],[15.08314,0.90217,445.5353],[15.08831,0.91111,452.2571],[15.09048,0.91307,445.3254],[15.09358,0.91488,451.1211],[15.09771,0.91622,432.7578],[15.10082,0.9186,403.0479],[15.10288,0.92082,415.0314],[15.10681,0.92801,446.1834],[15.1096,0.93183,391.0865],[15.11342,0.93478,394.1267],[15.11776,0.93736,387.0319],[15.12831,0.94046,392.132],[15.1403,0.94201,408.4357],[15.14536,0.94356,403.4728],[15.14939,0.94651,392.3251],[15.15187,0.95074,391.926],[15.15342,0.95539,422.0827],[15.15404,0.96025,434.1534],[15.15404,0.96315,438.7928],[15.15177,0.97245,456.9094],[15.13916,0.99989,440.4379],[15.13813,1.00128,431.8284],[15.13316,1.00485,418.0107],[15.12459,1.0095,420.1481],[15.09647,1.02144,396.6139],[15.08955,1.02526,390.4406],[15.08614,1.02857,392.8388],[15.07467,1.04345,397.2526],[15.06764,1.04614,401.1525],[15.0602,1.04707,388.2482],[15.02805,1.04526,394.4005],[15.00201,1.04655,418.0033],[14.97607,1.05156,408.7836],[14.94971,1.0604,408.051],[14.91168,1.08583,428.8804],[14.85587,1.11383,429.7892],[14.84481,1.12066,431.7337],[14.83634,1.12903,467.5836],[14.82466,1.14928,491.6346],[14.81721,1.15848,499.8373],[14.79499,1.17409,530.4252],[14.78259,1.17915,531.6295],[14.77298,1.18189,504.9121],[14.76471,1.18256,522.7672],[14.75727,1.18194,528.222],[14.74911,1.18003,530.8479]]]}
,"properties": {"ISO3166-1-Alpha-3": "COG","country": "Republic of the Congo","fill": "#FF0","name": "Cuvette-Ouest","area_km2": 25564.64,"hist_schema_id": "Elevation0-9000","hist_area_km2": {"325": 4.62,"350": 336.09,"375": 1338.52,"400": 2860.03,"425": 4244.53,"450": 4467.52,"475": 3380.07,"500": 2444.38,"525": 2183.21,"550": 1536.38,"575": 1110.36,"600": 637.6,"625": 282.76,"650": 161.63,"675": 137.5,"700": 111.65,"725": 145.21,"750": 89.69,"775": 58.1,"800": 32.3,"825": 2.48}}}