{"type":"Feature","properties":{"GID_1":"COG.3_1","GID_0":"COG","country":"RepublicoftheCongo","province":"Cuvette-Ouest","VARNAME_1":"NA","NL_NAME_1":"NA","TYPE_1":"Région","ENGTYPE_1":"Region","CC_1":"NA","HASC_1":"CG.CO","ISO_1":"NA","name":"Cuvette-Ouest.province"},
"geometry":{"type": "MultiPolygon","coordinates": [[[[14.423,-1.0006,578.6328],[14.4637,-1.1785,592.4019],[14.6366,-1.1453,545.5372],[14.6587,-1.1324,497.2704],[14.6749,-1.1063,508.7822],[14.7489,-1.1229,522.4796],[14.7753,-1.1187,490.4987],[14.7959,-1.1132,465.934],[14.8304,-1.116,450.5113],[14.9252,-1.1108,506.7636],[14.9761,-1.0978,394.1527],[15.0237,-1.0805,421.3376],[15.0393,-1.0686,434.8377],[15.0542,-1.0296,420.0211],[15.088,-0.992,418.3572],[15.1371,-0.9495,379.1461],[15.1446,-0.9379,387.2397],[15.1723,-0.8705,377.5914],[15.1854,-0.8576,380.4178],[15.1734,-0.8362,378.0383],[15.1518,-0.8099,387.8615],[15.1245,-0.7846,405.7731],[15.0703,-0.7482,423.6413],[15.0404,-0.7215,427.1608],[15.008,-0.6859,423.9475],[15.0591,-0.6232,409.6149],[15.0714,-0.6152,404.592],[15.0944,-0.5936,385.8138],[15.1121,-0.5722,371.7366],[15.1225,-0.5522,369.9028],[15.1348,-0.5195,398.7138],[15.1434,-0.508,381.7846],[15.1542,-0.4696,345.574],[15.1429,-0.448,352.6053],[15.132,-0.3811,388.0838],[15.1259,-0.3563,383.0842],[15.1086,-0.3242,403.7263],[15.1052,-0.2989,415.5901],[15.0971,-0.2726,432.9025],[15.0886,-0.254,416.5168],[15.0208,-0.2466,415.0241],[14.9694,-0.238,441.0496],[14.9549,-0.2314,421.9765],[14.9398,-0.2145,422.2851],[14.9367,-0.1743,412.0158],[14.9251,-0.1341,420.3839],[14.9128,-0.1195,396.0396],[14.9066,-0.1082,402.9832],[14.8955,-0.0749,375.16],[14.8981,-0.0454,384.4476],[14.8873,-0.0171,369.6022],[14.8976,0.033,354.8672],[14.9089,0.036,358.5745],[14.9345,0.0339,359.8318],[14.9655,0.0334,382.4951],[15.0045,0.0398,404.9827],[15.0386,0.0356,371.5476],[15.0716,0.0446,369.657],[15.1101,0.0446,360.1163],[15.1381,0.0505,344.9642],[15.1666,0.0595,363.3317],[15.2061,0.0823,350.1426],[15.221,0.0989,354.0608],[15.2401,0.1163,339.184],[15.2481,0.1371,419.9981],[15.2417,0.1804,458.8659],[15.2275,0.1966,400.6168],[15.2158,0.2053,407.4284],[15.1918,0.2271,416.51],[15.1702,0.2406,458.8169],[15.1455,0.2601,403.5689],[15.1266,0.2815,432.9412],[15.134,0.3011,405.3799],[15.1573,0.3097,451.0341],[15.1715,0.3209,421.7641],[15.2182,0.3447,426.2306],[15.26,0.3741,365.2369],[15.2699,0.3933,363.6255],[15.2892,0.4088,360.8477],[15.2867,0.4144,362.0165],[15.2825,0.4161,356.8374],[15.2775,0.4139,358.126],[15.2764,0.4086,361.2376],[15.2711,0.3997,363.1528],[15.2672,0.4011,359.2673],[15.2653,0.4058,355.9705],[15.2647,0.4258,350.6087],[15.2586,0.4333,360.9574],[15.2492,0.4378,359.6203],[15.2364,0.4383,362.9919],[15.2256,0.4469,356.009],[15.22,0.4483,362.7334],[15.2131,0.4417,352.8642],[15.2081,0.4408,354.8207],[15.2036,0.4497,379.8472],[15.2036,0.4567,367.2655],[15.2058,0.4614,362.9017],[15.2039,0.4664,365.9029],[15.2006,0.4697,363.898],[15.1956,0.4719,366.6168],[15.1706,0.4742,407.6401],[15.1742,0.4911,379.4714],[15.1733,0.4972,371.7621],[15.1694,0.4975,394.1849],[15.1653,0.4947,373.2362],[15.1597,0.4947,398.3501],[15.1553,0.5036,387.4246],[15.1464,0.5086,386.6203],[15.1272,0.5075,411.8483],[15.1183,0.5125,404.7052],[15.115,0.5161,421.5222],[15.1039,0.5189,473.335],[15.0972,0.5189,475.3529],[15.0936,0.5225,450.4422],[15.0892,0.5314,424.7263],[15.0842,0.5669,396.2708],[15.0858,0.5861,371.6149],[15.0872,0.5917,370.5148],[15.1019,0.6114,389.8389],[15.1033,0.6167,375.895],[15.1022,0.6292,372.0095],[15.0883,0.6694,412.3185],[15.0853,0.6867,395.1641],[15.0847,0.7606,404.7807],[15.0908,0.7889,419.7291],[15.0947,0.8197,424.8622],[15.0919,0.8308,384.5793],[15.0781,0.8506,386.4509],[15.0739,0.8606,390.6034],[15.0694,0.8828,394.5459],[15.0694,0.8897,421.9396],[15.0719,0.8944,447.2379],[15.0814,0.8986,425.498],[15.0883,0.9122,454.4651],[15.0925,0.9147,448.2354],[15.0986,0.9153,432.2126],[15.1022,0.9186,403.0479],[15.1092,0.9322,385.4181],[15.1175,0.9378,387.0319],[15.1278,0.9408,392.132],[15.1408,0.9414,408.4357],[15.1503,0.9456,393.6713],[15.1547,0.9617,437.7786],[15.1503,0.9775,458.2514],[15.1367,1.0036,402.7946],[15.1336,1.0072,439.8043],[15.1167,1.0175,446.652],[15.0981,1.02,388.3348],[15.0892,1.0247,390.4406],[15.0825,1.0317,391.6339],[15.0781,1.0406,391.0156],[15.0758,1.0522,389.728],[15.0753,1.0467,391.875],[15.0453,1.0469,390.287],[15.0122,1.0436,403.7029],[14.9964,1.045,418.0072],[14.9664,1.0525,458.2383],[14.95,1.06,408.051],[14.9342,1.0697,403.0606],[14.9031,1.0975,409.8326],[14.8869,1.0992,426.4312],[14.8717,1.1106,441.2492],[14.8503,1.115,466.7048],[14.8422,1.1203,416.0927],[14.8356,1.1281,471.7923],[14.8303,1.1436,475.6257],[14.8183,1.16,512.9532],[14.8108,1.1639,500.267],[14.795,1.1764,538.9149],[14.78,1.1814,491.4271],[14.765,1.1833,522.7672],[14.7489,1.1806,544.3306],[14.7339,1.1739,502.838],[14.7192,1.1744,489.2939],[14.6719,1.1925,492.8769],[14.6317,1.2025,549.1196],[14.5967,1.2133,547.6805],[14.5728,1.2236,641.3107],[14.5497,1.2419,679.5348],[14.5342,1.2494,689.833],[14.53,1.2567,686.1951],[14.5217,1.3128,781.7248],[14.5211,1.3281,780.7328],[14.5139,1.3439,788.3201],[14.5122,1.3517,791.7048],[14.5136,1.3758,785.309],[14.5103,1.3844,802.542],[14.5033,1.3914,779.7272],[14.4731,1.3886,773.5042],[14.4444,1.3817,793.5424],[14.4308,1.3819,539.0584],[14.4161,1.3875,539.8351],[14.3897,1.3797,531.8099],[14.3722,1.3772,528.264],[14.3522,1.3769,525.9008],[14.3217,1.3811,521.0989],[14.3086,1.3806,513.2089],[14.2711,1.3708,507.9565],[14.2525,1.3692,509.6227],[14.2359,1.3635,498.8221],[14.2372,1.3622,503.0234],[14.2473,1.3615,502.2276],[14.2516,1.3592,501.1844],[14.2589,1.3511,508.0226],[14.2717,1.3463,496.2688],[14.279,1.3412,494.5412],[14.2876,1.3267,496.2502],[14.2967,1.3053,520.361],[14.3038,1.2995,509.6497],[14.3054,1.2998,501.4308],[14.3068,1.2943,514.2606],[14.3036,1.2832,508.2912],[14.3056,1.2697,513.2482],[14.304,1.2607,511.0432],[14.2976,1.2492,524.9796],[14.295,1.2412,527.5343],[14.2962,1.2336,530.4301],[14.3009,1.2288,527.9935],[14.3092,1.2265,515.0598],[14.3103,1.2173,507.4153],[14.324,1.2103,507.79],[14.329,1.2041,508.8599],[14.3354,1.1882,515.5966],[14.3438,1.1774,525.7065],[14.3449,1.1538,522.7608],[14.3467,1.1457,514.606],[14.3718,1.1208,518.0802],[14.3873,1.0994,522.9362],[14.3964,1.0937,524.9238],[14.3987,1.0898,524.5902],[14.3987,1.084,536.0066],[14.4018,1.0718,528.2413],[14.3991,1.0617,529.5162],[14.3998,1.0574,528.0996],[14.4123,1.0353,534.0424],[14.4137,1.0264,537.6725],[14.4202,1.0164,542.6094],[14.4241,1.0015,548.3643],[14.4323,0.9893,553.8168],[14.438,0.97,548.7224],[14.4453,0.9605,551.1797],[14.451599999999999,0.9594,558.6024],[14.4676,0.9511,574.1721],[14.4772,0.9377,593.1062],[14.4856,0.9334,677.8165],[14.4934,0.9326,689.8196],[14.498,0.9286,701.4625],[14.5023,0.9059,657.9324],[14.5001,0.8985,701.2795],[14.4932,0.8905,718.7561],[14.4916,0.8799,687.7058],[14.4878,0.8767,658.3597],[14.4654,0.8744,701.2697],[14.4658,0.8707,718.2321],[14.4711,0.8647,725.6833],[14.477,0.8629,693.1887],[14.4837,0.8487,670.9978],[14.4855,0.8353,677.5898],[14.4887,0.8252,676.0125],[14.4851,0.8199,689.6753],[14.4727,0.8128,628.9825],[14.4641,0.7894,651.82],[14.4611,0.7868,637.2047],[14.4385,0.7804,621.5865],[14.431,0.7753,636.934],[14.4146,0.7526,581.619],[14.4153,0.7422,592.8378],[14.402,0.7303,593.7773],[14.3934,0.7273,568.2806],[14.3927,0.7243,590.7264],[14.3881,0.7213,594.5124],[14.3785,0.7031,571.773],[14.368,0.6985,593.1219],[14.3596,0.6725,574.3416],[14.3706,0.6613,575.9951],[14.3845,0.6374,598.1187],[14.3656,0.6291,658.2704],[14.3583,0.6172,628.1765],[14.3499,0.6107,678.652],[14.3389,0.61,601.7767],[14.3225,0.593,631.9842],[14.3108,0.5916,599.4068],[14.2951,0.5804,599.8459],[14.2935,0.5769,587.7198],[14.2937,0.57,581.8409],[14.2835,0.5558,579.9598],[14.2892,0.5438,587.6514],[14.281,0.5436,599.2418],[14.2579,0.5484,586.0033],[14.2349,0.5366,579.008],[14.2228,0.5364,577.625],[14.2155,0.5403,583.2329],[14.2095,0.5495,568.6951],[14.1988,0.5508,576.2343],[14.1831,0.5432,565.9818],[14.1787,0.543,576.1476],[14.1696,0.5487,579.9478],[14.152,0.5551,571.6215],[14.1369,0.5577,571.2401],[14.1196,0.5583,566.41],[14.1066,0.5498,561.6959],[14.0827,0.5213,567.2646],[14.0708,0.4939,548.47],[14.0722,0.4896,538.4002],[14.0925,0.4744,541.3777],[14.093,0.4694,535.0286],[14.0916,0.4666,527.416],[14.085,0.4615,570.527],[14.0745,0.4473,610.5456],[14.0732,0.4299,538.2662],[14.0664,0.4197,541.7863],[14.0602,0.4163,568.343],[14.0513,0.4071,542.6089],[14.0381,0.4045,548.579],[14.0226,0.391,525.2305],[14.0103,0.3882,545.3831],[13.9895,0.3762,533.5436],[13.9827,0.3652,553.4741],[13.9777,0.3622,551.7645],[13.9713,0.3509,555.1432],[13.9674,0.3365,528.244],[13.9615,0.3367,529.8388],[13.9574,0.3293,553.2686],[13.9478,0.3254,554.6755],[13.9417,0.3157,579.2971],[13.9421,0.3107,583.1335],[13.9492,0.3073,532.8129],[13.9378,0.2964,574.7653],[13.9449,0.2898,548.079],[13.9349,0.2886,548.8138],[13.9337,0.2859,571.15],[13.9358,0.2827,577.053],[13.936,0.2781,591.2071],[13.942,0.268,611.8513],[13.934,0.2643,616.1484],[13.926,0.2643,619.7485],[13.9212,0.2537,610.9258],[13.9126,0.2461,637.1294],[13.8978,0.238,586.3317],[13.8959,0.2353,597.2668],[13.8964,0.2284,593.5483],[13.8937,0.2204,578.2267],[13.8944,0.2155,584.9801],[13.9008,0.21,570.7316],[13.8887,0.2027,575.0424],[13.8974,0.1926,555.8942],[13.9061,0.1781,561.8084],[13.9054,0.1682,593.3378],[13.9122,0.1618,566.424],[13.917,0.1545,564.3558],[13.9264,0.1313,577.9039],[13.9278,0.1208,557.3016],[13.9233,0.1028,560.7783],[13.9146,0.0907,568.5641],[13.9149,0.0842,573.9897],[13.9217,0.073,566.5919],[13.9217,0.0617,556.3218],[13.9238,0.0505,565.3743],[13.9288,0.0448,583.9551],[13.9343,0.048,585.2435],[13.9412,0.0487,573.7436],[13.9539,0.0457,542.7921],[13.9585,0.0414,569.0584],[13.9585,0.0308,587.883],[13.9535,0.0214,571.2186],[13.9492,0.0044,557.9851],[13.9335,0.0,556.8076],[13.9348,-0.0322,586.608],[13.9308,-0.0646,549.8145],[13.9268,-0.0835,553.197],[13.9153,-0.1161,529.4957],[13.9092,-0.1272,545.5699],[13.8933,-0.1444,522.9517],[13.8876,-0.1585,530.573],[13.8856,-0.172,537.4979],[13.8868,-0.1881,528.2876],[13.8954,-0.2122,556.9463],[13.9048,-0.2245,549.847],[13.9265,-0.2426,500.9341],[13.9396,-0.2501,471.9309],[13.9462,-0.2483,496.1676],[13.9536,-0.2306,526.4799],[13.9609,-0.2232,522.891],[13.9712,-0.2213,528.2611],[13.9848,-0.2231,497.8132],[14.0187,-0.2356,464.8206],[14.1197,-0.2892,483.13],[14.1502,-0.3125,494.3721],[14.1628,-0.3299,498.9102],[14.1681,-0.3441,503.5227],[14.1723,-0.3634,479.9159],[14.173,-0.4231,543.5104],[14.1767,-0.4396,493.1666],[14.1829,-0.4421,507.5728],[14.192,-0.4416,579.2196],[14.229,-0.4328,554.126],[14.2529,-0.4329,551.707],[14.2651,-0.4391,496.3056],[14.3144,-0.4577,506.1906],[14.3263,-0.4595,510.06],[14.3537,-0.4591,505.056],[14.3649,-0.4609,481.3055],[14.3861,-0.4686,508.2929],[14.4008,-0.4771,559.679],[14.4123,-0.4906,490.2738],[14.4296,-0.5182,536.5878],[14.4563,-0.5432,528.9948],[14.4632,-0.5517,474.1015],[14.4825,-0.5888,507.7061],[14.4929,-0.6159,484.0856],[14.4971,-0.6331,513.6385],[14.4995,-0.6572,528.2237],[14.4987,-0.6809,532.8464],[14.4866,-0.7161,530.4672],[14.4709,-0.7412,522.434],[14.4648,-0.7612,508.9875],[14.4586,-0.8012,525.6335],[14.4408,-0.8525,513.3001],[14.4304,-0.8726,531.1153],[14.4156,-0.888,472.1861],[14.4102,-0.909,472.7323],[14.4195,-0.9429,527.9293],[14.423,-1.0006,578.6328]]]]}}