{"type":"Feature","properties":{"ISO3166-1-Alpha-3":"COG","country":"Republic of the Congo","fill":"#00F","id":"3345","name":"Niari"},
"geometry":{"type": "Polygon","coordinates": [[[12.74101,-1.89067,746.6855],[12.67497,-1.84283,770.7819],[12.63239,-1.82516,800.4996],[12.58319,-1.8265,838.7059],[12.57244,-1.83043,791.8483],[12.52345,-1.8633,809.714],[12.51735,-1.86898,809.0548],[12.51239,-1.87549,809.3604],[12.5063,-1.8882,856.1428],[12.50454,-1.89689,864.7988],[12.50382,-1.90774,899.5641],[12.49947,-1.91787,849.0386],[12.48656,-1.92489,855.8437],[12.46899,-1.91942,846.2839],[12.45001,-1.8993,842.1251],[12.43808,-1.88665,861.7018],[12.42692,-1.88407,832.1839],[12.4231,-1.89761,813.5356],[12.43147,-2.00541,772.7643],[12.44005,-2.04582,677.3179],[12.46082,-2.07786,672.9157],[12.49978,-2.09553,657.9421],[12.49534,-2.11279,705.6596],[12.47736,-2.14111,675.7062],[12.47023,-2.1563,658.7295],[12.46837,-2.17108,675.8439],[12.4755,-2.21242,678.0477],[12.46857,-2.24115,666.7832],[12.45514,-2.27557,643.2571],[12.4479,-2.30792,633.4481],[12.45927,-2.32993,706.0029],[12.06229,-2.41499,474.7894],[12.03129,-2.41158,421.7831],[12.00069,-2.3906,408.5003],[11.96679,-2.34854,373.6357],[11.94871,-2.33521,340.622],[11.93837,-2.32911,346.6789],[11.90706,-2.34461,349.2087],[11.86489,-2.35815,375.3834],[11.82882,-2.36528,378.2054],[11.8066,-2.37417,341.0655],[11.7727,-2.40538,296.2817],[11.75606,-2.4151,258.3456],[11.73952,-2.41375,256.2672],[11.72133,-2.40414,239.4355],[11.68753,-2.37768,282.5085],[11.67989,-2.36879,271.3022],[11.67586,-2.36042,289.3189],[11.66965,-2.35267,261.9799],[11.65591,-2.34564,264.8306],[11.60537,-2.33035,172.9448],[11.56837,-2.32911,159.8165],[11.5662,-2.32973,157.4429],[11.55824,-2.34936,148.2372],[11.57974,-2.40766,203.9986],[11.58335,-2.42967,257.3404],[11.57612,-2.48507,230.4851],[11.57653,-2.50253,195.7487],[11.58428,-2.52362,179.452],[11.60961,-2.56403,172.5076],[11.61901,-2.58646,152.6371],[11.62439,-2.61198,158.1498],[11.62439,-2.63276,153.1082],[11.61953,-2.65353,161.3484],[11.61033,-2.67885,172.6026],[11.53747,-2.79771,177.3408],[11.53557,-2.805,174.7551],[11.52558,-2.84329,178.7364],[11.53075,-2.86675,190.0636],[11.5479,-2.86386,192.3345],[11.58842,-2.83543,600.8572],[11.61684,-2.82675,223.1974],[11.63679,-2.83326,196.7707],[11.65312,-2.85166,194.1638],[11.68764,-2.90179,227.2682],[11.76371,-2.98261,177.2698],[11.77838,-3.00566,204.6997],[11.77838,-3.02715,177.2946],[11.75368,-3.04235,174.9762],[11.73063,-3.04472,184.2865],[11.71689,-3.04359,185.4284],[11.70645,-3.04989,188.8245],[11.69322,-3.07469,168.1364],[11.68826,-3.09226,156.6471],[11.68733,-3.16151,158.0723],[11.68567,-3.1672,150.3808],[11.68753,-3.17102,152.1005],[11.69611,-3.1796,151.7507],[11.70386,-3.18539,151.2878],[11.7605,-3.20905,165.3922],[11.78159,-3.22166,165.1155],[11.82189,-3.25484,173.2378],[11.85827,-3.2721,176.3862],[11.90571,-3.28512,184.1294],[11.94437,-3.30321,202.4115],[11.95491,-3.33545,207.6412],[11.94147,-3.35695,341.4421],[11.89837,-3.3892,420.0382],[11.88483,-3.41328,384.6442],[11.82778,-3.54805,164.9062],[11.82499,-3.5712,224.2549],[11.83492,-3.59208,309.754],[11.85559,-3.60438,226.445],[11.87925,-3.61203,271.9719],[11.89848,-3.62236,252.9953],[11.90551,-3.64355,329.9151],[11.89765,-3.66608,271.5624],[11.87998,-3.68716,216.92],[11.85838,-3.70329,203.8687],[11.84081,-3.70999,217.9525],[11.86091,-3.74117,222.6254],[11.86783,-3.74623,232.9485],[11.87703,-3.7514,248.1405],[11.89874,-3.7546,248.4304],[11.92778,-3.76876,210.8711],[12.06193,-3.86653,246.5695],[12.09707,-3.88121,183.0827],[12.10606,-3.88369,184.7675],[12.13893,-3.88627,204.6734],[12.1689,-3.89609,125.35],[12.18637,-3.90777,139.7758],[12.20239,-3.91511,260.4308],[12.20787,-3.91986,249.5602],[12.20942,-3.9242,151.0341],[12.20921,-3.9364,104.96],[12.21035,-3.94239,88.2301],[12.21262,-3.94746,87.3263],[12.21841,-3.95004,43.5552],[12.23918,-3.95376,204.8058],[12.26946,-3.964,157.0805],[12.29551,-3.96854,149.8273],[12.31959,-3.9765,117.7962],[12.33861,-3.97846,197.2112],[12.35184,-3.98126,184.8293],[12.37354,-3.98901,207.7356],[12.38439,-3.99459,203.6332],[12.38997,-3.99893,282.0453],[12.3908,-4.00131,235.9546],[12.39059,-4.00513,250.5238],[12.38935,-4.01112,237.5796],[12.38956,-4.01774,190.4019],[12.39266,-4.02425,224.0132],[12.39855,-4.02838,308.9316],[12.43266,-4.03603,219.1283],[12.44341,-4.04223,253.4048],[12.45219,-4.04999,267.0664],[12.5356,-4.14528,308.663],[12.54552,-4.16202,415.209],[12.55213,-4.17111,321.4222],[12.5543,-4.17856,370.2495],[12.55451,-4.18507,307.2486],[12.54562,-4.23261,511.6773],[12.54531,-4.24015,580.7328],[12.54593,-4.24811,604.9022],[12.5481,-4.25648,747.8307],[12.55544,-4.2725,657.1707],[12.59079,-4.31953,457.2973],[12.59978,-4.32666,423.3492],[12.60815,-4.33079,437.9424],[12.6159,-4.33224,574.1111],[12.62334,-4.33286,628.6552],[12.68742,-4.32976,607.6091],[12.69631,-4.33079,662.6148],[12.70644,-4.33379,715.1],[12.72143,-4.3403,652.3879],[12.73217,-4.34661,745.4272],[12.75129,-4.3618,587.095],[12.77899,-4.38888,577.9388],[12.78266,-4.40007,662.2465],[12.80106,-4.41001,519.1036],[12.8148,-4.41291,464.8655],[12.83031,-4.4097,445.9825],[12.8423,-4.40433,412.544],[12.85428,-4.40309,430.2364],[12.86989,-4.41198,391.7585],[12.88446,-4.43213,516.3199],[12.90245,-4.48019,500.8951],[12.92198,-4.50231,681.0851],[12.96156,-4.53383,540.5617],[13.02719,-4.61217,593.5844],[13.0737,-4.63532,380.5916],[13.07153,-4.60163,362.8004],[13.08797,-4.57951,345.9588],[13.11236,-4.57693,338.7795],[13.13406,-4.60235,338.6098],[13.14212,-4.61734,340.8139],[13.16,-4.64338,347.1207],[13.1724,-4.67615,351.6011],[13.18212,-4.68607,349.6706],[13.20879,-4.70312,373.1957],[13.25581,-4.74395,365.2846],[13.274,-4.75583,368.2014],[13.33457,-4.77754,388.5277],[13.34934,-4.7856,388.6187],[13.35875,-4.7948,394.7958],[13.36412,-4.80689,396.4943],[13.37136,-4.84172,527.3368],[13.39265,-4.88533,555.0445],[13.40319,-4.87686,784.9534],[13.43079,-4.84337,508.1441],[13.48226,-4.80555,446.263],[13.49352,-4.79965,421.3326],[13.49642,-4.79211,405.7525],[13.49239,-4.78353,418.4289],[13.48226,-4.77485,415.7153],[13.51471,-4.75594,440.0585],[13.52618,-4.75428,598.968],[13.53889,-4.75997,480.7582],[13.55863,-4.78043,582.7946],[13.57073,-4.78591,463.0433],[13.57986,-4.78303,445.8376],[13.57977,-4.78265,440.2417],[13.57894,-4.77914,511.0781],[13.5744,-4.74979,560.0909],[13.57243,-4.74235,396.2203],[13.56871,-4.7348,372.4981],[13.56251,-4.72695,353.0726],[13.55228,-4.71878,336.8464],[13.53533,-4.70814,327.5567],[13.49626,-4.68912,299.2921],[13.4235,-4.6393,253.7819],[13.41554,-4.63662,276.5027],[13.39973,-4.63362,253.1178],[13.3927,-4.62948,262.1037],[13.38702,-4.62194,271.9811],[13.3833,-4.61078,300.1346],[13.38144,-4.59341,293.1774],[13.37937,-4.58587,292.0939],[13.37369,-4.57739,275.8806],[13.36325,-4.56685,239.1883],[13.35239,-4.55331,242.5264],[13.34258,-4.53595,237.1914],[13.33255,-4.52303,235.1549],[13.32728,-4.50856,248.6008],[13.3186,-4.49089,238.1369],[13.27602,-4.43146,223.2973],[13.25462,-4.41193,182.5374],[13.24005,-4.40356,174.021],[13.22331,-4.40263,174.8333],[13.20791,-4.39684,210.1681],[13.20036,-4.3958,201.1958],[13.19271,-4.39549,234.9464],[13.18527,-4.39312,226.4238],[13.17008,-4.3865,205.2302],[13.16264,-4.38619,240.1845],[13.14807,-4.38754,233.8958],[13.14093,-4.3865,278.8925],[13.13339,-4.3834,284.9297],[13.12657,-4.37916,300.3379],[13.11933,-4.3772,272.4331],[13.11189,-4.37772,304.9615],[13.10393,-4.37947,285.8359],[13.09639,-4.37989,329.0756],[13.08016,-4.3771,327.287],[13.06425,-4.37761,423.1082],[13.05505,-4.37358,394.4418],[13.04471,-4.36573,350.4388],[13.029,-4.34692,366.78],[13.01825,-4.33968,359.0941],[13.00957,-4.33545,338.7532],[13.00337,-4.33483,354.9797],[12.99903,-4.33338,356.6548],[12.9888,-4.31953,358.8084],[12.9178,-4.18031,247.1377],[12.88328,-4.12946,256.1613],[12.86426,-4.09298,332.6745],[12.85165,-4.07572,398.9004],[12.83005,-4.05371,371.6511],[12.78509,-4.01981,336.1241],[12.77806,-4.0134,296.1498],[12.72453,-3.95221,195.1352],[12.68856,-3.88979,231.4048],[12.66603,-3.86023,206.0746],[12.65859,-3.8533,222.4369],[12.64298,-3.84152,221.6694],[12.61301,-3.82323,259.6951],[12.60722,-3.81713,317.1829],[12.60464,-3.80928,251.6914],[12.61063,-3.79512,191.5414],[12.61642,-3.78551,174.1268],[12.62262,-3.77755,165.0827],[12.62923,-3.773,159.6414],[12.63626,-3.77,152.8586],[12.64184,-3.76566,149.236],[12.64484,-3.75874,142.729],[12.63285,-3.73135,135.8759],[12.63078,-3.7237,133.332],[12.63006,-3.70737,137.3963],[12.63843,-3.69094,123.7079],[12.63957,-3.68246,124.7634],[12.6282,-3.65559,115.7424],[12.61735,-3.60474,113.2396],[12.61673,-3.58738,111.5597],[12.61797,-3.57642,105.6687],[12.61983,-3.56857,109.8987],[12.62241,-3.56195,132.1432],[12.6311,-3.54986,160.8626],[12.65693,-3.52816,99.5051],[12.65673,-3.49519,154.0323],[12.65249,-3.49105,130.5224],[12.64308,-3.49167,118.1093],[12.63368,-3.49074,92.5004],[12.62944,-3.48185,117.2618],[12.62861,-3.4708,88.3329],[12.62551,-3.46315,84.1395],[12.619,-3.45881,104.1649],[12.60836,-3.45798,166.2952],[12.60836,-3.45116,113.1703],[12.61497,-3.43845,89.3221],[12.60278,-3.42635,100.1231],[12.60433,-3.41592,143.5755],[12.60753,-3.41281,144.6968],[12.61115,-3.41033,179.4064],[12.61683,-3.40765,239.3305],[12.62014,-3.40682,219.9458],[12.63957,-3.40744,168.6307],[12.64484,-3.4061,224.9052],[12.64866,-3.40393,178.9447],[12.65146,-3.40093,213.7691],[12.65321,-3.39835,173.9966],[12.66014,-3.3814,149.5669],[12.66975,-3.3383,175.6418],[12.67161,-3.33427,251.6376],[12.6743,-3.33013,203.9794],[12.67833,-3.32517,199.071],[12.68122,-3.32269,205.9808],[12.68494,-3.32062,201.8829],[12.69817,-3.31504,142.9997],[12.71336,-3.3045,175.5596],[12.71894,-3.30181,160.2189],[12.72422,-3.30016,143.1844],[12.73093,-3.29913,142.7195],[12.74365,-3.29913,97.7107],[12.77362,-3.30378,148.6414],[12.78013,-3.30367,132.1379],[12.78602,-3.30305,132.1252],[12.79109,-3.30119,161.1551],[12.80855,-3.29313,202.9295],[12.81145,-3.29231,226.9747],[12.82157,-3.29086,217.7034],[12.82757,-3.29055,253.3923],[12.83367,-3.29096,257.0151],[12.83863,-3.29282,235.8474],[12.85113,-3.30099,222.9743],[12.85609,-3.30254,211.0394],[12.86364,-3.30119,250.9738],[12.87201,-3.29727,270.0231],[12.88576,-3.28848,267.6838],[12.89382,-3.28538,259.969],[12.89971,-3.28559,286.505],[12.90653,-3.29282,241.9544],[12.91087,-3.2953,267.4198],[12.91842,-3.29437,281.845],[12.92152,-3.29034,279.0069],[12.92286,-3.28507,286.7516],[12.92224,-3.25779,296.9245],[12.92348,-3.25065,294.4875],[12.92679,-3.2489,278.8592],[12.93268,-3.24952,285.7755],[12.94694,-3.25334,288.6139],[12.95438,-3.25365,279.6858],[12.96182,-3.25241,277.9932],[12.98498,-3.24332,274.6613],[12.9919,-3.24146,315.7729],[12.99872,-3.24073,321.9473],[13.01453,-3.23288,430.3958],[13.02373,-3.22099,443.5167],[13.03386,-3.21376,405.452],[13.06115,-3.19939,409.6531],[13.09587,-3.16394,438.3587],[13.10362,-3.15061,469.2487],[13.10797,-3.13976,420.7388],[13.10548,-3.08074,411.1557],[13.11561,-3.03516,418.1693],[13.12833,-3.00157,420.3068],[13.12926,-2.99651,434.7092],[13.12967,-2.98855,439.0592],[13.12647,-2.9807,415.5488],[13.12099,-2.97294,417.5981],[13.11448,-2.96561,424.2174],[13.06859,-2.92819,438.7589],[13.06146,-2.92571,420.5643],[13.04688,-2.92468,446.2249],[13.02508,-2.91868,428.804],[13.01887,-2.91496,498.9966],[13.01484,-2.90918,425.6407],[13.01226,-2.90225,430.2568],[13.00833,-2.88675,430.6919],[13.0011,-2.87414,442.7928],[12.99872,-2.86877,518.5189],[12.99872,-2.85998,561.2322],[13.00141,-2.85585,459.7026],[13.00637,-2.85213,510.1441],[13.02032,-2.84716,540.1627],[13.02756,-2.84272,482.7893],[13.04141,-2.83063,482.9426],[13.04854,-2.8268,497.9812],[13.06456,-2.82494,472.1634],[13.07324,-2.82133,518.4364],[13.07572,-2.81544,529.4427],[13.07489,-2.8081,471.5897],[13.0537,-2.76128,539.632],[13.04936,-2.74464,493.2995],[13.03789,-2.60335,530.0835],[13.04203,-2.4322,659.4584],[13.05102,-2.38631,721.4933],[13.05122,-2.37691,677.0974],[13.04761,-2.37009,690.8876],[13.04172,-2.36637,732.365],[13.03489,-2.36626,725.3221],[13.02745,-2.36926,697.9224],[13.02012,-2.37308,722.8066],[13.01319,-2.37474,694.3136],[13.00771,-2.3735,733.9272],[13.0012,-2.36771,732.4376],[12.99401,-2.36012,761.6653],[12.98244,-2.37169,735.7534],[12.96901,-2.37241,708.3712],[12.96611,-2.36642,705.313],[12.97128,-2.35712,695.473],[12.98244,-2.34771,706.239],[12.98709,-2.34068,689.204],[12.99112,-2.33231,717.429],[12.99391,-2.32353,729.2236],[12.99464,-2.31495,719.9142],[12.9967,-2.30482,750.2776],[13.00229,-2.29665,699.7021],[13.01066,-2.28777,700.5704],[13.00818,-2.2765,689.735],[13.00342,-2.27547,689.6071],[12.99733,-2.27567,690.9286],[12.99019,-2.26803,684.5907],[12.98751,-2.25996,705.8779],[12.98244,-2.23299,676.1558],[12.97304,-2.22152,667.9354],[12.95433,-2.19092,670.2125],[12.94565,-2.18245,673.1346],[12.92136,-2.19485,686.816],[12.9071,-2.19537,653.5558],[12.90276,-2.17759,658.8196],[12.90203,-2.16726,665.5819],[12.89821,-2.16023,671.3235],[12.88508,-2.14741,660.0926],[12.88271,-2.1408,649.3908],[12.88446,-2.13449,660.9832],[12.8887,-2.12695,687.7396],[12.89056,-2.12219,647.1323],[12.89449,-2.11558,670.8962],[12.89511,-2.10979,706.6548],[12.8763,-2.10493,641.1376],[12.87413,-2.09977,650.2456],[12.87516,-2.09377,641.5588],[12.87516,-2.08912,643.9021],[12.87692,-2.08871,653.4751],[12.87299,-2.06587,723.0122],[12.86855,-2.05987,708.1165],[12.85294,-2.04458,670.4427],[12.84715,-2.03724,764.5487],[12.83816,-2.01605,746.0175],[12.81615,-1.9435,731.4151],[12.80457,-1.91911,751.6552],[12.78773,-1.90753,728.8342],[12.74545,-1.89389,742.0593],[12.74101,-1.89067,746.6855]]]}}