{"type":"Feature","properties":{"GID_1":"COG.8_1","GID_0":"COG","country":"RepublicoftheCongo","province":"Niari","VARNAME_1":"NA","NL_NAME_1":"NA","TYPE_1":"Région","ENGTYPE_1":"Region","CC_1":"NA","HASC_1":"CG.NI","ISO_1":"CG-9","name":"Niari.province"},
"geometry":{"type": "MultiPolygon","coordinates": [[[[13.1025,-4.6465,463.28],[13.1048,-4.6486,344.9051],[13.1063,-4.6473,366.6907],[13.1309,-4.652,370.1526],[13.1444,-4.6523,352.6213],[13.1565,-4.6504,361.7041],[13.1825,-4.639,349.8736],[13.1882,-4.643,354.6699],[13.1923,-4.6527,354.229],[13.2004,-4.6573,349.6786],[13.2098,-4.669,352.8028],[13.2229,-4.6764,371.4015],[13.2329,-4.6798,359.6707],[13.2467,-4.696,362.6996],[13.2564,-4.7194,364.2144],[13.2646,-4.727,369.5827],[13.2651,-4.7291,370.0277],[13.2584,-4.7286,364.8305],[13.2555,-4.7307,363.1772],[13.2536,-4.7351,367.7275],[13.2548,-4.7383,364.6667],[13.269,-4.75,367.935],[13.2731,-4.7588,370.3103],[13.2818,-4.7664,373.2479],[13.2846,-4.7714,375.3936],[13.2899,-4.7705,375.11],[13.294,-4.7746,375.246],[13.2984,-4.7751,376.386],[13.3025,-4.7822,383.933],[13.3062,-4.7843,379.1161],[13.3101,-4.7838,380.3679],[13.3133,-4.7866,381.3993],[13.3165,-4.7864,380.7479],[13.3197,-4.7829,381.6555],[13.3241,-4.7836,382.7742],[13.3323,-4.7891,388.0659],[13.3404,-4.7848,390.7069],[13.345,-4.7852,387.4307],[13.3502,-4.7868,391.701],[13.3594,-4.7974,392.9476],[13.3638,-4.799,397.5875],[13.3727,-4.7986,401.8772],[13.3785,-4.8059,404.0356],[13.3815,-4.8165,417.1443],[13.3773,-4.8234,412.5018],[13.3787,-4.8326,423.0711],[13.3826,-4.8363,464.4214],[13.3815,-4.8402,427.1518],[13.3856,-4.8493,472.4558],[13.3807,-4.8512,463.405],[13.3785,-4.8607,594.4001],[13.3792,-4.8669,478.2751],[13.3875,-4.8786,534.6023],[13.3916,-4.8799,510.3174],[13.4013,-4.8887,518.0914],[13.4257,-4.9164,648.207],[13.431,-4.9199,714.9825],[13.4346,-4.9196,650.261],[13.4365,-4.9171,700.4535],[13.4383,-4.9056,704.2307],[13.435,-4.892,718.3544],[13.4276,-4.8825,726.3068],[13.4436,-4.868,710.2347],[13.4631,-4.8694,677.5033],[13.472,-4.8653,699.5897],[13.5044,-4.8351,432.9881],[13.5067,-4.831,445.3835],[13.4983,-4.8123,443.7358],[13.5034,-4.7995,400.9666],[13.5187,-4.7835,439.9374],[13.5275,-4.7766,433.9109],[13.5401,-4.7784,481.1827],[13.5433,-4.783,444.0606],[13.5503,-4.8018,425.5704],[13.5652,-4.8123,375.29],[13.5786,-4.8179,454.0107],[13.5775,-4.7722,436.0464],[13.575,-4.7497,560.0909],[13.5706,-4.7353,367.5467],[13.5658,-4.7275,339.693],[13.5356,-4.7078,310.6123],[13.4983,-4.6906,327.3767],[13.475,-4.6736,355.2615],[13.4461,-4.6556,313.8242],[13.4239,-4.6378,283.1208],[13.4158,-4.6356,306.9434],[13.3994,-4.635,269.4592],[13.3922,-4.6322,261.6846],[13.3861,-4.6247,290.611],[13.3828,-4.6164,288.581],[13.3814,-4.6083,298.7867],[13.3822,-4.5861,297.8755],[13.3775,-4.5781,281.0061],[13.3706,-4.5728,262.8611],[13.3628,-4.5697,255.4617],[13.3589,-4.5625,229.0847],[13.3517,-4.5556,247.0821],[13.3472,-4.5483,250.6802],[13.3469,-4.5408,219.9691],[13.3442,-4.5328,224.6077],[13.3289,-4.525,279.7173],[13.3242,-4.5172,273.2639],[13.3253,-4.5025,257.9156],[13.3219,-4.4939,255.9515],[13.3147,-4.4892,255.9409],[13.2869,-4.4503,208.4503],[13.2681,-4.4122,177.9566],[13.2611,-4.4039,197.6432],[13.2542,-4.4006,176.2504],[13.2469,-4.4,177.0362],[13.2311,-4.4047,172.707],[13.2236,-4.4047,171.4246],[13.2078,-4.3947,212.6038],[13.2003,-4.395,201.1958],[13.1931,-4.3978,263.8124],[13.17,-4.3844,196.9663],[13.1411,-4.3883,286.0681],[13.1333,-4.3844,284.9297],[13.1269,-4.3772,279.8134],[13.1197,-4.375,267.5641],[13.0967,-4.3817,337.3541],[13.0806,-4.3753,350.5375],[13.0644,-4.3786,426.2784],[13.0567,-4.3781,428.7411],[13.0494,-4.3753,395.2875],[13.0458,-4.3681,363.1476],[13.04,-4.3467,410.3053],[13.0328,-4.3394,374.8182],[13.025,-4.3367,378.5108],[13.0022,-4.335,354.9797],[12.9942,-4.3325,384.589],[12.9764,-4.3028,360.9317],[12.9583,-4.2506,314.0119],[12.9456,-4.2256,301.6169],[12.9014,-4.1542,240.1912],[12.8839,-4.1308,246.7652],[12.8642,-4.0908,356.3882],[12.8586,-4.0831,370.411],[12.8303,-4.0531,371.6511],[12.785,-4.0206,336.1241],[12.7775,-4.0136,305.9359],[12.7239,-3.9519,193.933],[12.7142,-3.9369,187.5327],[12.6989,-3.9053,266.3732],[12.6889,-3.8894,221.9297],[12.6667,-3.86,204.4716],[12.6589,-3.8525,220.5107],[12.6356,-3.8361,230.3266],[12.5978,-3.8144,356.3195],[12.5947,-3.8075,337.7852],[12.5958,-3.8003,248.1624],[12.6036,-3.7978,205.3435],[12.6119,-3.7914,182.1765],[12.6219,-3.7761,160.6482],[12.6292,-3.7714,157.2346],[12.6436,-3.7683,153.8508],[12.6511,-3.7614,140.6058],[12.6475,-3.7539,143.8649],[12.635,-3.7392,139.0886],[12.6319,-3.7311,135.5243],[12.6306,-3.7158,133.618],[12.6261,-3.7081,134.3799],[12.6272,-3.7003,135.2329],[12.6417,-3.6919,124.4142],[12.6436,-3.6847,125.7689],[12.6406,-3.6772,132.815],[12.6303,-3.6628,129.0351],[12.6281,-3.6556,115.7424],[12.6172,-3.6047,113.2396],[12.6161,-3.5892,110.8107],[12.6175,-3.5742,108.2066],[12.6239,-3.5589,137.0744],[12.6339,-3.5447,146.9422],[12.6546,-3.5282,118.5491],[12.6536,-3.5242,152.4518],[12.6581,-3.5078,122.2579],[12.6575,-3.5017,142.864],[12.6508,-3.4944,121.8139],[12.6375,-3.4936,96.2779],[12.6319,-3.495,180.4178],[12.6281,-3.4919,138.6605],[12.6267,-3.4867,107.2336],[12.6297,-3.4756,87.0336],[12.6278,-3.4708,88.3329],[12.6208,-3.4636,92.5199],[12.6092,-3.4628,179.259],[12.6081,-3.4586,166.2952],[12.6192,-3.4492,111.9315],[12.6206,-3.4439,92.8605],[12.6178,-3.4394,71.6165],[12.605,-3.4317,66.0],[12.5989,-3.4239,143.5372],[12.6019,-3.4186,131.3208],[12.6075,-3.4125,144.6968],[12.6206,-3.4064,219.9458],[12.64,-3.4083,167.0703],[12.6497,-3.4044,178.9447],[12.6653,-3.3717,135.8866],[12.6678,-3.36,176.1934],[12.6689,-3.3403,170.2899],[12.6731,-3.3306,203.9794],[12.6794,-3.3231,196.5472],[12.6989,-3.3153,142.9997],[12.7142,-3.3031,144.419],[12.7247,-3.3,143.1844],[12.7439,-3.2989,97.7107],[12.7733,-3.3042,151.0311],[12.7867,-3.3039,132.1252],[12.8094,-3.2925,239.9677],[12.8344,-3.2903,257.0151],[12.8508,-3.3017,216.9913],[12.8556,-3.3036,207.2866],[12.8625,-3.3039,225.7415],[12.8722,-3.3,267.1516],[12.8839,-3.2911,265.2499],[12.8903,-3.2839,260.6221],[12.8958,-3.2825,283.4149],[12.9006,-3.2844,300.4348],[12.9081,-3.2978,255.2427],[12.9128,-3.3,287.4925],[12.9183,-3.3,289.7999],[12.9219,-3.2967,244.5],[12.9233,-3.2911,278.4576],[12.9219,-3.2519,302.3598],[12.9239,-3.2469,278.0746],[12.9472,-3.2542,288.6139],[12.9544,-3.2544,279.6858],[12.9619,-3.2536,283.1986],[12.9772,-3.2456,335.26],[12.9931,-3.2406,323.1138],[13.0078,-3.2431,378.9213],[13.0156,-3.2389,433.9176],[13.015,-3.2311,441.2289],[13.0253,-3.2161,444.0004],[13.0328,-3.2108,414.6674],[13.0397,-3.2111,455.8643],[13.0556,-3.2083,405.4832],[13.0633,-3.2031,438.2083],[13.0678,-3.1956,453.2514],[13.0731,-3.1808,410.3247],[13.1022,-3.1633,416.8895],[13.1061,-3.1553,434.824],[13.1086,-3.1311,474.1709],[13.105,-3.0808,411.1557],[13.1153,-3.0353,418.1693],[13.1278,-3.0042,416.1981],[13.1325,-2.9883,461.6929],[13.1283,-2.98,420.3673],[13.1072,-2.9578,430.2439],[13.0836,-2.9419,424.5279],[13.0689,-2.9256,425.6522],[13.0617,-2.9239,420.2144],[13.0472,-2.9267,432.5002],[13.0394,-2.9214,493.6581],[13.0319,-2.9189,440.934],[13.025,-2.9206,428.8436],[13.0175,-2.9167,477.6955],[13.0119,-2.9025,433.459],[13.01,-2.8861,450.9536],[13.005,-2.8786,434.0235],[12.9975,-2.8722,471.765],[12.9944,-2.8644,475.622],[12.9975,-2.8561,457.3596],[13.0056,-2.8519,512.2165],[13.0206,-2.8481,551.6734],[13.0278,-2.8439,480.3186],[13.035,-2.8378,539.083],[13.0414,-2.8286,464.2421],[13.0486,-2.8244,466.791],[13.0633,-2.8275,479.5658],[13.0708,-2.8275,479.1159],[13.0781,-2.8231,462.626],[13.0783,-2.8158,454.8957],[13.0761,-2.8081,475.0972],[13.0633,-2.7842,518.3433],[13.0536,-2.7617,539.632],[13.0492,-2.7442,493.4393],[13.0458,-2.7214,527.5993],[13.0461,-2.6972,479.437],[13.0411,-2.6497,536.9697],[13.0375,-2.5881,546.1166],[13.0416,-2.5328,511.7491],[13.0467,-2.4973,541.1727],[13.0391,-2.4719,611.7908],[13.0365,-2.444,666.5645],[13.0365,-2.411,708.0139],[13.0315,-2.3856,747.0002],[13.0298,-2.3216,697.6981],[13.0269,-2.3143,712.7093],[13.0348,-2.2669,717.4544],[13.0338,-2.2517,698.54],[13.0255,-2.2298,668.3192],[13.0072,-2.2023,670.5917],[12.9987,-2.1952,662.3032],[12.9666,-2.181,669.1462],[12.9306,-2.1551,672.9813],[12.9132,-2.1372,660.236],[12.9033,-2.122,653.5992],[12.8852,-2.0995,672.7266],[12.882,-2.0805,698.2186],[12.8757,-2.0584,692.3451],[12.8738,-2.0354,703.1293],[12.8694,-2.0136,743.8172],[12.8641,-1.9979,744.0343],[12.8568,-1.9832,730.7394],[12.8416,-1.9396,723.994],[12.829,-1.926,738.4289],[12.7795,-1.8937,772.0629],[12.7635,-1.8813,749.84],[12.7433,-1.8689,759.2748],[12.7333,-1.8648,778.8112],[12.7221,-1.8644,762.3511],[12.6855,-1.8744,767.8836],[12.6837,-1.8767,750.369],[12.6501,-1.882,769.2473],[12.6261,-1.8791,801.2057],[12.6144,-1.8754,766.2675],[12.5908,-1.8644,806.5205],[12.5718,-1.8583,778.1442],[12.5618,-1.8592,811.1268],[12.5563,-1.8661,785.9531],[12.5504,-1.885,804.7158],[12.5436,-1.8965,788.9135],[12.5351,-1.9009,854.2416],[12.5207,-1.9014,842.7039],[12.485,-1.8885,830.41],[12.4715,-1.8743,839.7276],[12.4621,-1.87,870.1207],[12.4454,-1.87,895.7277],[12.4441,-1.8746,857.3901],[12.4673,-1.9435,822.8065],[12.471,-1.9707,841.0428],[12.4706,-1.9918,715.9278],[12.4752,-2.019,697.3628],[12.4824,-2.0385,704.325],[12.4941,-2.0594,696.9801],[12.52,-2.0867,752.4879],[12.5237,-2.0952,685.3959],[12.5221,-2.1159,684.1274],[12.5108,-2.1587,665.8763],[12.5126,-2.1649,712.2686],[12.5273,-2.1861,672.8443],[12.5322,-2.2139,655.9272],[12.5287,-2.222,681.8776],[12.5048,-2.254,665.525],[12.497,-2.268,689.0783],[12.498,-2.2795,690.1525],[12.5267,-2.3188,677.7902],[12.5292,-2.3264,615.5533],[12.5208,-2.3466,604.2889],[12.5062,-2.3681,614.0532],[12.5016,-2.3798,671.0229],[12.5061,-2.4131,622.7027],[12.5029,-2.4224,599.248],[12.4976,-2.424,637.5849],[12.4683,-2.4213,669.0119],[12.2993,-2.4199,583.5598],[12.2846,-2.4213,564.8652],[12.1766,-2.4213,479.699],[12.1481,-2.428,487.7863],[12.1101,-2.4343,489.8427],[12.0923,-2.4393,474.6935],[12.0776,-2.4253,503.7473],[12.0647,-2.3977,484.4283],[12.0576,-2.386,499.1512],[12.0485,-2.3796,496.1173],[12.0226,-2.3545,428.9836],[12.0054,-2.3424,369.5745],[11.9967,-2.3399,330.8008],[11.9747,-2.3413,391.3575],[11.9402,-2.3583,316.0156],[11.9149,-2.3747,292.1078],[11.9041,-2.3786,299.8696],[11.892,-2.3782,393.7977],[11.867,-2.3715,371.7542],[11.8581,-2.3715,372.1734],[11.8476,-2.3787,364.0399],[11.8311,-2.3808,351.0946],[11.8209,-2.3874,355.8366],[11.8067,-2.4109,315.1253],[11.7944,-2.4355,288.0757],[11.7752,-2.4565,219.2132],[11.7713,-2.457,230.3718],[11.7619,-2.4535,242.203],[11.7402,-2.4377,254.2206],[11.7296,-2.4269,226.8218],[11.7108,-2.3919,269.394],[11.6978,-2.3728,288.2535],[11.679,-2.3535,301.7299],[11.6664,-2.3446,253.2965],[11.6485,-2.3393,210.9363],[11.6222,-2.3204,235.0628],[11.6131,-2.32,210.9432],[11.6071,-2.3251,175.1711],[11.6097,-2.3568,164.7449],[11.6138,-2.3674,180.3945],[11.6324,-2.3911,207.3426],[11.6509,-2.4214,162.7905],[11.6532,-2.4304,166.707],[11.653,-2.4446,153.9725],[11.6416,-2.4801,178.3623],[11.6371,-2.504,221.7742],[11.6362,-2.5208,265.4846],[11.6534,-2.5606,248.8842],[11.6619,-2.5912,216.5659],[11.669,-2.6054,196.1185],[11.6853,-2.6277,258.114],[11.6963,-2.6473,210.5001],[11.7027,-2.6629,247.4048],[11.7038,-2.673,233.6925],[11.701599999999999,-2.6871,214.5034],[11.6965,-2.6912,188.3494],[11.6862,-2.6924,175.9901],[11.6684,-2.6892,158.5307],[11.656,-2.6889,159.3632],[11.648,-2.6919,167.8098],[11.6414,-2.6982,179.8468],[11.638,-2.7212,165.9215],[11.6323,-2.7426,163.5452],[11.6206,-2.769,184.9152],[11.6161,-2.7842,185.4091],[11.6175,-2.7897,194.1538],[11.6227,-2.7989,193.8262],[11.6301,-2.8058,193.798],[11.6424,-2.8109,198.4136],[11.656,-2.8208,194.3352],[11.6729,-2.8297,188.9883],[11.6885,-2.8357,195.8788],[11.7116,-2.8378,183.7004],[11.7606,-2.8531,178.6682],[11.7965,-2.8614,176.1999],[11.8666,-2.8921,190.5757],[11.8946,-2.9002,194.8199],[11.9383,-2.9197,214.0971],[12.0112,-2.9488,301.2006],[12.0432,-2.9563,267.0174],[12.057,-2.9616,281.1224],[12.0666,-2.9694,255.564],[12.0684,-2.9775,266.4122],[12.0657,-2.9865,237.7697],[12.0506,-3.0111,257.2584],[12.0303,-3.0558,179.6198],[12.0249,-3.0744,164.6368],[12.0182,-3.088,169.0155],[12.0135,-3.1352,153.7968],[12.0108,-3.1423,164.6868],[12.0023,-3.1531,155.4266],[11.9913,-3.1596,160.8435],[11.9714,-3.1663,175.1117],[11.9474,-3.1718,188.3123],[11.9394,-3.1783,204.3969],[11.935,-3.1879,239.52],[11.9367,-3.1939,326.1334],[11.9435,-3.2043,339.4093],[11.9653,-3.2144,304.2896],[12.0018,-3.2419,182.5029],[12.0222,-3.2845,251.9633],[12.0433,-3.3236,157.7873],[12.0484,-3.3394,202.097],[12.0455,-3.3526,208.9406],[12.0279,-3.3837,207.0849],[12.0071,-3.415,323.9905],[11.9588,-3.4783,383.1435],[11.9433,-3.4894,365.9039],[11.9197,-3.4988,376.7202],[11.8982,-3.5108,368.9854],[11.8874,-3.5228,337.4366],[11.8806,-3.5357,181.8662],[11.877,-3.5649,184.194],[11.8779,-3.5769,212.9816],[11.8894,-3.5909,179.2787],[11.9045,-3.5994,219.4559],[11.9405,-3.6155,185.4623],[11.9465,-3.621,182.9754],[11.9478,-3.6263,202.7114],[11.914,-3.7029,222.9618],[11.8957,-3.7343,206.3034],[11.8843,-3.7474,243.292],[11.8761,-3.7504,246.8352],[11.8639,-3.7477,235.4367],[11.8772,-3.7522,248.1405],[11.9083,-3.7511,212.9559],[11.9172,-3.7556,212.8561],[11.9242,-3.7606,200.365],[11.9447,-3.7847,199.2593],[11.9594,-3.7983,232.439],[11.9833,-3.8144,241.4452],[12.015,-3.8325,221.7626],[12.0378,-3.8525,231.8059],[12.0533,-3.8631,216.6177],[12.0756,-3.87,267.4678],[12.0989,-3.8828,188.0156],[12.1219,-3.8856,214.0928],[12.1447,-3.8861,171.5219],[12.1689,-3.8917,132.076],[12.1756,-3.8989,146.474],[12.18,-3.9067,128.8675],[12.1881,-3.9119,166.9344],[12.1953,-3.9144,207.5469],[12.2025,-3.9147,260.4308],[12.2103,-3.9181,263.8946],[12.2114,-3.925,131.9309],[12.2103,-3.9489,108.2239],[12.2178,-3.9517,45.8753],[12.2333,-3.9494,189.1011],[12.2481,-3.9511,146.9857],[12.2631,-3.9631,142.9221],[12.2719,-3.9661,216.9818],[12.2875,-3.9658,145.6877],[12.3197,-3.9775,117.7962],[12.3272,-3.9783,164.9316],[12.3439,-3.9767,175.7456],[12.3511,-3.9789,176.529],[12.3583,-3.9836,213.5457],[12.3825,-3.9908,318.1681],[12.39,-3.9964,259.6448],[12.3919,-4.0033,228.5059],[12.3875,-4.0178,213.4235],[12.3908,-4.0258,230.9544],[12.3983,-4.0297,330.0266],[12.4058,-4.0314,226.5481],[12.4289,-4.0311,232.2028],[12.4367,-4.0339,190.062],[12.4456,-4.0414,222.2104],[12.5036,-4.1108,279.5821],[12.5181,-4.1247,333.5444],[12.5231,-4.1325,300.6233],[12.5381,-4.1458,304.7579],[12.5431,-4.1611,373.3865],[12.5494,-4.1681,330.7091],[12.5564,-4.1722,331.8137],[12.5561,-4.1797,400.415],[12.5475,-4.2175,431.1711],[12.545,-4.2475,590.4329],[12.5475,-4.2569,747.8307],[12.5547,-4.2722,621.4667],[12.5858,-4.3172,558.7972],[12.5928,-4.3244,486.1328],[12.6008,-4.3292,432.471],[12.6164,-4.3328,574.1111],[12.695,-4.3294,568.0291],[12.7106,-4.3339,588.0858],[12.7256,-4.3408,619.7247],[12.7422,-4.3531,603.1743],[12.7648,-4.3745,551.8866],[12.7792,-4.3824,636.1364],[12.8131,-4.4194,520.1058],[12.867,-4.4149,414.3533],[12.903,-4.4093,392.0165],[12.9061,-4.4675,605.2675],[12.9505,-4.5088,440.2001],[12.9633,-4.5188,414.7164],[12.9861,-4.5414,450.987],[13.0034,-4.5791,554.679],[13.0133,-4.5922,480.5593],[13.0615,-4.6197,404.3929],[13.0993,-4.6465,382.0475],[13.1025,-4.6465,463.28]]]]}}