{"type":"Feature","properties":{"featurecla":"River","scalerank":8,"rivernum":819,"dissolve":"819River","name":"Ngounie1","name_alt":null,"note":null,"min_zoom":7.0,"strokeweig":0.2,"name_en":"Ngounie","min_label":8.0},
"geometry":{"type": "LineString","coordinates": [[11.906494140625,-2.34441497188088,330.9026],[11.8642578125,-2.3579403625058859,375.3834],[11.828369140625,-2.36516692500588,378.2054],[11.806054687500023,-2.3740536437558859,340.7039],[11.772119140625023,-2.40520598750588,296.2817],[11.755517578125023,-2.41497161250588,258.3456],[11.738916015625023,-2.41350676875588,256.2672],[11.720703125,-2.40398528438088,239.4355],[11.68701171875,-2.3774716125058859,282.5085],[11.679345703125023,-2.36858489375588,271.3022],[11.67529296875,-2.36028411250588,289.3189],[11.669091796875023,-2.35247161250588,261.9799],[11.6552734375,-2.3455380187558892,264.8306],[11.604736328125,-2.3301083312558859,172.9448],[11.56787109375,-2.3289364562558892,159.8165],[11.550927734375023,-2.3252255187558859,229.3994],[11.535546875000023,-2.31365325313088,235.8679],[11.52783203125,-2.30071380000588,221.5839],[11.525292968750023,-2.2874325500058892,244.157],[11.52294921875,-2.25920989375588,206.0444],[11.516357421875,-2.2436825500058859,198.2646],[11.485742187500023,-2.20378997188088,196.5129],[11.46826171875,-2.16472747188088,217.6234],[11.458398437500023,-2.1482723937558892,214.0903],[11.38427734375,-2.07708098750588,194.6108],[11.346435546875,-2.0190731750058859,184.5974],[11.33251953125,-2.00603606563088,161.751],[11.311767578125,-1.99480559688088,143.4308],[11.290673828125023,-1.9883114562558859,153.6818],[11.274072265625023,-1.988604425005889,160.5101],[11.239160156250023,-2.00090911250588,162.4569],[11.219628906250023,-2.0039364562558859,221.5118],[11.198876953125023,-2.0005184875058859,182.1824],[11.1787109375,-1.99285247188088,144.7211],[11.16064453125,-1.9824520812558859,98.7303],[11.083398437500023,-1.91570403438088,91.9799],[11.020263671875,-1.8359677062558859,88.4063],[10.921875,-1.658526300005889,108.9639],[10.901025390625023,-1.59295012813088,85.5292],[10.8994140625,-1.5849911437558859,101.6074],[10.899072265625023,-1.57756926875588,111.4494],[10.89794921875,-1.5703427062558859,108.8512],[10.893945312500023,-1.56267669063088,100.2715],[10.888330078125023,-1.5600888000058859,99.6536],[10.8720703125,-1.55999114375588,75.5],[10.865234375,-1.55657317500588,97.0545],[10.857177734375,-1.542803643755889,75.5],[10.846435546875,-1.51165130000588,102.6539],[10.837792968750023,-1.49871184688088,101.6203],[10.832177734375023,-1.49871184688088,74.25],[10.82177734375,-1.50115325313088,95.5107],[10.809326171875,-1.502276300005889,100.7644],[10.797753906250023,-1.49822356563088,98.8779],[10.78076171875,-1.47454192500588,106.9331],[10.752832031250023,-1.401202081255889,101.4191],[10.73779296875,-1.3721005187558859,105.4422],[10.660546875000023,-1.293291925005889,91.952],[10.609130859375,-1.25676848750588,70.0],[10.594384765625023,-1.242510675005889,87.448],[10.586328125000023,-1.225420831255889,84.5629],[10.58203125,-1.20183684688088,90.9374],[10.582275390625,-1.17791106563088,90.9133],[10.58837890625,-1.159991143755889,83.6624],[10.5966796875,-1.15374114375588,105.4936],[10.60693359375,-1.15227630000588,93.0773],[10.627685546875,-1.151690362505889,80.0346],[10.642578125,-1.1455380187558859,45.2385],[10.677392578125023,-1.12273528438088,76.2956],[10.689111328125023,-1.111651300005889,71.468],[10.696679687500023,-1.094561456255889,62.7248],[10.695556640625,-1.07610442500588,91.7524],[10.688867187500023,-1.05706145625588,52.4692],[10.679589843750023,-1.03899505000588,35.8891]]}}