{"type":"Feature","properties":{"GID_2":"COG.1.6_1","GID_0":"COG","country":"RepublicoftheCongo","GID_1":"COG.1_1","province":"Bouenza","NL_NAME_1":"NA","county":"NkayiDistrict","VARNAME_2":"NA","NL_NAME_2":"NA","TYPE_2":"District","ENGTYPE_2":"District","CC_2":"NA","HASC_2":"NA","name":"Nkayi_District.county"},
"geometry":{"type": "MultiPolygon","coordinates": [[[[13.4832,-4.3163,285.5623],[13.4669,-4.2988,444.3966],[13.4542,-4.2763,400.6515],[13.4533,-4.255,344.8489],[13.4415,-4.1985,191.3228],[13.4375,-4.161,213.2072],[13.4397,-4.1087,233.1871],[13.4334,-4.098,293.1115],[13.4261,-4.0721,251.9892],[13.4,-4.0447,185.5372],[13.3881,-4.0439,177.5645],[13.3806,-4.0411,169.3727],[13.3736,-4.0339,172.0466],[13.3697,-4.0267,169.0383],[13.3622,-4.0017,175.4048],[13.3531,-3.9781,304.1673],[13.3521,-3.9672,215.1206],[13.3441,-3.9843,245.0057],[13.3327,-4.0004,238.6575],[13.3195,-4.0147,212.8812],[13.2945,-4.0306,194.5681],[13.2409,-4.0582,300.0526],[13.1643,-4.103,149.3095],[13.1506,-4.1176,140.766],[13.1362,-4.1368,136.6248],[13.1345,-4.1699,165.7847],[13.1387,-4.2279,203.0608],[13.1558,-4.2493,198.0038],[13.1629,-4.2621,220.8813],[13.1703,-4.2782,210.1666],[13.1764,-4.297,206.6808],[13.1755,-4.3467,158.7079],[13.1858,-4.3944,226.4238],[13.1931,-4.3978,263.8124],[13.2003,-4.395,201.1958],[13.2078,-4.3947,212.6038],[13.2236,-4.4047,171.4246],[13.2311,-4.4047,172.707],[13.2469,-4.4,177.0362],[13.2542,-4.4006,176.2504],[13.2611,-4.4039,197.6432],[13.2682,-4.4124,177.9566],[13.3582,-4.3665,196.622],[13.3876,-4.3595,207.1447],[13.4363,-4.3322,291.516],[13.4832,-4.3163,285.5623]]]]}}