{"type":"Feature","properties":{"GID_2":"COG.9.2_1","GID_0":"COG","country":"RepublicoftheCongo","GID_1":"COG.9_1","province":"Plateaux","NL_NAME_1":"NA","county":"Djambala","VARNAME_2":"NA","NL_NAME_2":"NA","TYPE_2":"District","ENGTYPE_2":"District","CC_2":"NA","HASC_2":"CG.PL.DJ","name":"Djambala.county"},
"geometry":{"type": "MultiPolygon","coordinates": [[[[16.2326,-2.5952,278.0],[16.1756,-2.5755,332.9597],[16.1644,-2.5682,398.0237],[16.1304,-2.5543,413.4038],[16.0975,-2.5374,470.0762],[16.0633,-2.5339,528.849],[15.993,-2.5185,519.2808],[15.9474,-2.5044,593.0786],[15.9112,-2.4729,472.8309],[15.8732,-2.414,501.8398],[15.8435,-2.3486,477.6235],[15.7925,-2.3018,469.1947],[15.6866,-2.2682,541.7038],[15.6555,-2.272,560.8967],[15.6117,-2.2544,553.5706],[15.5835,-2.2404,529.5437],[15.5495,-2.2271,585.6331],[15.5025,-2.2391,632.8296],[15.4631,-2.2284,648.5935],[15.4454,-2.2065,637.5798],[15.4296,-2.1797,648.2626],[15.4225,-2.1529,552.3577],[15.4088,-2.1208,583.1808],[15.3896,-2.1042,525.7076],[15.3805,-2.0766,551.5123],[15.3598,-2.0515,429.355],[15.3434,-2.0256,459.5947],[15.3197,-2.0058,345.2549],[15.304,-1.989,349.0283],[15.2698,-1.9646,483.8377],[15.1933,-1.8952,609.4427],[15.1353,-1.839,527.4741],[15.0985,-1.8095,380.5387],[15.0764,-1.7956,399.6228],[15.0396,-1.7679,520.7061],[15.0063,-1.7403,480.7655],[14.9939,-1.7369,417.4114],[14.969,-1.6758,379.8773],[14.9651,-1.6611,380.5983],[14.955,-1.6349,403.7233],[14.9423,-1.5905,376.8291],[14.9289,-1.5928,381.4169],[14.8906,-1.5886,383.6888],[14.8817,-1.5894,386.4329],[14.8653,-1.5944,401.3667],[14.8164,-1.6175,380.7054],[14.7578,-1.6581,384.1552],[14.7511,-1.6658,396.6502],[14.7408,-1.6897,385.1481],[14.7389,-1.7133,404.4114],[14.7369,-1.7206,399.7766],[14.7261,-1.7356,412.1069],[14.7186,-1.75,399.137],[14.7125,-1.7572,408.6952],[14.6897,-1.7683,482.843],[14.6828,-1.7758,482.3703],[14.6678,-1.8097,419.2088],[14.6461,-1.8308,478.932],[14.6414,-1.8389,529.9156],[14.6308,-1.8711,458.8206],[14.6451,-1.9133,505.064],[14.6534,-1.9527,654.7653],[14.6767,-1.9756,635.9606],[14.6953,-1.9836,646.4766],[14.7199,-1.9987,610.6619],[14.7685,-2.0216,407.6036],[14.7903,-2.0419,594.9606],[14.8135,-2.0747,561.4713],[14.8223,-2.1024,647.5643],[14.8254,-2.1433,580.8687],[14.8179,-2.18,651.0309],[14.7853,-2.2292,600.3313],[14.7616,-2.256,493.9215],[14.7333,-2.2837,555.9473],[14.6983,-2.314,627.3587],[14.6732,-2.3385,768.855],[14.646,-2.3691,585.6013],[14.6295,-2.3979,743.1849],[14.5744,-2.4526,613.5568],[14.5362,-2.5052,751.6201],[14.4946,-2.5448,646.3091],[14.4646,-2.5864,531.8127],[14.445,-2.6541,758.3875],[14.4522,-2.7734,516.0662],[14.4393,-2.7875,616.8528],[14.4187,-2.7804,730.4031],[14.3879,-2.7492,760.3516],[14.3718,-2.757,709.9711],[14.3053,-2.7486,612.1214],[14.3069,-2.7569,617.8328],[14.3064,-2.7739,668.8929],[14.3142,-2.7897,702.3765],[14.3172,-2.8219,686.5521],[14.3214,-2.8294,704.9283],[14.3289,-2.835,629.1017],[14.3342,-2.8425,694.1332],[14.335,-2.8567,701.0394],[14.3436,-2.8708,561.2482],[14.3456,-2.8781,574.9058],[14.3433,-2.8856,570.1862],[14.3358,-2.8939,573.2096],[14.3069,-2.9086,548.6962],[14.2981,-2.9222,554.8074],[14.2981,-2.9333,547.7843],[14.2931,-2.9431,543.6672],[14.27,-2.9614,537.4119],[14.2667,-2.9717,556.712],[14.2607,-2.9819,548.4058],[14.2645,-2.9842,555.5438],[14.2758,-3.0108,568.8849],[14.2856,-3.02,585.4724],[14.3058,-3.0239,643.4246],[14.3258,-3.0203,684.2861],[14.3539,-3.0203,595.0522],[14.3611,-3.0336,606.5281],[14.375,-3.0406,555.7967],[14.3969,-3.0353,597.4232],[14.4169,-3.035,549.6476],[14.4281,-3.0325,568.3068],[14.4342,-3.0333,556.4539],[14.4467,-3.0419,557.6257],[14.4567,-3.0592,504.1594],[14.4675,-3.0686,513.5119],[14.4722,-3.0711,579.6306],[14.4908,-3.0733,597.4146],[14.4975,-3.0803,553.8788],[14.5064,-3.0853,538.0991],[14.5175,-3.0839,480.7993],[14.5217,-3.0814,479.2539],[14.5372,-3.0556,482.8792],[14.5519,-3.0428,475.907],[14.5603,-3.0303,472.0346],[14.5717,-3.0072,465.7096],[14.5753,-3.0036,512.6782],[14.5961,-2.9917,464.3771],[14.6233,-2.9639,461.0174],[14.645,-2.95,450.176],[14.6483,-2.9464,448.5751],[14.6533,-2.9308,450.6989],[14.6564,-2.9267,453.1482],[14.6675,-2.9169,451.1071],[14.6883,-2.9039,451.4895],[14.7133,-2.8808,445.5639],[14.7225,-2.8692,430.4517],[14.7325,-2.8514,438.6163],[14.7544,-2.8464,431.3599],[14.7642,-2.8422,427.8848],[14.7906,-2.8208,430.8469],[14.7956,-2.8119,425.7618],[14.8,-2.7956,423.2021],[14.7992,-2.7692,426.6434],[14.8019,-2.765,435.9104],[14.8089,-2.7583,450.4073],[14.8289,-2.7503,392.2717],[14.8372,-2.745,386.9089],[14.8506,-2.7306,394.4348],[14.8664,-2.7192,380.5864],[14.8764,-2.7153,385.0706],[14.8825,-2.7147,393.7372],[14.8894,-2.7147,389.0375],[14.8942,-2.7169,382.0052],[14.9003,-2.7247,382.3113],[14.9061,-2.7392,387.8457],[14.9136,-2.7456,399.1009],[14.9164,-2.7564,386.235],[14.9125,-2.7736,378.471],[14.9144,-2.7783,377.2161],[14.9228,-2.7839,376.1538],[14.9322,-2.7953,379.9045],[14.9336,-2.84,369.5573],[14.9414,-2.8731,367.327],[14.9369,-2.8894,403.354],[14.9408,-2.8992,382.8446],[14.9497,-2.9039,361.6687],[14.9561,-2.905,351.9307],[14.9831,-2.9044,353.8655],[15.01,-2.8975,346.2464],[15.0314,-2.8847,365.6444],[15.0375,-2.8839,382.2605],[15.0486,-2.8869,354.1133],[15.0575,-2.8919,341.5196],[15.0744,-2.8956,347.3426],[15.0911,-2.8917,354.9326],[15.1106,-2.8919,345.0231],[15.1194,-2.8967,339.064],[15.1261,-2.9106,344.6077],[15.1383,-2.9192,340.907],[15.1411,-2.9231,340.0788],[15.145,-2.9397,345.7805],[15.1461,-2.9592,343.7501],[15.1519,-2.9744,349.0904],[15.1581,-2.9819,352.4651],[15.1678,-2.9861,345.1525],[15.1869,-2.9878,334.6877],[15.1953,-2.9933,343.4217],[15.1983,-3.0022,332.1428],[15.2025,-3.0053,336.7935],[15.2142,-3.0072,332.4206],[15.2272,-3.015,326.8691],[15.2347,-3.0214,339.0642],[15.2483,-3.0244,345.4703],[15.2614,-3.0247,333.3473],[15.2794,-3.0278,335.4786],[15.2925,-3.0272,334.3999],[15.3014,-3.0225,327.1949],[15.3236,-3.0172,345.2429],[15.3436,-3.0181,336.0134],[15.36,-3.0225,330.4235],[15.3689,-3.0275,331.3539],[15.3842,-3.0331,323.6268],[15.3908,-3.0331,318.0],[15.4186,-3.0267,326.0875],[15.4475,-3.0147,326.4058],[15.4739,-3.0069,319.1432],[15.4878,-3.0,318.932],[15.5119,-2.9831,323.6112],[15.5253,-2.9758,313.1092],[15.5425,-2.9592,315.1777],[15.5517,-2.9542,322.4547],[15.565,-2.94,330.8237],[15.5725,-2.9339,320.7648],[15.5858,-2.9264,317.7162],[15.6272,-2.9131,309.2372],[15.6419,-2.9003,309.581],[15.6611,-2.9006,309.1488],[15.6658,-2.8986,310.0455],[15.6689,-2.8944,307.5883],[15.6689,-2.8875,309.0818],[15.6767,-2.8747,308.447],[15.6842,-2.8686,308.9432],[15.6892,-2.8667,309.1969],[15.6961,-2.8597,308.4137],[15.71,-2.8519,307.6599],[15.7244,-2.8456,342.1387],[15.7647,-2.8381,306.6732],[15.7956,-2.8281,308.2516],[15.8017,-2.8428,308.2994],[15.8072,-2.8428,308.4031],[15.8108,-2.8392,308.1943],[15.8142,-2.8289,308.6797],[15.8169,-2.825,308.2494],[15.8206,-2.8214,307.042],[15.8261,-2.8203,308.2617],[15.8281,-2.825,308.3147],[15.8278,-2.8319,309.0687],[15.83,-2.8367,308.2877],[15.8361,-2.8375,308.1384],[15.8417,-2.8364,308.2442],[15.8458,-2.8336,307.5301],[15.8514,-2.8336,308.4027],[15.8581,-2.8461,308.1736],[15.8628,-2.8481,310.9671],[15.8689,-2.8475,308.4069],[15.8781,-2.8428,306.4644],[15.8831,-2.845,306.0],[15.8856,-2.8492,306.0],[15.9014,-2.8542,308.3217],[15.9281,-2.8744,306.0],[15.9328,-2.8767,308.1339],[15.9397,-2.8767,306.0],[15.9486,-2.8814,378.2372],[15.9533,-2.8906,358.5386],[15.9581,-2.8928,413.2526],[15.9639,-2.9003,379.306],[15.9667,-2.9181,307.1153],[15.9706,-2.9211,308.0801],[15.9858,-2.9269,333.4052],[15.9975,-2.9425,306.0],[16.0275,-2.9472,331.9323],[16.0336,-2.9464,317.2054],[16.0386,-2.9447,377.2119],[16.0497,-2.935,315.0484],[16.0594,-2.9308,337.2147],[16.0836,-2.9281,302.0941],[16.1283,-2.9319,285.5184],[16.1428,-2.9383,281.7831],[16.1536,-2.9411,274.513],[16.1807,-2.942,274.0],[16.179,-2.928,274.0],[16.1802,-2.875,275.0],[16.1851,-2.8527,275.5],[16.2004,-2.8105,276.0],[16.2044,-2.7929,276.0],[16.2055,-2.7837,276.0],[16.2027,-2.7463,276.0],[16.2067,-2.7264,276.0],[16.2277,-2.6828,276.0],[16.2357,-2.6565,276.5],[16.2374,-2.6248,277.0],[16.2349,-2.6032,277.5],[16.2326,-2.5952,278.0]]]]}}