{"type":"Feature","properties":{"GID_2":"COG.11.7_1","GID_0":"COG","country":"RepublicoftheCongo","GID_1":"COG.11_1","province":"Pool","NL_NAME_1":"NA","county":"Ngamaba","VARNAME_2":"Brazzaville","NL_NAME_2":"NA","TYPE_2":"District","ENGTYPE_2":"District","CC_2":"NA","HASC_2":"NA","name":"Ngamaba.county"},
"geometry":{"type": "MultiPolygon","coordinates": [[[[15.2235,-4.3299,254.5],[15.2192,-4.3015,312.2174],[15.213,-4.2832,288.7927],[15.216,-4.2602,339.5067],[15.2317,-4.2357,395.118],[15.2517,-4.2226,400.388],[15.2642,-4.2219,319.6941],[15.2769,-4.2062,395.4324],[15.2933,-4.2078,299.7911],[15.3051,-4.2209,269.4545],[15.3246,-4.2809,268.0],[15.3719,-4.2894,269.8055],[15.3972,-4.2998,268.9876],[15.4153,-4.2965,268.0],[15.4286,-4.2914,268.0],[15.4489,-4.2802,270.8924],[15.4638,-4.2696,271.1745],[15.4765,-4.2522,268.0],[15.4994,-4.2123,268.0],[15.5039,-4.201,271.1926],[15.5057,-4.1909,268.0],[15.5054,-4.1782,268.0],[15.5005,-4.161,268.0],[15.5,-4.1492,268.0],[15.5065,-4.1264,269.0],[15.5144,-4.1066,270.5],[15.5339,-4.0736,287.6034],[15.5564,-4.0482,283.7721],[15.5898,-4.0346,272.7189],[15.5947,-4.0304,281.0533],[15.6137,-4.0255,278.8249],[15.6449,-4.0137,275.4831],[15.6603,-4.0096,276.1177],[15.6699,-4.0091,275.6629],[15.6791,-4.0037,273.9442],[15.7138,-3.9941,272.0],[15.7702,-3.9882,272.364],[15.8009,-3.9818,272.5],[15.8316,-3.9783,275.2162],[15.8592,-3.967,274.2132],[15.8693,-3.9665,312.708],[15.8748,-3.9633,280.0068],[15.8785,-3.9652,293.8595],[15.8929,-3.9585,289.0561],[15.9005,-3.9514,272.7524],[15.9059,-3.9379,272.9091],[15.9104,-3.9358,272.8057],[15.9104,-3.9281,274.7463],[15.9148,-3.925,275.6455],[15.9213,-3.9103,272.5],[15.9236,-3.8937,272.5],[15.9304,-3.8729,310.9229],[15.9437,-3.8411,273.0],[15.9666,-3.7988,283.7236],[15.9049,-3.7888,611.7212],[15.8942,-3.7806,603.7324],[15.8751,-3.7536,389.6388],[15.8641,-3.7115,570.2229],[15.8383,-3.6595,555.524],[15.7973,-3.6061,506.5977],[15.7642,-3.5766,414.187],[15.743,-3.5638,457.6624],[15.7096,-3.535,484.0131],[15.6877,-3.5129,578.5283],[15.6532,-3.5102,602.7029],[15.6263,-3.5407,623.7281],[15.6141,-3.5655,574.484],[15.5851,-3.6114,665.0953],[15.5769,-3.6346,632.8375],[15.5644,-3.6471,609.7799],[15.5462,-3.652,619.7449],[15.5223,-3.6398,681.8092],[15.5069,-3.6177,689.7075],[15.4848,-3.5927,696.27],[15.4622,-3.5761,704.7105],[15.4091,-3.5482,611.0859],[15.3526,-3.5272,731.5048],[15.3085,-3.5059,743.4805],[15.257,-3.4467,396.4207],[15.2547,-3.4727,441.569],[15.2461,-3.5034,389.4097],[15.2325,-3.5317,488.9448],[15.2225,-3.5642,516.2529],[15.2137,-3.6292,734.9739],[15.2127,-3.673,585.8516],[15.2084,-3.6956,733.6142],[15.1997,-3.7203,759.4063],[15.1869,-3.7809,592.4747],[15.1711,-3.8231,727.179],[15.1562,-3.8269,759.0764],[15.1286,-3.8542,717.6266],[15.1122,-3.8668,458.8368],[15.097,-3.8955,536.3956],[15.1006,-3.9224,680.3587],[15.1104,-3.9476,712.8859],[15.1149,-3.9876,512.2695],[15.1118,-4.0115,457.7958],[15.1118,-4.0338,525.3912],[15.0941,-4.0909,389.4671],[15.0771,-4.1072,531.8849],[15.072,-4.1513,369.8771],[15.0705,-4.1889,312.0914],[15.0631,-4.2082,389.2576],[15.0446,-4.2329,320.0559],[15.0137,-4.2798,374.1605],[14.9997,-4.312,392.6746],[14.9935,-4.3388,382.9081],[14.9749,-4.3681,384.4829],[14.9884,-4.3945,393.9583],[15.0314,-4.4516,371.6697],[15.0461,-4.4672,392.5835],[15.0594,-4.4907,380.9177],[15.0849,-4.5121,320.5925],[15.092,-4.5057,326.3632],[15.0982,-4.4968,258.7357],[15.1048,-4.495,295.821],[15.1047,-4.487,231.0],[15.108,-4.4844,249.2666],[15.1083,-4.4813,246.0916],[15.115,-4.4775,232.5],[15.1141,-4.4738,233.0],[15.1168,-4.4687,233.5],[15.1248,-4.4625,237.6155],[15.1232,-4.4617,234.5],[15.126,-4.4586,270.9823],[15.1249,-4.4549,235.0],[15.129,-4.4453,236.0],[15.1327,-4.4441,248.3436],[15.137,-4.4462,267.5138],[15.1475,-4.4268,343.0342],[15.1622,-4.4106,253.0448],[15.161,-4.4065,256.4139],[15.1687,-4.3986,265.5635],[15.174,-4.397,259.4919],[15.1746,-4.394,243.7205],[15.1793,-4.3902,264.0539],[15.1814,-4.3785,282.018],[15.1943,-4.3476,287.382],[15.2076,-4.3381,262.4086],[15.2235,-4.3299,254.5]]]]}}