{"type":"Feature","properties":{"GID_2":"COG.8.1_1","GID_0":"COG","country":"RepublicoftheCongo","GID_1":"COG.8_1","province":"Niari","NL_NAME_1":"NA","county":"Divénié","VARNAME_2":"Divnie","NL_NAME_2":"NA","TYPE_2":"District","ENGTYPE_2":"District","CC_2":"NA","HASC_2":"CG.NI.DI","name":"Divénié.county"},
"geometry":{"type": "MultiPolygon","coordinates": [[[[11.6493,-2.3395,210.9363],[11.6222,-2.3204,235.0628],[11.6131,-2.32,210.9432],[11.6071,-2.3251,175.1711],[11.6097,-2.3568,164.7449],[11.6138,-2.3674,180.3945],[11.6324,-2.3911,207.3426],[11.6509,-2.4214,162.7905],[11.6532,-2.4304,166.707],[11.653,-2.4446,153.9725],[11.6416,-2.4801,178.3623],[11.6371,-2.504,221.7742],[11.6362,-2.5208,265.4846],[11.6534,-2.5606,248.8842],[11.6619,-2.5912,216.5659],[11.669,-2.6054,196.1185],[11.6853,-2.6277,258.114],[11.6963,-2.6473,210.5001],[11.7027,-2.6629,247.4048],[11.7038,-2.673,233.6925],[11.701599999999999,-2.6871,214.5034],[11.6965,-2.6912,188.3494],[11.6862,-2.6924,175.9901],[11.6684,-2.6892,158.5307],[11.656,-2.6889,159.3632],[11.648,-2.6919,167.8098],[11.6414,-2.6982,179.8468],[11.638,-2.7212,165.9215],[11.6323,-2.7426,163.5452],[11.6206,-2.769,184.9152],[11.6161,-2.7842,185.4091],[11.6175,-2.7897,194.1538],[11.6227,-2.7989,193.8262],[11.6301,-2.8058,193.798],[11.6424,-2.8109,198.4136],[11.656,-2.8208,194.3352],[11.6729,-2.8297,188.9883],[11.6885,-2.8357,195.8788],[11.7116,-2.8378,183.7004],[11.7606,-2.8531,178.6682],[11.7965,-2.8614,176.1999],[11.8666,-2.8921,190.5757],[11.8946,-2.9002,194.8199],[11.9383,-2.9197,214.0971],[12.0112,-2.9488,301.2006],[12.0432,-2.9563,267.0174],[12.057,-2.9616,281.1224],[12.0667,-2.9701,273.1784],[12.1313,-2.941,219.346],[12.1691,-2.9288,277.5648],[12.2038,-2.9135,195.5604],[12.2481,-2.9004,219.2613],[12.3064,-2.8778,315.4865],[12.3347,-2.8704,335.3104],[12.3371,-2.8592,371.0892],[12.3481,-2.8421,436.7657],[12.3559,-2.8199,458.903],[12.376,-2.7958,443.0456],[12.4024,-2.7582,507.6063],[12.4171,-2.7228,456.9397],[12.4351,-2.678,526.6292],[12.4075,-2.6693,506.5821],[12.4191,-2.6358,521.5119],[12.4415,-2.604,523.6508],[12.4567,-2.5709,640.3025],[12.4812,-2.5712,578.9519],[12.5168,-2.5607,634.5433],[12.5185,-2.5228,663.5734],[12.5105,-2.5028,611.4272],[12.5151,-2.4903,668.3115],[12.5162,-2.456,667.157],[12.5033,-2.4213,599.248],[12.4976,-2.424,637.5849],[12.4683,-2.4213,669.0119],[12.2993,-2.4199,583.5598],[12.2846,-2.4213,564.8652],[12.1766,-2.4213,479.699],[12.1481,-2.428,487.7863],[12.1101,-2.4343,489.8427],[12.0923,-2.4393,474.6935],[12.0776,-2.4253,503.7473],[12.0647,-2.3977,484.4283],[12.0576,-2.386,499.1512],[12.0485,-2.3796,496.1173],[12.0226,-2.3545,428.9836],[12.0054,-2.3424,369.5745],[11.9967,-2.3399,330.8008],[11.9747,-2.3413,391.3575],[11.9402,-2.3583,316.0156],[11.9149,-2.3747,292.1078],[11.9041,-2.3786,299.8696],[11.892,-2.3782,393.7977],[11.867,-2.3715,371.7542],[11.8581,-2.3715,372.1734],[11.8476,-2.3787,364.0399],[11.8311,-2.3808,351.0946],[11.8209,-2.3874,355.8366],[11.8067,-2.4109,315.1253],[11.7944,-2.4355,288.0757],[11.7752,-2.4565,219.2132],[11.7713,-2.457,230.3718],[11.7619,-2.4535,242.203],[11.7402,-2.4377,254.2206],[11.7296,-2.4269,226.8218],[11.7108,-2.3919,269.394],[11.6978,-2.3728,288.2535],[11.679,-2.3535,301.7299],[11.6664,-2.3446,253.2965],[11.6493,-2.3395,210.9363]]]]}}