{"type":"Feature","properties":{"GID_2":"COG.5.3_1","GID_0":"COG","country":"RepublicoftheCongo","GID_1":"COG.5_1","province":"Kouilou","NL_NAME_1":"NA","county":"Madingo-Kayes","VARNAME_2":"NA","NL_NAME_2":"NA","TYPE_2":"District","ENGTYPE_2":"District","CC_2":"NA","HASC_2":"CG.KO.MK","name":"Madingo-Kayes.county"},
"geometry":{"type": "MultiPolygon","coordinates": [[[[11.2479,-3.7841,49.2383],[11.2515,-3.8118,29.6874],[11.2492,-3.8265,16.5498],[11.2279,-3.859,37.3947],[11.2242,-3.8788,44.1826],[11.2272,-3.8988,63.4672],[11.227,-3.9075,92.697],[11.2236,-3.9177,64.0269],[11.2135,-3.9322,72.5167],[11.2124,-3.9552,52.0556],[11.201,-3.991,7.3532],[11.2149,-4.0015,0.0],[11.2262,-4.0076,1.2536],[11.2315,-4.0146,0.0],[11.2507,-4.0268,2.5119],[11.2918,-4.0593,1.9447],[11.3004,-4.0679,2.9176],[11.3049,-4.0654,9.7474],[11.3051,-4.0671,5.4883],[11.3029,-4.0671,0.0],[11.3015,-4.0693,0.0],[11.3193,-4.0843,49.5362],[11.324,-4.0907,0.0],[11.3474,-4.1126,0.0],[11.3512,-4.1124,3.3083],[11.3512,-4.114,1.4356],[11.3482,-4.1137,0.0],[11.3485,-4.1149,0.0],[11.374,-4.1446,1.9018],[11.3763,-4.154,5.9745],[11.3735,-4.1599,1.8969],[11.3732,-4.1637,3.1879],[11.3757,-4.1674,1.7707],[11.3757,-4.1754,2.0583],[11.3732,-4.1793,0.8525],[11.3843,-4.1937,1.3694],[11.3888,-4.2063,6.7553],[11.396,-4.2137,0.0],[11.404,-4.2182,0.0],[11.4062,-4.2221,0.0],[11.4315,-4.241,5.3502],[11.4388,-4.2485,0.0],[11.4546,-4.2593,9.1247],[11.4563,-4.2621,0.0],[11.4918,-4.289,10.9697],[11.5035,-4.2999,0.0],[11.5126,-4.3057,13.1317],[11.5404,-4.3315,0.0],[11.5421,-4.3313,0.0],[11.5565,-4.3435,5.6271],[11.5629,-4.351,0.6858],[11.5693,-4.3549,1.8512],[11.5704,-4.3576,0.4896],[11.5818,-4.3665,0.0],[11.591,-4.3762,5.9573],[11.6421,-4.4193,0.5562],[11.6772,-4.3782,38.477],[11.688,-4.3626,32.3966],[11.6954,-4.3657,46.7977],[11.7079,-4.3484,43.7654],[11.7401,-4.3314,27.4204],[11.799,-4.2847,23.9674],[11.8288,-4.2584,3.1455],[11.8622,-4.2163,33.3998],[11.8819,-4.1887,8.5783],[11.8946,-4.1604,5.4067],[11.9026,-4.1297,24.5935],[11.896,-4.1065,18.8687],[11.8759,-4.0782,59.3261],[11.8423,-4.037,148.427],[11.8078,-4.0261,23.6214],[11.7764,-4.0119,93.6401],[11.7135,-3.9758,136.0836],[11.6686,-3.9476,142.1394],[11.6466,-3.9297,59.9529],[11.6222,-3.8948,75.0206],[11.6185,-3.8751,90.4099],[11.6268,-3.8518,133.4612],[11.6655,-3.7914,620.366],[11.6804,-3.7552,374.2425],[11.6959,-3.7271,310.5655],[11.7077,-3.6804,294.7383],[11.6963,-3.6707,281.2534],[11.6809,-3.6468,304.6568],[11.6775,-3.6443,299.9705],[11.6692,-3.6323,300.2272],[11.6463,-3.5907,234.8697],[11.6316,-3.5702,240.2347],[11.6259,-3.5668,230.3141],[11.6213,-3.5606,228.4433],[11.6096,-3.5518,239.2532],[11.5855,-3.5387,218.0193],[11.5647,-3.5295,288.1687],[11.5374,-3.5139,386.0955],[11.5294,-3.5128,489.8003],[11.5198,-3.5185,695.8918],[11.5081,-3.5298,707.4724],[11.4868,-3.5567,620.1839],[11.4584,-3.5839,367.3124],[11.4422,-3.5897,331.6265],[11.4284,-3.5901,459.2417],[11.4078,-3.5872,359.1202],[11.3931,-3.5869,350.6125],[11.3615,-3.5952,249.9327],[11.3455,-3.6035,246.6681],[11.3343,-3.6139,232.8099],[11.3029,-3.6574,226.9423],[11.27,-3.6885,54.6677],[11.2562,-3.706,73.983],[11.2496,-3.7181,55.361],[11.245,-3.7423,169.0816],[11.2455,-3.7649,70.4614],[11.2479,-3.7841,49.2383]]]]}}