{"type":"Feature","properties":{"GID_2":"COG.9.1_1","GID_0":"COG","country":"RepublicoftheCongo","GID_1":"COG.9_1","province":"Plateaux","NL_NAME_1":"NA","county":"Abala","VARNAME_2":"NA","NL_NAME_2":"NA","TYPE_2":"District","ENGTYPE_2":"District","CC_2":"NA","HASC_2":"CG.PL.AB","name":"Abala.county"},
"geometry":{"type": "MultiPolygon","coordinates": [[[[15.2024,-1.1999,354.598],[15.1869,-1.2097,354.3455],[15.18,-1.2161,348.3029],[15.1744,-1.2244,341.5001],[15.1639,-1.2344,357.8764],[15.1594,-1.2442,359.7564],[15.1544,-1.2667,363.8388],[15.1439,-1.2836,346.0621],[15.1397,-1.2933,345.9111],[15.1344,-1.3294,355.1953],[15.1314,-1.3406,351.3086],[15.1267,-1.3494,364.7455],[15.1111,-1.3683,360.1906],[15.1064,-1.3772,361.0067],[15.1061,-1.3894,349.0043],[15.1031,-1.4006,356.7343],[15.0956,-1.4478,365.7963],[15.0853,-1.4578,372.7966],[15.0639,-1.4706,413.3859],[15.0589,-1.4792,400.5955],[15.0553,-1.4967,404.8362],[15.0383,-1.5142,359.0001],[15.03,-1.5194,364.3656],[15.0206,-1.5303,369.4975],[15.0036,-1.5617,375.5783],[14.9678,-1.5867,370.4908],[14.9603,-1.5842,383.0936],[14.9423,-1.5905,376.8291],[14.955,-1.6349,403.7233],[14.9651,-1.6611,380.5983],[14.969,-1.6758,379.8773],[14.9939,-1.7369,417.4114],[15.0063,-1.7403,480.7655],[15.0396,-1.7679,520.7061],[15.0764,-1.7956,399.6228],[15.0985,-1.8095,380.5387],[15.1353,-1.839,527.4741],[15.1933,-1.8952,609.4427],[15.2698,-1.9646,483.8377],[15.304,-1.989,349.0283],[15.3112,-1.9963,376.0578],[15.3386,-1.9416,480.9627],[15.3606,-1.9332,400.9597],[15.4109,-1.9192,480.2469],[15.4502,-1.912,418.4174],[15.4752,-1.9041,413.1448],[15.5128,-1.8948,401.0694],[15.5454,-1.8746,413.3736],[15.5478,-1.8418,332.8599],[15.544,-1.8075,350.075],[15.5717,-1.7539,376.2383],[15.5752,-1.7273,368.8109],[15.5822,-1.6933,373.448],[15.5992,-1.6357,438.6871],[15.6023,-1.6154,425.7011],[15.6286,-1.5882,381.8205],[15.672,-1.5353,411.382],[15.7081,-1.5136,404.3987],[15.7903,-1.501,368.3846],[15.8367,-1.4901,368.7819],[15.8825,-1.482,362.3813],[15.9178,-1.4717,356.1261],[15.9504,-1.4676,347.4805],[16.0035,-1.457,325.7959],[16.0359,-1.454,312.1189],[16.0633,-1.466,332.0612],[16.1038,-1.4572,322.1124],[16.1308,-1.4647,314.916],[16.1355,-1.4855,328.9505],[16.1384,-1.5093,301.8875],[16.1464,-1.5204,316.5723],[16.1469,-1.5324,309.773],[16.1655,-1.533,308.593],[16.2032,-1.55,296.7841],[16.2386,-1.5549,297.3075],[16.2805,-1.5822,296.8402],[16.3056,-1.5768,297.6872],[16.3208,-1.5645,294.6595],[16.3269,-1.5421,295.0186],[16.3454,-1.5101,299.0079],[16.3496,-1.4954,307.75],[16.3467,-1.4911,299.5524],[16.3458,-1.4847,308.7464],[16.3367,-1.4614,298.5685],[16.3264,-1.4442,313.2312],[16.3206,-1.4292,297.2579],[16.3178,-1.4181,300.9224],[16.3169,-1.3919,299.4337],[16.3114,-1.3836,301.4267],[16.3061,-1.3686,311.377],[16.3028,-1.3647,315.8033],[16.2919,-1.3622,315.1683],[16.2839,-1.3428,311.435],[16.2736,-1.3394,299.8699],[16.27,-1.3358,311.7217],[16.2692,-1.3042,311.0409],[16.2658,-1.3008,306.2061],[16.2597,-1.3,312.8775],[16.2456,-1.3136,315.7959],[16.2408,-1.3114,304.5232],[16.2356,-1.3033,314.3426],[16.2308,-1.3008,313.4352],[16.2244,-1.3017,306.4438],[16.2133,-1.3111,314.145],[16.2072,-1.3103,303.0891],[16.2025,-1.3014,317.5288],[16.2047,-1.2911,312.3398],[16.2014,-1.2878,314.4861],[16.1917,-1.2833,313.6207],[16.19,-1.2717,315.176],[16.1864,-1.2683,314.7198],[16.1658,-1.2708,316.2207],[16.1564,-1.2664,306.3478],[16.1478,-1.2481,321.0891],[16.1272,-1.2408,318.8921],[16.1189,-1.2353,310.3609],[16.1094,-1.2242,307.7884],[16.1033,-1.2233,310.251],[16.0886,-1.2292,314.4934],[16.0833,-1.2278,314.9095],[16.0808,-1.2239,313.5353],[16.0808,-1.2114,321.7906],[16.0706,-1.2122,318.8163],[16.0669,-1.2153,317.4246],[16.0631,-1.2139,320.5575],[16.0542,-1.2022,323.3546],[16.0425,-1.2014,311.3022],[16.0378,-1.1994,319.5358],[16.0308,-1.1922,313.2991],[16.0192,-1.1917,310.9639],[15.9975,-1.1969,319.6536],[15.9808,-1.1856,322.9951],[15.9756,-1.1867,318.6288],[15.9678,-1.1931,306.2595],[15.9631,-1.1936,319.8597],[15.9528,-1.19,308.8828],[15.9472,-1.1817,322.4378],[15.9497,-1.1633,317.4524],[15.9458,-1.1467,320.6441],[15.9417,-1.1439,307.0],[15.9369,-1.1458,308.7914],[15.9306,-1.1603,318.4477],[15.925,-1.1586,317.5533],[15.9131,-1.13,319.0721],[15.9069,-1.1222,318.6664],[15.9028,-1.1194,320.2658],[15.8981,-1.1172,321.2332],[15.8856,-1.1186,324.1472],[15.8794,-1.1178,324.6631],[15.8753,-1.115,323.4084],[15.8694,-1.1072,323.0269],[15.8647,-1.1053,323.34],[15.8456,-1.1064,316.4966],[15.8386,-1.0994,331.5431],[15.8367,-1.0878,314.3362],[15.8314,-1.0794,312.6882],[15.8272,-1.0767,313.415],[15.81,-1.0731,331.2097],[15.7878,-1.0611,315.8633],[15.77,-1.0581,318.6705],[15.7636,-1.0586,321.3012],[15.7542,-1.0628,321.105],[15.7494,-1.0622,321.9525],[15.7467,-1.0578,320.4511],[15.7442,-1.0467,316.6877],[15.7386,-1.0386,326.4455],[15.7297,-1.0336,331.7163],[15.7272,-1.0294,319.2231],[15.7292,-1.0178,318.3876],[15.7278,-1.0122,317.2037],[15.7219,-1.0047,315.4842],[15.7211,-0.9986,331.019],[15.7283,-0.985,330.6061],[15.7275,-0.98,332.2681],[15.7217,-0.9725,320.6113],[15.7211,-0.9594,339.2902],[15.7164,-0.9572,337.4984],[15.6528,-0.9517,317.5],[15.6431,-0.9475,336.3637],[15.6253,-0.9444,336.6869],[15.6136,-0.9367,337.2971],[15.6033,-0.94,336.0634],[15.5925,-0.9372,339.1009],[15.5869,-0.9386,339.7651],[15.5733,-0.9383,333.5146],[15.5631,-0.9414,332.8209],[15.5589,-0.9442,337.9008],[15.5483,-0.9592,331.6715],[15.5436,-0.9614,329.1921],[15.5139,-0.9644,343.5444],[15.5078,-0.9633,343.9781],[15.4956,-0.9553,350.2944],[15.4908,-0.9556,346.933],[15.4808,-0.9667,342.6021],[15.4728,-0.9719,338.8028],[15.4561,-0.9761,336.992],[15.45,-0.975,345.0272],[15.4314,-0.9769,344.5476],[15.4164,-0.9822,341.6574],[15.4086,-0.9883,331.461],[15.4044,-0.9978,338.7892],[15.4069,-1.0211,363.9092],[15.4039,-1.0322,359.6393],[15.3867,-1.0492,352.0969],[15.3811,-1.0569,343.1633],[15.3747,-1.0633,348.0307],[15.365,-1.0672,351.4126],[15.3486,-1.0631,344.6844],[15.3425,-1.0633,346.2319],[15.3383,-1.0661,345.5014],[15.3236,-1.0994,353.6922],[15.2994,-1.1094,348.4886],[15.2828,-1.1203,351.0801],[15.2572,-1.1289,353.6127],[15.2419,-1.1408,343.416],[15.2233,-1.1564,341.2094],[15.2175,-1.1647,337.9952],[15.2069,-1.1956,359.719],[15.2024,-1.1999,354.598]]]]}}