{"type": "Feature","bbox": [13.8856,-0.615,14.9398,0.4615],"geometry": {"type": "MultiPolygon","coordinates": [[[[14.4926,-0.615,484.0856],[14.589,-0.596,505.4475],[14.6139,-0.5975,461.9927],[14.6357,-0.594,463.5189],[14.652,-0.5938,430.0665],[14.692,-0.5629,454.4044],[14.7042,-0.5469,447.3643],[14.7067,-0.5165,443.8987],[14.7112,-0.4982,451.6291],[14.7045,-0.461,512.7323],[14.7081,-0.4429,516.0235],[14.7108,-0.4045,473.9165],[14.7522,-0.3559,448.4251],[14.7764,-0.3337,441.5062],[14.796,-0.3207,446.082],[14.8198,-0.3126,429.2523],[14.8459,-0.2853,465.0352],[14.8615,-0.2764,449.0166],[14.9174,-0.253,424.7322],[14.9398,-0.2147,432.9012],[14.9367,-0.1743,412.0158],[14.9251,-0.1341,420.3839],[14.9128,-0.1195,396.0396],[14.9066,-0.1082,402.9832],[14.8955,-0.0749,375.16],[14.8981,-0.0454,384.4476],[14.8873,-0.0171,369.6022],[14.8976,0.033,354.8672],[14.9044,0.0347,356.2383],[14.8665,0.0588,353.3189],[14.8051,0.0541,438.3681],[14.7589,0.0467,402.251],[14.7081,0.0357,392.213],[14.641,0.0541,468.3428],[14.5904,0.061,500.2518],[14.4997,0.0888,444.9718],[14.4597,0.1073,423.4304],[14.4181,0.1326,447.3028],[14.3535,0.1628,404.3955],[14.2776,0.2024,426.4209],[14.2352,0.2746,436.5372],[14.1804,0.3431,541.6669],[14.1604,0.3702,472.4804],[14.1268,0.401,491.8326],[14.0945,0.4582,570.0806],[14.085,0.4615,570.527],[14.0745,0.4473,610.5456],[14.0732,0.4299,538.2662],[14.0664,0.4197,541.7863],[14.0602,0.4163,568.343],[14.0513,0.4071,542.6089],[14.0381,0.4045,548.579],[14.0226,0.391,525.2305],[14.0103,0.3882,545.3831],[13.9895,0.3762,533.5436],[13.9827,0.3652,553.4741],[13.9777,0.3622,551.7645],[13.9713,0.3509,555.1432],[13.9674,0.3365,528.244],[13.9615,0.3367,529.8388],[13.9574,0.3293,553.2686],[13.9478,0.3254,554.6755],[13.9417,0.3157,579.2971],[13.9421,0.3107,583.1335],[13.9492,0.3073,532.8129],[13.9378,0.2964,574.7653],[13.9449,0.2898,548.079],[13.9349,0.2886,548.8138],[13.9337,0.2859,571.15],[13.9358,0.2827,577.053],[13.936,0.2781,591.2071],[13.942,0.268,611.8513],[13.934,0.2643,616.1484],[13.926,0.2643,619.7485],[13.9212,0.2537,610.9258],[13.9126,0.2461,637.1294],[13.8978,0.238,586.3317],[13.8959,0.2353,597.2668],[13.8964,0.2284,593.5483],[13.8937,0.2204,578.2267],[13.8944,0.2155,584.9801],[13.9008,0.21,570.7316],[13.8887,0.2027,575.0424],[13.8974,0.1926,555.8942],[13.9061,0.1781,561.8084],[13.9054,0.1682,593.3378],[13.9122,0.1618,566.424],[13.917,0.1545,564.3558],[13.9264,0.1313,577.9039],[13.9278,0.1208,557.3016],[13.9233,0.1028,560.7783],[13.9146,0.0907,568.5641],[13.9149,0.0842,573.9897],[13.9217,0.073,566.5919],[13.9217,0.0617,556.3218],[13.9238,0.0505,565.3743],[13.9288,0.0448,583.9551],[13.9343,0.048,585.2435],[13.9412,0.0487,573.7436],[13.9539,0.0457,542.7921],[13.9585,0.0414,569.0584],[13.9585,0.0308,587.883],[13.9535,0.0214,571.2186],[13.9492,0.0044,557.9851],[13.9335,0.0,556.8076],[13.9348,-0.0322,586.608],[13.9308,-0.0646,549.8145],[13.9268,-0.0835,553.197],[13.9153,-0.1161,529.4957],[13.9092,-0.1272,545.5699],[13.8933,-0.1444,522.9517],[13.8876,-0.1585,530.573],[13.8856,-0.172,537.4979],[13.8868,-0.1881,528.2876],[13.8954,-0.2122,556.9463],[13.9048,-0.2245,549.847],[13.9265,-0.2426,500.9341],[13.9396,-0.2501,471.9309],[13.9462,-0.2483,496.1676],[13.9536,-0.2306,526.4799],[13.9609,-0.2232,522.891],[13.9712,-0.2213,528.2611],[13.9848,-0.2231,497.8132],[14.0187,-0.2356,464.8206],[14.1197,-0.2892,483.13],[14.1502,-0.3125,494.3721],[14.1628,-0.3299,498.9102],[14.1681,-0.3441,503.5227],[14.1723,-0.3634,479.9159],[14.173,-0.4231,543.5104],[14.1767,-0.4396,493.1666],[14.1829,-0.4421,507.5728],[14.192,-0.4416,579.2196],[14.229,-0.4328,554.126],[14.2529,-0.4329,551.707],[14.2651,-0.4391,496.3056],[14.3144,-0.4577,506.1906],[14.3263,-0.4595,510.06],[14.3537,-0.4591,505.056],[14.3649,-0.4609,481.3055],[14.3861,-0.4686,508.2929],[14.4008,-0.4771,559.679],[14.4123,-0.4906,490.2738],[14.4296,-0.5182,536.5878],[14.4563,-0.5432,528.9948],[14.4632,-0.5517,474.1015],[14.4825,-0.5888,507.7061],[14.4926,-0.615,484.0856]]]]}
,"properties": {"GID_2": "COG.3.2_1","GID_0": "COG","country": "RepublicoftheCongo","GID_1": "COG.3_1","province": "Cuvette-Ouest","NL_NAME_1": "NA","county": "Kéllé","VARNAME_2": "NA","NL_NAME_2": "NA","TYPE_2": "District","ENGTYPE_2": "District","CC_2": "NA","HASC_2": "CG.CO.KE","name": "Kéllé.county","area_km2": 7340.325,"hist_schema_id": "Elevation0-9000","hist_area_km2": {"350": 19.994,"375": 152.613,"400": 548.775,"425": 1293.73,"450": 1886.852,"475": 1466.921,"500": 967.296,"525": 564.204,"550": 276.431,"575": 111.247,"600": 34.856,"625": 12.191,"650": 3.414,"675": 1.336,"700": 0.148,"725": 0.276}}}