{"type":"Feature","properties":{"featurecla":"River","scalerank":2,"rivernum":45,"dissolve":"45River","name":"Congo4","name_alt":null,"note":null,"min_zoom":2.1,"strokeweig":1.25,"name_en":"Congo","min_label":3.1},
"geometry":{"type": "LineString","coordinates": [[18.19921875,0.09979889530662,307.932],[18.195214843750023,0.089471746869108,301.3459],[18.193115234375,0.078729559369108,312.3256],[18.19287109375,0.05267975468162,314.7407],[18.189599609375023,0.04035065311912,319.3509],[18.167724609375,-0.00957610469338,300.2794],[18.149169921875,-0.089483331255892,298.0],[18.143798828125,-0.101543878130883,298.0],[18.091796875,-0.17205169063088,298.0],[18.078271484375023,-0.19866301875588,298.0],[18.069970703125023,-0.208526300005886,298.83],[18.0244140625,-0.244170831255886,298.0],[17.9697265625,-0.31072356563088,298.1563],[17.862939453125023,-0.402666925005889,296.5154],[17.741455078125,-0.533233331255886,298.7434],[17.7275390625,-0.55291106563088,300.2245],[17.663720703125023,-0.612627862505889,294.0],[17.658203125,-0.61956145625588,294.0],[17.653955078125023,-0.62737395625588,294.0],[17.652001953125023,-0.64202239375588,294.0],[17.650390625,-0.64617278438088,294.0],[17.647119140625023,-0.64983489375588,294.0],[17.635400390625023,-0.658233331255886,294.0],[17.622460937500023,-0.673174737505889,294.0],[17.601708984375023,-0.688506768755886,294.0],[17.410888671875,-0.91814544063088,293.5],[17.384912109375023,-0.94231536250588,293.0],[17.364404296875023,-0.967120050005889,293.0],[17.356835937500023,-0.97332122188088,293.0],[17.329980468750023,-0.986358331255886,292.5],[17.3271484375,-0.99163176875588,292.0],[17.307373046875,-1.01482512813088,295.2408],[17.297119140625,-1.02092864375588,294.6421],[17.244873046875,-1.0356747375058859,291.5],[17.1943359375,-1.042803643755889,291.0],[17.174951171875023,-1.04802825313088,291.7961],[17.108300781250023,-1.075518487505889,290.0],[17.06005859375,-1.08904387813088,305.1028],[17.028076171875,-1.0942684875058859,294.5146],[17.02197265625,-1.097002862505889,296.6613],[17.011474609375,-1.10418059688088,289.0],[17.005517578125023,-1.10662200313088,289.0],[17.002587890625023,-1.112627862505889,291.5653],[16.97900390625,-1.14006926875588,289.0],[16.939843750000023,-1.17449309688088,294.735],[16.90869140625,-1.2109677062558859,292.378],[16.862207031250023,-1.24871184688088,288.5],[16.839111328125,-1.2622372375058859,288.5],[16.83251953125,-1.26897551875588,288.5],[16.828125,-1.27605559688088,288.5],[16.817285156250023,-1.304034112505889,291.8431],[16.794189453125,-1.34539153438088,290.95],[16.778710937500023,-1.382159112505889,289.4264],[16.76220703125,-1.40569426875588,287.375],[16.725,-1.479815362505889,286.5],[16.692138671875,-1.522784112505889,289.599],[16.668847656250023,-1.569170831255889,285.5],[16.6357421875,-1.6206356750058859,285.0],[16.62841796875,-1.637041925005889,285.0],[16.623291015625,-1.65374114375588,284.5],[16.621972656250023,-1.66497161250588,288.5507],[16.622460937500023,-1.69890715938088,288.9282]]}}