{"type":"Feature","properties":{"featurecla":"River","scalerank":8,"rivernum":812,"dissolve":"812River","name":"Alima1","name_alt":null,"note":null,"min_zoom":7.0,"strokeweig":0.2,"name_en":"Alima","min_label":8.0},
"geometry":{"type": "LineString","coordinates": [[14.685205078125023,-2.0801083312558859,422.6873],[14.785546875000023,-2.00505950313088,407.8124],[14.799072265625,-1.98967864375588,408.3922],[14.908935546875,-1.775713800005889,397.302],[14.932519531250023,-1.65471770625588,422.7793],[14.946435546875023,-1.61467864375588,379.6792],[14.966796875,-1.58538176875588,375.1154],[15.02197265625,-1.53313567500588,363.4154],[15.090722656250023,-1.44451262813088,354.4069],[15.142724609375023,-1.2822567687558859,355.8375],[15.1630859375,-1.2392880187558859,353.7947],[15.228515625,-1.15300872188088,352.3669],[15.249414062500023,-1.13543059688088,352.1803],[15.298974609375023,-1.1137997375058859,354.6026],[15.321435546875023,-1.099444268755889,349.5279],[15.328857421875,-1.090655206255889,354.3138],[15.340576171875,-1.0718075500058859,352.6377],[15.3486328125,-1.06365325313088,344.6844],[15.352685546875023,-1.06292083125588,347.3903],[15.363037109375,-1.0659481750058859,350.6275],[15.367822265625023,-1.0649716125058859,347.9855],[15.384423828125023,-1.05071380000588,350.4902],[15.398828125000023,-1.0342098937558859,363.8123],[15.427148437500023,-0.991045831255889,353.6846],[15.443017578125023,-0.97795989375588,344.3378],[15.478515625,-0.966631768755889,340.2367],[15.491601562500023,-0.95940520625588,347.0015],[15.498779296875,-0.956866143755889,345.3928],[15.502832031250023,-0.957842706255889,342.6833],[15.513427734375,-0.963409112505886,343.5444],[15.518798828125,-0.963897393755886,341.97],[15.534570312500023,-0.958526300005886,342.4238],[15.564208984375,-0.943682550005889,337.357],[15.580078125,-0.938311456255889,322.0775],[15.59912109375,-0.93694426875588,336.6882],[15.653076171875,-0.951006768755889,320.9587],[15.692285156250023,-0.95452239375588,330.3968],[15.709228515625,-0.95891692500588,324.002],[15.72265625,-0.97136809688088,316.4729],[15.727783203125,-0.99114348750588,327.9673],[15.728271484375,-1.0146786437558859,319.3735],[15.732080078125023,-1.037920831255889,326.797],[15.747705078125023,-1.0566708312558859,320.2067],[15.766357421875,-1.06438567500588,318.8513],[15.812402343750023,-1.07463958125588,328.8918],[15.833740234375,-1.083819268755889,313.3334],[15.84033203125,-1.09050872188088,326.0505],[15.843896484375023,-1.09734465938088,313.9874],[15.84912109375,-1.10295989375588,330.4638],[15.895410156250023,-1.11638762813088,321.7758],[15.903076171875,-1.11980559688088,321.0819],[15.917236328125,-1.1411434875058859,318.6832],[15.92529296875,-1.15129973750588,320.0457],[15.933007812500023,-1.15129973750588,321.2988],[15.944238281250023,-1.145342706255889,321.7316],[15.947509765625,-1.1548153625058859,318.5372],[15.948144531250023,-1.17791106563088,322.7363],[15.965966796875023,-1.186846612505889,315.1794],[16.0302734375,-1.193194268755889,318.3095],[16.062255859375,-1.20501067500588,323.297],[16.093408203125023,-1.22063567500588,318.4486]]}}