{"type":"Feature","properties":{"featurecla":"River","scalerank":8,"rivernum":812,"dissolve":"812River","name":"Alima2","name_alt":null,"note":null,"min_zoom":7.0,"strokeweig":0.25,"name_en":"Alima","min_label":8.0},
"geometry":{"type": "LineString","coordinates": [[16.093408203125023,-1.22063567500588,318.4486],[16.204003906250023,-1.29021575313088,312.3398],[16.209863281250023,-1.296221612505889,317.5796],[16.21728515625,-1.30046965938088,304.7413],[16.255615234375,-1.30510833125588,316.8097],[16.261865234375023,-1.30877044063088,298.0],[16.269921875000023,-1.3164364562558859,311.4779],[16.274316406250023,-1.32366301875588,311.2955],[16.289794921875,-1.3569638000058859,316.1412],[16.311425781250023,-1.3852841125058859,304.0896],[16.34326171875,-1.473467706255889,299.6344],[16.3681640625,-1.496416925005889,307.2691],[16.410400390625,-1.49846770625588,306.6738],[16.404296875,-1.5146786437558859,305.2333],[16.418115234375023,-1.52385833125588,307.9482],[16.435205078125023,-1.5293270812558859,305.6717],[16.439111328125023,-1.53460051875588,306.188],[16.44140625,-1.542315362505889,300.8403],[16.462890625,-1.545733331255889,307.1217],[16.4892578125,-1.54509856563088,305.386],[16.505517578125023,-1.540362237505889,301.0351],[16.523583984375023,-1.5288388000058859,301.0942],[16.544091796875023,-1.527178643755889,303.2203],[16.564355468750023,-1.5317684875058859,292.7927],[16.59375,-1.543780206255889,307.2584],[16.597314453125023,-1.54241301875588,301.8871],[16.598388671875,-1.5434872375058859,299.5827],[16.60302734375,-1.5547177062558859,294.6019],[16.60205078125,-1.56853606563088,290.11],[16.597412109375,-1.5835263000058859,286.8934],[16.600732421875023,-1.59295012813088,285.5],[16.623437500000023,-1.59026458125588,285.5]]}}