{"type": "Feature","bbox": [14.0938,1.3635,15.6407,2.2036],"geometry": {"type": "MultiPolygon","coordinates": [[[[14.5954,2.2036,384.9138],[14.5938,2.2027,358.8489],[14.5914,2.1933,425.6407],[14.5837,2.1863,371.785],[14.5823,2.1777,457.4978],[14.5802,2.1748,429.2815],[14.5739,2.1785,389.565],[14.5692,2.1787,390.789],[14.5474,2.1702,406.5504],[14.5404,2.1702,399.6879],[14.5347,2.1665,403.1173],[14.5324,2.1686,398.7646],[14.5296,2.1661,401.946],[14.5302,2.1627,412.6817],[14.5202,2.165,422.9359],[14.4978,2.1629,478.5876],[14.4834,2.1561,491.6663],[14.4812,2.1538,548.8983],[14.482,2.1456,518.4157],[14.4804,2.1438,585.8763],[14.4659,2.148,534.3947],[14.4635,2.1439,549.9615],[14.4663,2.1307,649.4335],[14.4628,2.1261,551.251],[14.4545,2.1254,623.4588],[14.4452,2.1303,694.2868],[14.4432,2.1365,604.6014],[14.4469,2.1455,609.8099],[14.4429,2.1572,614.1472],[14.4407,2.1594,576.8948],[14.4337,2.1559,486.7688],[14.4291,2.1559,479.2762],[14.4167,2.0855,506.1995],[14.3238,1.6635,549.5582],[14.2356,1.5504,510.0252],[14.0938,1.3771,489.5387],[14.1031,1.3756,490.833],[14.1093,1.3801,494.4897],[14.1189,1.3918,500.3019],[14.1253,1.3925,495.6031],[14.1296,1.3948,498.6525],[14.1445,1.395,497.9608],[14.16,1.3915,496.4531],[14.1703,1.3913,504.4082],[14.1753,1.395,496.9942],[14.1872,1.3956,496.3503],[14.1911,1.3933,497.4634],[14.1979,1.3825,497.9919],[14.2055,1.3747,496.8369],[14.2169,1.37,500.5822],[14.2253,1.371,495.3592],[14.2301,1.3696,497.326],[14.2359,1.3635,498.8221],[14.2525,1.3692,509.6227],[14.2711,1.3708,507.9565],[14.3147,1.3811,517.5082],[14.3522,1.3769,525.9008],[14.3722,1.3772,528.264],[14.3897,1.3797,531.8099],[14.4161,1.3875,539.8351],[14.4308,1.3819,539.0584],[14.4444,1.3817,793.5424],[14.4731,1.3886,773.5042],[14.5003,1.3914,771.5701],[14.5718,1.4278,653.1659],[14.6613,1.4428,553.7324],[14.721,1.4378,522.0637],[14.7782,1.4428,525.4061],[14.9373,1.4452,464.6489],[14.9945,1.4403,437.2083],[15.0716,1.4502,425.8719],[15.1362,1.4378,453.7497],[15.2158,1.4378,510.5065],[15.35,1.4477,608.3699],[15.4246,1.4403,575.4919],[15.4918,1.4502,489.891],[15.6407,1.4452,481.4894],[15.6036,1.4801,450.1766],[15.5514,1.5124,466.5799],[15.4992,1.5248,519.6957],[15.4395,1.5447,546.1787],[15.4097,1.5646,565.9197],[15.3604,1.6061,601.8293],[15.3699,1.6715,644.9167],[15.3898,1.7138,645.793],[15.3928,1.7603,644.2861],[15.4072,1.8455,412.4614],[15.4271,1.9201,392.5173],[15.4344,1.9572,364.8903],[15.4227,1.9518,364.5688],[15.415,1.9435,360.9629],[15.3949,1.9378,339.2829],[15.3728,1.9272,359.4358],[15.3524,1.9128,363.781],[15.3462,1.9118,358.357],[15.3439,1.913,343.3674],[15.3351,1.927,336.9902],[15.3371,1.94,351.2698],[15.3357,1.9416,344.5052],[15.3335,1.9417,350.5437],[15.3259,1.933,342.3922],[15.3188,1.9315,340.6339],[15.3105,1.9342,337.0],[15.3049,1.9381,337.0],[15.3091,1.9661,368.8007],[15.2923,1.9893,364.2393],[15.2852,1.9942,351.339],[15.2713,1.9982,338.0],[15.2569,2.0082,365.3321],[15.2401,2.0111,360.9124],[15.2405,2.0137,357.5614],[15.2489,2.0188,350.5822],[15.2485,2.0278,362.2539],[15.2471,2.0293,342.2852],[15.2385,2.0324,338.0],[15.2218,2.0329,346.688],[15.2072,2.0389,338.0],[15.2011,2.0384,340.8904],[15.1948,2.0353,341.2638],[15.1837,2.0194,369.0907],[15.1791,2.0147,363.9804],[15.1773,2.0147,380.7499],[15.1717,2.0186,342.6577],[15.1644,2.0306,348.1659],[15.1622,2.0417,343.1769],[15.1527,2.0406,349.2363],[15.1508,2.039,352.7619],[15.1471,2.0119,368.4254],[15.1433,2.0084,363.027],[15.1368,2.0062,358.7678],[15.1278,2.0106,343.3357],[15.1212,2.0107,364.3392],[15.1164,2.005,365.8777],[15.113,1.983,488.1262],[15.1085,1.9808,375.8643],[15.0909,1.9806,359.6115],[15.0849,1.9826,366.2203],[15.0774,1.9825,372.7515],[15.0741,1.9857,358.4179],[15.0763,1.9944,430.0453],[15.0723,2.0003,361.9019],[15.0693,2.0008,362.9174],[15.0662,2.0001,373.5428],[15.0624,1.9961,370.6936],[15.0508,1.9785,392.4325],[15.0484,1.977,388.548],[15.0433,1.9784,367.7899],[15.0402,1.98,344.7263],[15.0367,1.9859,358.6552],[15.033,1.9997,370.965],[14.9998,2.0166,340.0],[14.9931,2.0279,344.3179],[14.9835,2.0353,366.1956],[14.9804,2.0342,362.8973],[14.9766,2.0287,374.667],[14.9716,2.0101,356.0429],[14.9539,2.0037,343.3475],[14.918,2.0015,365.4424],[14.9081,2.0061,361.9635],[14.8951,2.016,361.9391],[14.8919,2.0217,363.8936],[14.8945,2.0273,364.2927],[14.9013,2.0309,365.4991],[14.9101,2.0392,380.3962],[14.9124,2.0477,359.2383],[14.9158,2.0535,364.8195],[14.9136,2.0627,407.8552],[14.9126,2.064,362.4391],[14.8951,2.0636,369.9594],[14.8929,2.0666,341.1005],[14.8819,2.0715,356.9427],[14.8798,2.0745,364.5947],[14.8784,2.0876,351.8621],[14.8788,2.1032,370.2568],[14.8748,2.1108,386.4855],[14.8691,2.111,353.8915],[14.8594,2.1068,373.6085],[14.86,2.1003,377.5411],[14.8666,2.0863,381.9803],[14.8624,2.0812,390.3428],[14.8519,2.0846,360.5219],[14.8437,2.0854,367.5079],[14.8396,2.0835,372.6484],[14.8295,2.0683,388.2722],[14.8091,2.0598,355.5965],[14.8074,2.06,354.3349],[14.7959,2.0739,390.8924],[14.7929,2.0744,352.8378],[14.7764,2.0636,408.1858],[14.7702,2.0636,370.3177],[14.7644,2.0692,368.8218],[14.7644,2.0724,363.1248],[14.7714,2.0781,403.5993],[14.7744,2.0842,438.9206],[14.7738,2.0904,431.4736],[14.7709,2.0968,350.1583],[14.7677,2.0991,374.2225],[14.7617,2.0994,371.937],[14.7481,2.0907,363.9383],[14.7412,2.0894,383.3687],[14.7383,2.0914,372.6968],[14.7382,2.0959,365.8576],[14.7423,2.0984,367.9285],[14.7478,2.0971,365.1036],[14.7517,2.0983,368.5783],[14.7532,2.1029,394.1149],[14.7525,2.1084,382.2919],[14.7417,2.1129,371.3331],[14.7245,2.1264,358.371],[14.7199,2.124,371.7194],[14.7184,2.118,371.1111],[14.7268,2.1083,422.6228],[14.7268,2.1056,417.6736],[14.721,2.1057,359.8162],[14.7119,2.1104,369.2993],[14.6989,2.1125,369.5894],[14.698,2.1213,390.9287],[14.6863,2.1339,361.2054],[14.6832,2.1352,365.8459],[14.6605,2.1302,397.303],[14.6529,2.1299,358.8325],[14.6481,2.1315,351.779],[14.6421,2.1397,364.7054],[14.643,2.1444,360.3443],[14.6471,2.1463,409.2032],[14.6481,2.1486,394.8277],[14.6451,2.1556,356.4295],[14.6414,2.1584,376.0222],[14.6283,2.1588,355.6709],[14.6203,2.1703,418.0293],[14.6183,2.1769,383.6135],[14.614,2.1817,381.964],[14.6104,2.193,378.6931],[14.5978,2.2031,380.6587],[14.5954,2.2036,384.9138]]]]}
,"properties": {"GID_2": "COG.12.2_1","GID_0": "COG","country": "RepublicoftheCongo","GID_1": "COG.12_1","province": "Sangha","NL_NAME_1": "NA","county": "Sembé","VARNAME_2": "NA","NL_NAME_2": "NA","TYPE_2": "District","ENGTYPE_2": "District","CC_2": "NA","HASC_2": "CG.SA.SE","name": "Sembé.county","area_km2": 8733.452,"hist_schema_id": "Elevation0-9000","hist_area_km2": {"325": 1.165,"350": 86.857,"375": 431.648,"400": 721.251,"425": 1093.558,"450": 1141.761,"475": 874.798,"500": 775.079,"525": 955.671,"550": 667.489,"575": 450.874,"600": 388.021,"625": 339.721,"650": 319.629,"675": 179.291,"700": 90.411,"725": 81.385,"750": 73.311,"775": 47.71,"800": 13.819}}}