{"type": "Feature","bbox": [13.4243,-3.5323,14.3456,-2.4555],"geometry": {"type": "MultiPolygon","coordinates": [[[[14.014,-2.4636,703.1879],[13.9578,-2.5144,586.5381],[13.9369,-2.5239,833.5416],[13.9178,-2.5378,719.3877],[13.8993,-2.5555,673.3617],[13.8455,-2.6178,570.0595],[13.8272,-2.647,552.483],[13.8126,-2.6776,557.9955],[13.8044,-2.6885,534.5961],[13.7836,-2.7082,557.0801],[13.7607,-2.7252,564.7325],[13.7273,-2.7563,579.0718],[13.6982,-2.7783,576.8663],[13.6787,-2.7893,610.9083],[13.6652,-2.8022,583.4684],[13.6421,-2.8452,617.0225],[13.643,-2.8779,578.1731],[13.6325,-2.9097,615.6793],[13.6281,-2.9834,517.5662],[13.6419,-3.0964,496.1935],[13.6396,-3.1163,481.9753],[13.6186,-3.1232,469.6917],[13.5937,-3.1423,487.661],[13.5719,-3.1545,491.3888],[13.543,-3.1668,478.5963],[13.5196,-3.17,473.8253],[13.4793,-3.1917,455.0403],[13.4633,-3.231,471.38],[13.4598,-3.2613,468.0096],[13.4243,-3.3029,451.3091],[13.4842,-3.3191,579.2446],[13.5285,-3.3423,626.3241],[13.5779,-3.363,590.3239],[13.6255,-3.3792,479.3521],[13.6682,-3.3865,527.1163],[13.7222,-3.3997,604.997],[13.7421,-3.4233,576.1767],[13.7517,-3.444,581.1973],[13.7733,-3.4506,640.786],[13.7961,-3.471,596.9908],[13.8088,-3.4857,607.9835],[13.8301,-3.5016,582.8852],[13.8461,-3.5071,556.6699],[13.8656,-3.5278,461.088],[13.8716,-3.5323,488.616],[13.8794,-3.5239,490.8246],[13.8803,-3.5192,488.5602],[13.8756,-3.5031,489.5008],[13.8775,-3.4983,475.3246],[13.8944,-3.4878,507.4212],[13.9081,-3.4597,537.4502],[13.9111,-3.4486,565.8737],[13.9175,-3.4411,547.7579],[13.9222,-3.4325,488.1552],[13.9225,-3.4253,480.3605],[13.9197,-3.4214,486.3931],[13.9203,-3.415,548.1492],[13.9478,-3.3872,548.918],[13.9708,-3.3756,517.0276],[13.9742,-3.3719,498.0936],[13.9778,-3.3617,494.4808],[13.9883,-3.3514,506.829],[13.9906,-3.3467,488.7177],[14.01,-3.3333,515.6724],[14.0206,-3.3094,536.3203],[14.0236,-3.3056,535.1503],[14.0311,-3.2992,533.0706],[14.045,-3.2928,529.2142],[14.0481,-3.2886,499.8056],[14.05,-3.2769,510.3332],[14.0614,-3.2606,533.4382],[14.0656,-3.2578,532.7755],[14.0878,-3.2528,535.5119],[14.0894,-3.2472,538.9363],[14.0839,-3.2389,505.8105],[14.0833,-3.2342,509.4801],[14.0964,-3.2267,513.2546],[14.1036,-3.2192,528.3658],[14.1078,-3.2097,498.6071],[14.1108,-3.1919,499.2432],[14.1142,-3.1883,518.1925],[14.1247,-3.1853,512.3972],[14.1283,-3.1819,512.8246],[14.1264,-3.1703,528.3854],[14.1272,-3.1569,527.6308],[14.1372,-3.1322,523.493],[14.1444,-3.1189,506.8647],[14.1619,-3.0531,525.0911],[14.1747,-3.0314,537.8223],[14.1858,-3.0217,529.1589],[14.2061,-3.0078,540.1085],[14.2158,-3.0031,534.366],[14.2414,-2.9947,549.8607],[14.2553,-2.9878,536.3702],[14.2644,-2.9764,555.7534],[14.27,-2.9614,537.4119],[14.2931,-2.9431,543.6672],[14.2981,-2.9333,547.7843],[14.2981,-2.9222,554.8074],[14.3069,-2.9086,548.6962],[14.3358,-2.8939,573.2096],[14.3433,-2.8856,570.1862],[14.3456,-2.8781,574.9058],[14.3436,-2.8708,561.2482],[14.335,-2.8567,701.0394],[14.3342,-2.8425,694.1332],[14.3289,-2.835,629.1017],[14.3214,-2.8294,704.9283],[14.3172,-2.8219,686.5521],[14.3142,-2.7897,702.3765],[14.3064,-2.7739,668.8929],[14.3069,-2.7569,617.8328],[14.3053,-2.7483,612.1214],[14.2981,-2.7486,753.4531],[14.2917,-2.7631,651.6769],[14.285,-2.77,706.1108],[14.2778,-2.7639,684.379],[14.2811,-2.7489,775.471],[14.2953,-2.7258,641.3378],[14.3031,-2.7094,718.1373],[14.305,-2.6928,780.4338],[14.2983,-2.6844,737.679],[14.2903,-2.6844,756.671],[14.2817,-2.6892,779.0428],[14.2739,-2.6958,778.9311],[14.2667,-2.6981,721.4758],[14.2592,-2.6914,740.9785],[14.2547,-2.6842,750.8873],[14.2478,-2.6808,718.6751],[14.2331,-2.6836,728.7812],[14.2144,-2.6964,616.3824],[14.2069,-2.6986,685.1203],[14.1994,-2.6964,685.0739],[14.1939,-2.6894,703.1211],[14.1792,-2.6819,800.1043],[14.1469,-2.6833,715.0068],[14.1403,-2.6758,712.0787],[14.1314,-2.6614,698.5203],[14.1378,-2.6542,690.6202],[14.1533,-2.6464,637.0535],[14.1653,-2.6314,672.9282],[14.1797,-2.625,598.4104],[14.1878,-2.6192,645.6671],[14.1933,-2.6117,692.2338],[14.1939,-2.6036,726.3461],[14.1894,-2.5964,754.4794],[14.1822,-2.5917,718.5358],[14.1747,-2.5906,675.3677],[14.1672,-2.5942,744.3593],[14.1633,-2.6014,739.9846],[14.1617,-2.6086,690.5183],[14.1544,-2.6064,669.6628],[14.1314,-2.5911,634.5768],[14.1244,-2.5856,651.5995],[14.1183,-2.5778,701.4572],[14.1217,-2.5692,750.3431],[14.1289,-2.5678,706.0731],[14.1444,-2.5697,628.5143],[14.1517,-2.565,642.6008],[14.1553,-2.5575,641.1432],[14.1567,-2.5503,661.7715],[14.1558,-2.5428,739.3035],[14.1489,-2.5361,770.9886],[14.1414,-2.5331,690.1649],[14.1267,-2.5303,742.2584],[14.1192,-2.5233,770.1757],[14.1122,-2.5011,729.804],[14.1113,-2.4614,665.656],[14.1029,-2.474,735.2251],[14.083,-2.4816,704.4045],[14.0693,-2.4741,672.8086],[14.0562,-2.4597,570.1089],[14.0502,-2.4555,560.7524],[14.0445,-2.4556,548.3284],[14.0285,-2.4708,678.6085],[14.0246,-2.4717,683.3789],[14.0184,-2.4683,659.3341],[14.014,-2.4636,703.1879]]]]}
,"properties": {"GID_2": "COG.6.4_1","GID_0": "COG","country": "RepublicoftheCongo","GID_1": "COG.6_1","province": "Lékoumou","NL_NAME_1": "NA","county": "Zanaga","VARNAME_2": "NA","NL_NAME_2": "NA","TYPE_2": "District","ENGTYPE_2": "District","CC_2": "NA","HASC_2": "CG.LE.ZA","name": "Zanaga.county","area_km2": 5939.628,"hist_schema_id": "Elevation0-9000","hist_area_km2": {"450": 12.553,"475": 114.458,"500": 143.395,"525": 261.79,"550": 776.901,"575": 1214.028,"600": 1191.71,"625": 943.164,"650": 521.64,"675": 282.787,"700": 186.548,"725": 125.544,"750": 84.736,"775": 54.452,"800": 21.264,"825": 4.469,"850": 0.191}}}