{"type": "Feature","id": "5855","bbox": [11.81927,-4.8554,11.89824,-4.74154],"geometry": {"type": "Polygon","coordinates": [[[11.89762,-4.8554,12.5152],[11.89824,-4.74178,74.2949],[11.84167,-4.74154,0.0],[11.85037,-4.75284,0.0],[11.85314,-4.77392,0.0],[11.84842,-4.78604,0.0],[11.84332,-4.78878,0.0],[11.82996,-4.77353,0.0],[11.82407,-4.77236,0.0],[11.81927,-4.77916,0.0],[11.82021,-4.7848,0.0],[11.83059,-4.79702,0.0],[11.88624,-4.85524,1.3008],[11.89762,-4.8554,12.5152]]]}
,"properties": {"ISO3166-1-Alpha-3": "COG","country": "Republic of the Congo","fill": "#F0F","name": "Pointe Noire","area_km2": 66.63807,"hist_schema_id": "Elevation0-9000","hist_area_km2": {"0": 35.15695,"25": 29.38931,"50": 0.84517,"75": 1.24664}}}