{"type":"Feature","properties":{"GID_2":"COG.4.4_1","GID_0":"COG","country":"RepublicoftheCongo","GID_1":"COG.4_1","province":"Cuvette","NL_NAME_1":"NA","county":"Mossaka","VARNAME_2":"NA","NL_NAME_2":"NA","TYPE_2":"District","ENGTYPE_2":"District","CC_2":"NA","HASC_2":"CG.CU.MO","name":"Mossaka.county"},
"geometry":{"type": "MultiPolygon","coordinates": [[[[16.9613,-1.1636,289.0],[17.0542,-0.9556,296.0529],[16.7899,0.1306,319.3631],[16.7424,0.2344,329.3973],[16.7378,0.2361,328.2575],[16.7019,0.2167,328.7303],[16.4856,0.11,322.1676],[16.3503,0.0404,317.437],[16.3615,0.0193,316.2245],[16.357,-0.0064,318.9731],[16.357,-0.0321,325.5641],[16.3403,-0.0427,320.6099],[16.3131,-0.0579,318.5684],[16.2874,-0.0639,321.4669],[16.207,-0.0634,328.6873],[16.5127,-0.6344,305.7745],[16.2574,-0.9805,305.5554],[16.2419,-1.0285,312.335],[16.2551,-1.0421,316.1956],[16.2668,-1.0607,307.2537],[16.2837,-1.07,319.9633],[16.3024,-1.0855,309.9122],[16.3085,-1.1008,306.6201],[16.291,-1.1257,304.6501],[16.2711,-1.1453,308.2152],[16.2541,-1.1677,309.4344],[16.2317,-1.1933,304.8661],[16.2124,-1.205,309.7928],[16.1959,-1.2236,304.9633],[16.1527,-1.2586,316.2364],[16.1564,-1.2664,306.3478],[16.1658,-1.2708,316.2207],[16.1864,-1.2683,314.7198],[16.19,-1.2717,315.176],[16.1917,-1.2833,313.6207],[16.2014,-1.2878,314.4861],[16.2047,-1.2911,312.3398],[16.2025,-1.3014,317.5288],[16.2072,-1.3103,303.0891],[16.2133,-1.3111,314.145],[16.2244,-1.3017,306.4438],[16.2308,-1.3008,313.4352],[16.2356,-1.3033,314.3426],[16.2408,-1.3114,304.5232],[16.2456,-1.3136,315.7959],[16.2597,-1.3,312.8775],[16.2658,-1.3008,306.2061],[16.2692,-1.3042,311.0409],[16.27,-1.3358,311.7217],[16.2736,-1.3394,299.8699],[16.2839,-1.3428,311.435],[16.2919,-1.3622,315.1683],[16.3028,-1.3647,315.8033],[16.3061,-1.3686,311.377],[16.3114,-1.3836,301.4267],[16.3169,-1.3919,299.4337],[16.3178,-1.4181,300.9224],[16.3206,-1.4292,297.2579],[16.3264,-1.4442,313.2312],[16.3367,-1.4614,298.5685],[16.3458,-1.4847,308.7464],[16.3467,-1.4911,299.5524],[16.3533,-1.4981,305.9642],[16.3583,-1.4958,304.8242],[16.3611,-1.4919,305.8073],[16.3664,-1.4908,294.9701],[16.3719,-1.4919,305.8867],[16.3831,-1.5017,306.125],[16.3892,-1.5025,294.7195],[16.4089,-1.4953,305.9974],[16.4139,-1.5042,303.9204],[16.4025,-1.5069,305.4206],[16.3992,-1.51,306.4317],[16.4006,-1.5156,305.4534],[16.4039,-1.5192,292.0],[16.4089,-1.5214,308.0697],[16.4403,-1.5244,301.8289],[16.4444,-1.5272,303.1782],[16.4447,-1.5333,305.1666],[16.4353,-1.5372,306.0622],[16.4319,-1.5408,305.9977],[16.4333,-1.5461,304.8895],[16.4386,-1.5478,304.5946],[16.4578,-1.5494,302.9451],[16.4642,-1.5486,305.9744],[16.4708,-1.5419,304.5854],[16.4769,-1.5411,294.5615],[16.4894,-1.5497,306.5486],[16.495,-1.5497,305.6397],[16.4997,-1.5478,304.3143],[16.5075,-1.5347,300.9792],[16.5156,-1.5292,300.0975],[16.5397,-1.5303,302.8461],[16.5631,-1.5256,304.2277],[16.5728,-1.53,300.2713],[16.5781,-1.5383,289.6628],[16.5822,-1.5411,303.6223],[16.605,-1.5381,289.9136],[16.6031,-1.5611,297.0507],[16.5939,-1.5797,299.6212],[16.5933,-1.5858,288.6208],[16.5953,-1.5908,294.9209],[16.6064,-1.5933,298.3907],[16.6236,-1.5903,285.5],[16.6674,-1.5902,285.5],[16.7262,-1.4697,289.7625],[16.7415,-1.433,287.0],[16.7613,-1.3989,288.2321],[16.796,-1.331,288.0],[16.816,-1.301,291.1197],[16.846,-1.264,288.5],[16.882,-1.231,295.0627],[16.897,-1.214,293.0747],[16.9302,-1.186,289.0],[16.9613,-1.1636,289.0]]]]}}