{"type": "Feature","bbox": [14.8873,-0.271,16.3615,0.4675],"geometry": {"type": "MultiPolygon","coordinates": [[[[15.0886,-0.254,416.5168],[15.1126,-0.2408,433.2303],[15.1471,-0.2293,409.9105],[15.1914,-0.2257,425.9852],[15.2814,-0.2221,402.9228],[15.2969,-0.228,404.1787],[15.3363,-0.2341,410.2594],[15.3821,-0.2348,391.2096],[15.4129,-0.248,380.0979],[15.4339,-0.2345,373.3271],[15.4475,-0.2201,368.3253],[15.4945,-0.178,356.6118],[15.5272,-0.1781,380.9213],[15.5399,-0.1913,373.1393],[15.5612,-0.2039,389.4686],[15.5917,-0.2135,379.537],[15.6251,-0.2369,373.9108],[15.6495,-0.2375,366.1869],[15.7202,-0.2515,349.2874],[15.7654,-0.2522,335.0957],[15.803,-0.271,344.3805],[15.9162,-0.241,377.4973],[15.9601,-0.2204,334.5228],[15.9888,-0.2191,332.8228],[16.0146,-0.2312,330.825],[16.066,-0.2346,332.4663],[16.0903,-0.207,336.9379],[16.1015,-0.1811,333.5491],[16.1032,-0.163,333.6562],[16.1102,-0.1267,336.155],[16.1427,-0.0805,335.5521],[16.1731,-0.0668,330.8437],[16.193,-0.0637,329.2371],[16.2874,-0.0639,321.4669],[16.3131,-0.0579,318.5684],[16.357,-0.0321,325.5641],[16.357,-0.0064,318.9731],[16.3615,0.0193,316.2245],[16.3503,0.0404,317.437],[16.3461,0.0383,316.289],[16.3411,0.0408,329.4073],[16.3344,0.0483,329.7234],[16.3275,0.0711,328.1626],[16.3106,0.0742,322.9972],[16.2897,0.0675,309.8158],[16.2853,0.0694,326.2178],[16.2811,0.0722,312.7565],[16.2711,0.0894,325.0797],[16.2675,0.0931,320.0403],[16.2636,0.0958,319.5904],[16.2483,0.1011,326.0978],[16.2403,0.1069,321.5786],[16.2308,0.1181,329.0437],[16.2267,0.1206,322.4602],[16.2208,0.1217,311.217],[16.2153,0.1203,311.1458],[16.2061,0.1156,313.6638],[16.1903,0.1039,323.2371],[16.185,0.1028,319.3781],[16.1781,0.1028,318.2355],[16.1672,0.1058,328.5287],[16.1447,0.1178,322.8514],[16.1256,0.1181,319.8341],[16.1283,0.1214,324.3398],[16.1306,0.1472,313.5845],[16.1286,0.1656,328.137],[16.1269,0.1706,325.5446],[16.1233,0.1742,326.8313],[16.1067,0.1844,332.049],[16.1039,0.1953,330.2098],[16.1036,0.2344,335.9885],[16.1053,0.2578,334.7368],[16.0811,0.3025,331.7918],[16.0683,0.31,323.3568],[16.0553,0.3247,372.1541],[16.0461,0.3289,366.6901],[16.0139,0.3381,333.6403],[16.0039,0.3483,334.8054],[15.9983,0.3486,333.6486],[15.9886,0.3444,335.8636],[15.9833,0.3447,337.8378],[15.9731,0.3481,339.0793],[15.965,0.3536,339.5032],[15.9594,0.3622,333.7029],[15.96,0.3881,343.7462],[15.9578,0.3931,341.4833],[15.9511,0.3997,340.073],[15.9164,0.4133,359.7651],[15.9042,0.4214,394.0486],[15.8986,0.4297,407.5891],[15.8844,0.4361,380.5114],[15.8783,0.4436,360.1603],[15.8444,0.4517,361.6274],[15.8072,0.4472,389.4691],[15.8014,0.455,390.6581],[15.7906,0.4578,391.5873],[15.7642,0.4431,348.3284],[15.7519,0.4431,347.0304],[15.7458,0.4508,371.7781],[15.7433,0.4619,380.6617],[15.7353,0.4675,386.5457],[15.72,0.4636,348.7228],[15.7153,0.4656,349.728],[15.7097,0.4656,353.6341],[15.6967,0.4583,377.5411],[15.6797,0.455,377.1744],[15.6686,0.4567,421.2882],[15.6625,0.4558,384.5817],[15.6508,0.4472,366.7184],[15.6325,0.4456,426.7191],[15.6275,0.4433,429.7733],[15.6233,0.4408,432.2177],[15.6206,0.4367,428.0436],[15.6117,0.4319,405.9922],[15.5992,0.4308,362.8164],[15.5889,0.4278,365.2476],[15.5856,0.4242,378.1537],[15.5811,0.4147,393.1076],[15.5769,0.3983,353.9647],[15.5728,0.3889,374.7789],[15.5653,0.3825,347.9435],[15.5564,0.3781,347.4203],[15.5464,0.3667,350.3814],[15.5417,0.3578,354.0666],[15.5333,0.3525,354.8674],[15.5264,0.3525,356.3705],[15.5164,0.3561,345.2252],[15.5022,0.3692,350.2214],[15.4906,0.3714,349.9474],[15.4758,0.3656,353.1879],[15.47,0.3661,355.9975],[15.4631,0.3731,353.6011],[15.4575,0.3733,348.8884],[15.4386,0.3817,355.5083],[15.4264,0.3803,375.3806],[15.4119,0.3867,378.8224],[15.3903,0.3928,404.4129],[15.3756,0.3797,371.7336],[15.3661,0.3758,354.698],[15.3489,0.3794,374.527],[15.3353,0.3797,374.2918],[15.325,0.3831,354.2058],[15.3169,0.3889,396.0927],[15.3108,0.3894,400.8093],[15.3039,0.3897,364.9032],[15.2917,0.3817,362.3145],[15.2867,0.3839,359.7943],[15.2847,0.3886,360.0128],[15.2892,0.4088,360.8477],[15.2699,0.3933,363.6255],[15.26,0.3741,365.2369],[15.2182,0.3447,426.2306],[15.1715,0.3209,421.7641],[15.1573,0.3097,451.0341],[15.134,0.3011,405.3799],[15.1266,0.2815,432.9412],[15.1455,0.2601,403.5689],[15.1702,0.2406,458.8169],[15.1918,0.2271,416.51],[15.2158,0.2053,407.4284],[15.2275,0.1966,400.6168],[15.2417,0.1804,458.8659],[15.2481,0.1371,419.9981],[15.2401,0.1163,339.184],[15.221,0.0989,354.0608],[15.2061,0.0823,350.1426],[15.1666,0.0595,363.3317],[15.1381,0.0505,344.9642],[15.1101,0.0446,360.1163],[15.0716,0.0446,369.657],[15.0386,0.0356,371.5476],[15.0045,0.0398,404.9827],[14.9655,0.0334,382.4951],[14.9345,0.0339,359.8318],[14.9089,0.036,358.5745],[14.8976,0.033,354.8672],[14.8873,-0.0171,369.6022],[14.8981,-0.0454,384.4476],[14.8955,-0.0749,375.16],[14.9066,-0.1082,402.9832],[14.9128,-0.1195,396.0396],[14.9251,-0.1341,420.3839],[14.9367,-0.1743,412.0158],[14.9398,-0.2145,422.2851],[14.9549,-0.2314,421.9765],[14.9694,-0.238,441.0496],[15.0208,-0.2466,415.0241],[15.0886,-0.254,416.5168]]]]}
,"properties": {"GID_2": "COG.4.3_1","GID_0": "COG","country": "RepublicoftheCongo","GID_1": "COG.4_1","province": "Cuvette","NL_NAME_1": "NA","county": "Makoua","VARNAME_2": "NA","NL_NAME_2": "NA","TYPE_2": "District","ENGTYPE_2": "District","CC_2": "NA","HASC_2": "CG.CU.MA","name": "Makoua.county","area_km2": 8533.651,"hist_schema_id": "Elevation0-9000","hist_area_km2": {"300": 48.235,"325": 2237.927,"350": 2342.594,"375": 1463.219,"400": 1117.329,"425": 945.91,"450": 313.663,"475": 52.517,"500": 10.453,"525": 1.802}}}