{"type":"Feature","properties":{"GID_2":"COG.8.2_1","GID_0":"COG","country":"RepublicoftheCongo","GID_1":"COG.8_1","province":"Niari","NL_NAME_1":"NA","county":"Kibangou","VARNAME_2":"NA","NL_NAME_2":"NA","TYPE_2":"District","ENGTYPE_2":"District","CC_2":"NA","HASC_2":"CG.NI.KB","name":"Kibangou.county"},
"geometry":{"type": "MultiPolygon","coordinates": [[[[11.8639,-3.7477,235.4367],[11.8772,-3.7522,248.1405],[11.9083,-3.7511,212.9559],[11.9172,-3.7556,212.8561],[11.9242,-3.7606,200.365],[11.9447,-3.7847,199.2593],[11.9594,-3.7983,232.439],[11.9833,-3.8144,241.4452],[12.015,-3.8325,221.7626],[12.0378,-3.8525,231.8059],[12.0533,-3.8631,216.6177],[12.0756,-3.87,267.4678],[12.0989,-3.8828,188.0156],[12.1219,-3.8856,214.0928],[12.1447,-3.8861,171.5219],[12.1614,-3.8892,154.6834],[12.1689,-3.8917,132.076],[12.1711,-3.894,143.1447],[12.1825,-3.8659,271.8908],[12.225,-3.795,288.6944],[12.2548,-3.7703,70.0763],[12.2819,-3.744,138.7217],[12.3015,-3.7193,227.493],[12.3163,-3.6843,203.9063],[12.3274,-3.6671,132.7067],[12.3349,-3.6279,136.8732],[12.3341,-3.5997,69.4457],[12.3485,-3.5725,78.9039],[12.4014,-3.5761,119.2178],[12.4715,-3.5651,66.0086],[12.5077,-3.5446,83.5431],[12.5229,-3.5286,80.9773],[12.512,-3.5096,76.801],[12.4938,-3.4882,79.5764],[12.4811,-3.4639,94.3844],[12.4608,-3.439,107.1957],[12.437,-3.4151,108.665],[12.3468,-3.3158,125.5745],[12.3383,-3.3001,136.8459],[12.3123,-3.2666,167.3002],[12.2948,-3.2344,147.2374],[12.2741,-3.1861,173.9322],[12.2684,-3.1489,215.0176],[12.279,-3.1052,309.8297],[12.2832,-3.0579,173.6388],[12.3043,-3.015,199.1137],[12.3042,-2.9695,205.6758],[12.3289,-2.8974,300.3508],[12.3347,-2.8704,335.3104],[12.3064,-2.8778,315.4865],[12.2481,-2.9004,219.2613],[12.2038,-2.9135,195.5604],[12.1691,-2.9288,277.5648],[12.1313,-2.941,219.346],[12.0667,-2.9701,273.1784],[12.0684,-2.9775,266.4122],[12.0657,-2.9865,237.7697],[12.0506,-3.0111,257.2584],[12.0303,-3.0558,179.6198],[12.0249,-3.0744,164.6368],[12.0182,-3.088,169.0155],[12.0135,-3.1352,153.7968],[12.0108,-3.1423,164.6868],[12.0023,-3.1531,155.4266],[11.9913,-3.1596,160.8435],[11.9714,-3.1663,175.1117],[11.9474,-3.1718,188.3123],[11.9394,-3.1783,204.3969],[11.935,-3.1879,239.52],[11.9367,-3.1939,326.1334],[11.9435,-3.2043,339.4093],[11.9653,-3.2144,304.2896],[12.0018,-3.2419,182.5029],[12.0222,-3.2845,251.9633],[12.0433,-3.3236,157.7873],[12.0484,-3.3394,202.097],[12.0455,-3.3526,208.9406],[12.0279,-3.3837,207.0849],[12.0071,-3.415,323.9905],[11.9588,-3.4783,383.1435],[11.9433,-3.4894,365.9039],[11.9197,-3.4988,376.7202],[11.8982,-3.5108,368.9854],[11.8874,-3.5228,337.4366],[11.8806,-3.5357,181.8662],[11.877,-3.5649,184.194],[11.8779,-3.5769,212.9816],[11.8894,-3.5909,179.2787],[11.9045,-3.5994,219.4559],[11.9405,-3.6155,185.4623],[11.9465,-3.621,182.9754],[11.9478,-3.6263,202.7114],[11.914,-3.7029,222.9618],[11.8957,-3.7343,206.3034],[11.8843,-3.7474,243.292],[11.8761,-3.7504,246.8352],[11.8639,-3.7477,235.4367]]]]}}