{"type": "Feature","bbox": [12.9944,-3.3396,13.6711,-2.3889],"geometry": {"type": "MultiPolygon","coordinates": [[[[13.0321,-2.3889,714.0043],[13.0365,-2.411,708.0139],[13.0365,-2.444,666.5645],[13.0391,-2.4719,611.7908],[13.0467,-2.4973,541.1727],[13.0416,-2.5328,511.7491],[13.0375,-2.5881,546.1166],[13.0411,-2.6497,536.9697],[13.0461,-2.6972,479.437],[13.0458,-2.7214,527.5993],[13.0492,-2.7442,493.4393],[13.0536,-2.7617,539.632],[13.0633,-2.7842,518.3433],[13.0761,-2.8081,475.0972],[13.0783,-2.8158,454.8957],[13.0781,-2.8231,462.626],[13.0708,-2.8275,479.1159],[13.0633,-2.8275,479.5658],[13.0486,-2.8244,466.791],[13.0414,-2.8286,464.2421],[13.035,-2.8378,539.083],[13.0278,-2.8439,480.3186],[13.0206,-2.8481,551.6734],[13.0056,-2.8519,512.2165],[12.9975,-2.8561,457.3596],[12.9944,-2.8644,475.622],[12.9975,-2.8722,471.765],[13.005,-2.8786,434.0235],[13.01,-2.8861,450.9536],[13.0119,-2.9025,433.459],[13.0175,-2.9167,477.6955],[13.025,-2.9206,428.8436],[13.0319,-2.9189,440.934],[13.0394,-2.9214,493.6581],[13.0472,-2.9267,432.5002],[13.0617,-2.9239,420.2144],[13.0689,-2.9256,425.6522],[13.0836,-2.9419,424.5279],[13.1072,-2.9578,430.2439],[13.1283,-2.98,420.3673],[13.1325,-2.9883,461.6929],[13.1278,-3.0042,416.1981],[13.1153,-3.0353,418.1693],[13.105,-3.0808,411.1557],[13.1086,-3.1311,474.1709],[13.1061,-3.1553,434.824],[13.1022,-3.1633,416.8895],[13.0731,-3.1808,410.3247],[13.0678,-3.1956,453.2514],[13.0633,-3.2031,438.2083],[13.0556,-3.2083,405.4832],[13.0311,-3.212,425.6833],[13.0645,-3.2291,427.6784],[13.0798,-3.2416,445.5384],[13.1031,-3.2473,468.9702],[13.117,-3.2572,450.8213],[13.162,-3.2726,451.925],[13.1754,-3.2875,456.3218],[13.1891,-3.3168,436.1654],[13.2128,-3.3396,440.3208],[13.2507,-3.3389,480.1833],[13.2688,-3.3279,452.158],[13.3,-3.3148,477.919],[13.324,-3.3164,514.9979],[13.3589,-3.3242,452.8074],[13.4038,-3.2982,472.2126],[13.4243,-3.3029,451.3091],[13.4598,-3.2613,468.0096],[13.4633,-3.231,471.38],[13.4793,-3.1917,455.0403],[13.5196,-3.17,473.8253],[13.543,-3.1668,478.5963],[13.5719,-3.1545,491.3888],[13.5937,-3.1423,487.661],[13.6186,-3.1232,469.6917],[13.6396,-3.1163,481.9753],[13.6419,-3.0964,496.1935],[13.6281,-2.9834,517.5662],[13.6325,-2.9097,615.6793],[13.643,-2.8779,578.1731],[13.6421,-2.8452,617.0225],[13.6711,-2.7889,605.1412],[13.6678,-2.7618,591.0107],[13.6566,-2.7572,585.2761],[13.6364,-2.7651,575.9274],[13.5795,-2.757,584.6264],[13.5429,-2.7546,619.2417],[13.5236,-2.7414,604.3158],[13.5009,-2.732,624.3672],[13.4834,-2.7119,637.9581],[13.4733,-2.692,595.8441],[13.4709,-2.6695,621.63],[13.4899,-2.6185,588.3885],[13.4717,-2.5959,592.8715],[13.3978,-2.5764,605.2858],[13.3543,-2.5725,637.1737],[13.3022,-2.5716,650.631],[13.2528,-2.5631,675.803],[13.1848,-2.5478,660.0956],[13.1661,-2.5372,653.3461],[13.118,-2.487,662.05],[13.0321,-2.3889,714.0043]]]]}
,"properties": {"GID_2": "COG.6.2_1","GID_0": "COG","country": "RepublicoftheCongo","GID_1": "COG.6_1","province": "Lékoumou","NL_NAME_1": "NA","county": "Komono","VARNAME_2": "NA","NL_NAME_2": "NA","TYPE_2": "District","ENGTYPE_2": "District","CC_2": "NA","HASC_2": "CG.LE.KO","name": "Komono.county","area_km2": 4656.599,"hist_schema_id": "Elevation0-9000","hist_area_km2": {"350": 0.148,"375": 2.794,"400": 27.371,"425": 251.213,"450": 772.459,"475": 789.695,"500": 369.83,"525": 283.004,"550": 306.31,"575": 371.612,"600": 450.34,"625": 382.876,"650": 286.312,"675": 158.717,"700": 115.682,"725": 75.209,"750": 13.026}}}