{"type": "Feature","bbox": [15.213,-4.3299,15.3246,-4.2062],"geometry": {"type": "MultiPolygon","coordinates": [[[[15.3246,-4.2809,268.0],[15.3051,-4.2209,269.4545],[15.2933,-4.2078,299.7911],[15.2769,-4.2062,395.4324],[15.2642,-4.2219,319.6941],[15.2517,-4.2226,400.388],[15.2317,-4.2357,395.118],[15.216,-4.2602,339.5067],[15.213,-4.2832,288.7927],[15.2192,-4.3015,312.2174],[15.2235,-4.3299,254.5],[15.2288,-4.3272,262.5389],[15.2545,-4.3218,257.75],[15.2652,-4.3165,259.125],[15.2758,-4.303,286.5741],[15.2939,-4.2863,268.0],[15.3022,-4.2817,268.0],[15.3132,-4.2789,268.0],[15.3246,-4.2809,268.0]]]]}
,"properties": {"GID_2": "COG.2.1_1","GID_0": "COG","country": "RepublicoftheCongo","GID_1": "COG.2_1","province": "Brazzaville","NL_NAME_1": "NA","county": "Brazzaville","VARNAME_2": "NA","NL_NAME_2": "NA","TYPE_2": "District","ENGTYPE_2": "District","CC_2": "NA","HASC_2": "CG.BR.BR","name": "Brazzaville.county","area_km2": 102.41889,"hist_schema_id": "Elevation0-9000","hist_area_km2": {"250": 10.00023,"275": 34.37942,"300": 34.29468,"325": 19.00825,"350": 2.51617,"375": 1.58582,"400": 0.46517,"425": 0.16915}}}