{"type":"Feature","properties":{"GID_2":"COG.1.4_1","GID_0":"COG","country":"RepublicoftheCongo","GID_1":"COG.1_1","province":"Bouenza","NL_NAME_1":"NA","county":"Mfouati","VARNAME_2":"NA","NL_NAME_2":"NA","TYPE_2":"District","ENGTYPE_2":"District","CC_2":"NA","HASC_2":"CG.BO.MF","name":"Mfouati.county"},
"geometry":{"type": "MultiPolygon","coordinates": [[[[13.9005,-4.5084,652.0789],[13.9086,-4.4667,652.0588],[13.9117,-4.4583,634.8077],[13.9178,-4.4503,611.4878],[13.9253,-4.4439,577.4415],[13.9333,-4.4136,276.5637],[13.9469,-4.3908,219.8831],[13.9492,-4.375,250.2701],[13.9461,-4.3508,230.7071],[13.9508,-4.3361,244.5797],[13.9519,-4.3218,181.6335],[13.9313,-4.3205,220.1217],[13.8998,-4.3235,253.8115],[13.8827,-4.3186,181.9933],[13.8755,-4.3148,197.5677],[13.8223,-4.3178,421.5061],[13.78,-4.3221,590.6035],[13.7312,-4.3323,672.1865],[13.6806,-4.3523,336.5394],[13.7197,-4.3851,557.8698],[13.7399,-4.4177,498.0161],[13.7538,-4.4307,654.7781],[13.756,-4.4458,762.115],[13.7624,-4.4448,753.0631],[13.7633,-4.4423,753.9276],[13.7816,-4.4252,773.9963],[13.8077,-4.4221,803.3314],[13.8192,-4.4225,743.7685],[13.8288,-4.4278,742.4517],[13.8528,-4.4482,704.2799],[13.8551,-4.4539,696.6059],[13.8673,-4.4672,659.0922],[13.8694,-4.478,658.9495],[13.8768,-4.4946,673.5231],[13.8835,-4.5012,684.5748],[13.8957,-4.5081,659.9046],[13.9005,-4.5084,652.0789]]]]}}