{"type":"Feature","properties":{"GID_2":"COG.6.1_1","GID_0":"COG","country":"RepublicoftheCongo","GID_1":"COG.6_1","province":"Lékoumou","NL_NAME_1":"NA","county":"Bambama","VARNAME_2":"NA","NL_NAME_2":"NA","TYPE_2":"District","ENGTYPE_2":"District","CC_2":"NA","HASC_2":"CG.LE.BA","name":"Bambama.county"},
"geometry":{"type": "MultiPolygon","coordinates": [[[[13.0298,-2.3216,697.6981],[13.0289,-2.3247,733.0228],[13.0321,-2.3889,714.0043],[13.118,-2.487,662.05],[13.1661,-2.5372,653.3461],[13.1848,-2.5478,660.0956],[13.2528,-2.5631,675.803],[13.3022,-2.5716,650.631],[13.3543,-2.5725,637.1737],[13.3978,-2.5764,605.2858],[13.4717,-2.5959,592.8715],[13.4899,-2.6185,588.3885],[13.4709,-2.6695,621.63],[13.4733,-2.692,595.8441],[13.4834,-2.7119,637.9581],[13.5009,-2.732,624.3672],[13.5236,-2.7414,604.3158],[13.5429,-2.7546,619.2417],[13.5795,-2.757,584.6264],[13.6364,-2.7651,575.9274],[13.6566,-2.7572,585.2761],[13.6678,-2.7618,591.0107],[13.6711,-2.7889,605.1412],[13.6634,-2.8052,580.269],[13.6787,-2.7893,610.9083],[13.6982,-2.7783,576.8663],[13.7273,-2.7563,579.0718],[13.7607,-2.7252,564.7325],[13.7836,-2.7082,557.0801],[13.8044,-2.6885,534.5961],[13.8126,-2.6776,557.9955],[13.8272,-2.647,552.483],[13.8455,-2.6178,570.0595],[13.8993,-2.5555,673.3617],[13.9178,-2.5378,719.3877],[13.9369,-2.5239,833.5416],[13.9578,-2.5144,586.5381],[14.014,-2.4636,703.1879],[13.998,-2.4465,614.864],[13.9868,-2.4431,604.6199],[13.9776,-2.4436,697.7909],[13.9696,-2.4464,628.1028],[13.9477,-2.4612,713.9429],[13.9372,-2.4645,686.3775],[13.9226,-2.465,623.4905],[13.8916,-2.454,616.8101],[13.8855,-2.4502,572.6518],[13.8719,-2.4362,541.6529],[13.8687,-2.4288,539.8398],[13.8684,-2.4205,549.8722],[13.8707,-2.4125,555.6641],[13.8832,-2.3936,602.463],[13.9164,-2.3587,799.899],[13.9189,-2.3438,638.5413],[13.9166,-2.3339,760.1019],[13.9134,-2.3297,727.5372],[13.8922,-2.3133,540.4785],[13.8867,-2.3045,541.5874],[13.8804,-2.2606,561.1437],[13.8369,-2.1968,556.345],[13.8139,-2.1534,469.4556],[13.7905,-2.1324,466.4455],[13.771,-2.1182,461.8689],[13.7582,-2.1134,479.0661],[13.7536,-2.1139,469.5698],[13.7488,-2.1203,459.9715],[13.7247,-2.1623,506.2607],[13.6914,-2.1953,537.2695],[13.6748,-2.2169,525.5933],[13.645,-2.2506,511.0954],[13.6382,-2.2612,530.662],[13.5839,-2.3244,547.8943],[13.5712,-2.3422,545.8956],[13.5361,-2.3841,512.7612],[13.5061,-2.4295,540.4599],[13.5031,-2.4312,527.663],[13.4928,-2.4335,522.0994],[13.4843,-2.4305,544.8536],[13.4708,-2.4211,586.963],[13.4539,-2.415,551.5082],[13.4424,-2.4141,581.4608],[13.4305,-2.4153,525.417],[13.3999,-2.4262,569.8685],[13.3914,-2.4267,570.2081],[13.3848,-2.4246,527.7267],[13.374,-2.4207,546.3442],[13.3561,-2.4072,524.6519],[13.3364,-2.3969,548.5559],[13.3321,-2.3923,535.4191],[13.3163,-2.3859,602.6445],[13.2632,-2.3792,565.5072],[13.2501,-2.3742,613.0795],[13.2398,-2.3678,566.31],[13.2318,-2.3593,611.5609],[13.2233,-2.342,606.693],[13.2159,-2.3379,582.5564],[13.21,-2.3393,574.5598],[13.1997,-2.3513,561.2062],[13.189,-2.3693,637.7401],[13.182,-2.3764,612.4816],[13.1756,-2.3794,639.8874],[13.1664,-2.3788,613.5417],[13.1304,-2.3602,650.7786],[13.1217,-2.3538,669.8179],[13.089,-2.3429,655.9409],[13.0723,-2.3431,675.7529],[13.0572,-2.3374,699.0753],[13.0478,-2.3365,720.7206],[13.0409,-2.3338,719.1436],[13.0311,-2.3246,723.4225],[13.0298,-2.3216,697.6981]]]]}}