{"type":"Feature","properties":{"GID_2":"COG.3.3_1","GID_0":"COG","country":"RepublicoftheCongo","GID_1":"COG.3_1","province":"Cuvette-Ouest","NL_NAME_1":"NA","county":"Mbomo","VARNAME_2":"NA","NL_NAME_2":"NA","TYPE_2":"District","ENGTYPE_2":"District","CC_2":"NA","HASC_2":"CG.CO.MO","name":"Mbomo.county"},
"geometry":{"type": "MultiPolygon","coordinates": [[[[14.085,0.4615,570.527],[14.0945,0.4582,570.0806],[14.1268,0.401,491.8326],[14.1604,0.3702,472.4804],[14.1804,0.3431,541.6669],[14.2352,0.2746,436.5372],[14.2776,0.2024,426.4209],[14.3535,0.1628,404.3955],[14.4181,0.1326,447.3028],[14.4597,0.1073,423.4304],[14.4997,0.0888,444.9718],[14.5904,0.061,500.2518],[14.641,0.0541,468.3428],[14.7081,0.0357,392.213],[14.7589,0.0467,402.251],[14.8051,0.0541,438.3681],[14.8665,0.0588,353.3189],[14.9044,0.0347,356.2383],[14.9089,0.036,358.5745],[14.9345,0.0339,359.8318],[14.9655,0.0334,382.4951],[15.0045,0.0398,404.9827],[15.0386,0.0356,371.5476],[15.0716,0.0446,369.657],[15.1101,0.0446,360.1163],[15.1381,0.0505,344.9642],[15.1666,0.0595,363.3317],[15.2061,0.0823,350.1426],[15.221,0.0989,354.0608],[15.2401,0.1163,339.184],[15.2481,0.1371,419.9981],[15.2417,0.1804,458.8659],[15.2275,0.1966,400.6168],[15.2158,0.2053,407.4284],[15.1918,0.2271,416.51],[15.1702,0.2406,458.8169],[15.1455,0.2601,403.5689],[15.1266,0.2815,432.9412],[15.134,0.3011,405.3799],[15.1573,0.3097,451.0341],[15.1715,0.3209,421.7641],[15.2182,0.3447,426.2306],[15.26,0.3741,365.2369],[15.2699,0.3933,363.6255],[15.2892,0.4088,360.8477],[15.2892,0.4103,360.8477],[15.2867,0.4144,362.0165],[15.2825,0.4161,356.8374],[15.2775,0.4139,358.126],[15.2764,0.4086,361.2376],[15.2711,0.3997,363.1528],[15.2672,0.4011,359.2673],[15.2653,0.4058,355.9705],[15.2647,0.4258,350.6087],[15.2586,0.4333,360.9574],[15.2492,0.4378,359.6203],[15.2364,0.4383,362.9919],[15.2256,0.4469,356.009],[15.22,0.4483,362.7334],[15.2131,0.4417,352.8642],[15.2081,0.4408,354.8207],[15.2036,0.4497,379.8472],[15.2036,0.4567,367.2655],[15.2058,0.4614,362.9017],[15.2039,0.4664,365.9029],[15.2006,0.4697,363.898],[15.1956,0.4719,366.6168],[15.1706,0.4742,407.6401],[15.1742,0.4911,379.4714],[15.1733,0.4972,371.7621],[15.1694,0.4975,394.1849],[15.1653,0.4947,373.2362],[15.1597,0.4947,398.3501],[15.1553,0.5036,387.4246],[15.1464,0.5086,386.6203],[15.1272,0.5075,411.8483],[15.1183,0.5125,404.7052],[15.115,0.5161,421.5222],[15.1039,0.5189,473.335],[15.0972,0.5189,475.3529],[15.0936,0.5225,450.4422],[15.0892,0.5314,424.7263],[15.0847,0.5608,397.0598],[15.0844,0.5739,374.1973],[15.0872,0.5917,370.5148],[15.1019,0.6114,389.8389],[15.1033,0.6167,375.895],[15.1022,0.6292,372.0095],[15.0883,0.6694,412.3185],[15.0853,0.6867,395.1641],[15.0847,0.7606,404.7807],[15.0908,0.7889,419.7291],[15.0947,0.8197,424.8622],[15.0919,0.8308,384.5793],[15.0781,0.8506,386.4509],[15.0739,0.8606,390.6034],[15.0694,0.8828,394.5459],[15.0694,0.8897,421.9396],[15.0719,0.8944,447.2379],[15.0814,0.8986,425.498],[15.0883,0.9122,454.4651],[15.0925,0.9147,448.2354],[15.0986,0.9153,432.2126],[15.1022,0.9186,403.0479],[15.1092,0.9322,385.4181],[15.1175,0.9378,387.0319],[15.1278,0.9408,392.132],[15.1408,0.9414,408.4357],[15.1503,0.9456,393.6713],[15.1547,0.9617,437.7786],[15.1503,0.9775,458.2514],[15.1394,0.9997,440.4379],[15.1336,1.0072,439.8043],[15.1167,1.0175,446.652],[15.0981,1.02,388.3348],[15.0892,1.0247,390.4406],[15.0825,1.0317,391.6339],[15.0781,1.0406,391.0156],[15.0758,1.0522,389.728],[15.0753,1.0467,391.875],[15.0453,1.0469,390.287],[15.0122,1.0436,403.7029],[14.9964,1.045,418.0072],[14.9664,1.0525,458.2383],[14.95,1.06,408.051],[14.9342,1.0697,403.0606],[14.9031,1.0975,409.8326],[14.8869,1.0992,426.4312],[14.8717,1.1106,441.2492],[14.8503,1.115,466.7048],[14.8422,1.1203,416.0927],[14.8356,1.1281,471.7923],[14.8303,1.1436,475.6257],[14.8183,1.16,512.9532],[14.8108,1.1639,500.267],[14.795,1.1764,538.9149],[14.78,1.1814,491.4271],[14.765,1.1833,522.7672],[14.7489,1.1806,544.3306],[14.7339,1.1739,502.838],[14.7192,1.1744,489.2939],[14.6719,1.1925,492.8769],[14.6317,1.2025,549.1196],[14.5967,1.2133,547.6805],[14.5728,1.2236,641.3107],[14.5497,1.2419,679.5348],[14.5342,1.2494,689.833],[14.53,1.2567,686.1951],[14.5217,1.3128,781.7248],[14.5211,1.3281,780.7328],[14.5139,1.3439,788.3201],[14.5122,1.3517,791.7048],[14.5136,1.3758,785.309],[14.5103,1.3844,802.542],[14.5033,1.3914,779.7272],[14.4731,1.3886,773.5042],[14.4444,1.3817,793.5424],[14.4308,1.3819,539.0584],[14.4161,1.3875,539.8351],[14.3897,1.3797,531.8099],[14.3722,1.3772,528.264],[14.3522,1.3769,525.9008],[14.3217,1.3811,521.0989],[14.3086,1.3806,513.2089],[14.2711,1.3708,507.9565],[14.2525,1.3692,509.6227],[14.2359,1.3635,498.8221],[14.2372,1.3622,503.0234],[14.2473,1.3615,502.2276],[14.2516,1.3592,501.1844],[14.2589,1.3511,508.0226],[14.2717,1.3463,496.2688],[14.279,1.3412,494.5412],[14.2876,1.3267,496.2502],[14.2967,1.3053,520.361],[14.3038,1.2995,509.6497],[14.3054,1.2998,501.4308],[14.3068,1.2943,514.2606],[14.3036,1.2832,508.2912],[14.3056,1.2697,513.2482],[14.304,1.2607,511.0432],[14.2976,1.2492,524.9796],[14.295,1.2412,527.5343],[14.2962,1.2336,530.4301],[14.3009,1.2288,527.9935],[14.3092,1.2265,515.0598],[14.3103,1.2173,507.4153],[14.324,1.2103,507.79],[14.329,1.2041,508.8599],[14.3354,1.1882,515.5966],[14.3438,1.1774,525.7065],[14.3449,1.1538,522.7608],[14.3467,1.1457,514.606],[14.3718,1.1208,518.0802],[14.3873,1.0994,522.9362],[14.3964,1.0937,524.9238],[14.3987,1.0898,524.5902],[14.3987,1.084,536.0066],[14.4018,1.0718,528.2413],[14.3991,1.0617,529.5162],[14.3998,1.0574,528.0996],[14.4123,1.0353,534.0424],[14.4137,1.0264,537.6725],[14.4202,1.0164,542.6094],[14.4241,1.0015,548.3643],[14.4323,0.9893,553.8168],[14.438,0.97,548.7224],[14.4453,0.9605,551.1797],[14.451599999999999,0.9594,558.6024],[14.4676,0.9511,574.1721],[14.4772,0.9377,593.1062],[14.4856,0.9334,677.8165],[14.4934,0.9326,689.8196],[14.498,0.9286,701.4625],[14.5023,0.9059,657.9324],[14.5001,0.8985,701.2795],[14.4932,0.8905,718.7561],[14.4916,0.8799,687.7058],[14.4878,0.8767,658.3597],[14.4654,0.8744,701.2697],[14.4658,0.8707,718.2321],[14.4711,0.8647,725.6833],[14.477,0.8629,693.1887],[14.4837,0.8487,670.9978],[14.4855,0.8353,677.5898],[14.4887,0.8252,676.0125],[14.4851,0.8199,689.6753],[14.4727,0.8128,628.9825],[14.4641,0.7894,651.82],[14.4611,0.7868,637.2047],[14.4385,0.7804,621.5865],[14.431,0.7753,636.934],[14.4146,0.7526,581.619],[14.4153,0.7422,592.8378],[14.402,0.7303,593.7773],[14.3934,0.7273,568.2806],[14.3927,0.7243,590.7264],[14.3881,0.7213,594.5124],[14.3785,0.7031,571.773],[14.368,0.6985,593.1219],[14.3596,0.6725,574.3416],[14.3706,0.6613,575.9951],[14.3845,0.6374,598.1187],[14.3656,0.6291,658.2704],[14.3583,0.6172,628.1765],[14.3499,0.6107,678.652],[14.3389,0.61,601.7767],[14.3225,0.593,631.9842],[14.3108,0.5916,599.4068],[14.2951,0.5804,599.8459],[14.2935,0.5769,587.7198],[14.2937,0.57,581.8409],[14.2835,0.5558,579.9598],[14.2892,0.5438,587.6514],[14.281,0.5436,599.2418],[14.2579,0.5484,586.0033],[14.2349,0.5366,579.008],[14.2228,0.5364,577.625],[14.2155,0.5403,583.2329],[14.2095,0.5495,568.6951],[14.1988,0.5508,576.2343],[14.1831,0.5432,565.9818],[14.1787,0.543,576.1476],[14.1696,0.5487,579.9478],[14.152,0.5551,571.6215],[14.1369,0.5577,571.2401],[14.1196,0.5583,566.41],[14.1066,0.5498,561.6959],[14.0827,0.5213,567.2646],[14.0708,0.4939,548.47],[14.0722,0.4896,538.4002],[14.0925,0.4744,541.3777],[14.093,0.4694,535.0286],[14.0916,0.4666,527.416],[14.085,0.4615,570.527]]]]}}