{"type":"Feature","properties":{"GID_2":"COG.1.2_1","GID_0":"COG","country":"RepublicoftheCongo","GID_1":"COG.1_1","province":"Bouenza","NL_NAME_1":"NA","county":"Loudima","VARNAME_2":"NA","NL_NAME_2":"NA","TYPE_2":"District","ENGTYPE_2":"District","CC_2":"NA","HASC_2":"CG.BO.LO","name":"Loudima.county"},
"geometry":{"type": "MultiPolygon","coordinates": [[[[13.3521,-3.9672,215.1206],[13.3528,-3.9625,209.8831],[13.3622,-3.9475,219.9144],[13.3578,-3.94,323.608],[13.3506,-3.9328,317.1384],[13.3481,-3.925,429.5569],[13.3406,-3.9208,426.7503],[13.3406,-3.9283,302.9729],[13.3353,-3.9356,261.4033],[13.3275,-3.9325,253.258],[13.3125,-3.9222,248.536],[13.3047,-3.9219,272.8253],[13.2903,-3.9297,264.7648],[13.2739,-3.9317,314.509],[13.245,-3.9111,374.7178],[13.23,-3.9053,292.6442],[13.215,-3.9056,281.9465],[13.1994,-3.9133,286.6293],[13.1769,-3.9289,280.165],[13.1617,-3.9314,217.6884],[13.1378,-3.9203,253.6536],[13.1289,-3.9194,324.8833],[13.0911,-3.9231,288.5468],[13.0756,-3.9225,224.4345],[13.0528,-3.9297,313.4147],[13.0456,-3.9306,237.4247],[13.0306,-3.9292,160.3838],[13.0219,-3.925,160.0625],[13.0175,-3.9172,155.5094],[13.0125,-3.9031,260.0652],[12.9983,-3.9008,145.2158],[12.9906,-3.8969,159.2575],[12.9875,-3.8814,167.084],[12.9842,-3.8728,156.9489],[12.9769,-3.8692,167.8187],[12.9689,-3.8689,218.1097],[12.9614,-3.8708,241.5434],[12.9531,-3.87,156.1187],[12.9447,-3.8633,189.762],[12.9192,-3.8339,195.935],[12.9119,-3.8322,118.2716],[12.9047,-3.8339,125.6386],[12.8978,-3.8381,177.3602],[12.8942,-3.8364,190.1031],[12.8914,-3.8253,208.0304],[12.8928,-3.8131,146.9388],[12.8917,-3.8003,162.6807],[12.8956,-3.7833,106.0801],[12.8936,-3.7786,124.071],[12.8819,-3.7761,175.3091],[12.8792,-3.7722,181.2418],[12.8761,-3.7617,131.9352],[12.8858,-3.7508,190.4652],[12.8869,-3.7322,108.576],[12.8744,-3.7319,205.9523],[12.8711,-3.7286,131.4527],[12.8692,-3.7167,144.4567],[12.8714,-3.705,116.9898],[12.8697,-3.7003,105.2697],[12.8656,-3.6975,111.6978],[12.8625,-3.6731,132.7574],[12.855,-3.6669,155.7117],[12.84,-3.6611,119.4851],[12.8364,-3.6578,120.8012],[12.8367,-3.6453,115.9673],[12.8336,-3.6417,113.1815],[12.8239,-3.6375,106.4261],[12.8136,-3.6269,236.1107],[12.8119,-3.6153,122.3521],[12.8144,-3.5981,119.7341],[12.8025,-3.5983,126.5171],[12.7978,-3.5964,321.7768],[12.7958,-3.5917,239.9471],[12.7986,-3.5875,136.3841],[12.8078,-3.5828,84.3344],[12.8083,-3.5781,118.7356],[12.805,-3.5744,123.2408],[12.7947,-3.5708,106.3266],[12.775,-3.5561,196.1333],[12.7694,-3.5561,223.7032],[12.7556,-3.5628,217.1196],[12.7233,-3.5639,106.8283],[12.7178,-3.5628,93.5592],[12.7139,-3.5528,188.2393],[12.7139,-3.5472,123.5018],[12.7158,-3.5425,99.2665],[12.7203,-3.54,101.1024],[12.7269,-3.54,81.8817],[12.7306,-3.5367,94.8284],[12.7258,-3.5275,124.6473],[12.7156,-3.5239,272.2592],[12.6956,-3.5244,277.4747],[12.6872,-3.5364,88.9093],[12.6808,-3.5372,141.5232],[12.6614,-3.5367,110.9737],[12.6569,-3.5347,98.9384],[12.6546,-3.5282,118.5491],[12.6339,-3.5447,146.9422],[12.6239,-3.5589,137.0744],[12.6197,-3.5672,114.3767],[12.6164,-3.5817,108.5404],[12.6172,-3.6047,113.2396],[12.6303,-3.6628,129.0351],[12.6406,-3.6772,132.815],[12.6436,-3.6847,125.7689],[12.6417,-3.6919,124.4142],[12.6272,-3.7003,135.2329],[12.6261,-3.7081,134.3799],[12.6306,-3.7158,133.618],[12.6319,-3.7311,135.5243],[12.635,-3.7392,139.0886],[12.6475,-3.7539,143.8649],[12.6511,-3.7614,140.6058],[12.6436,-3.7683,153.8508],[12.6292,-3.7714,157.2346],[12.6219,-3.7761,160.6482],[12.6119,-3.7914,182.1765],[12.6036,-3.7978,205.3435],[12.5958,-3.8003,248.1624],[12.5947,-3.8075,337.7852],[12.5978,-3.8144,356.3195],[12.6356,-3.8361,230.3266],[12.6589,-3.8525,220.5107],[12.6667,-3.86,204.4716],[12.6889,-3.8894,221.9297],[12.6989,-3.9053,266.3732],[12.7142,-3.9369,187.5327],[12.7239,-3.9519,193.933],[12.7775,-4.0136,305.9359],[12.785,-4.0206,336.1241],[12.8303,-4.0531,371.6511],[12.8586,-4.0831,370.411],[12.8642,-4.0908,356.3882],[12.8839,-4.1308,246.7652],[12.9014,-4.1542,240.1912],[12.9456,-4.2256,301.6169],[12.9583,-4.2506,314.0119],[12.9764,-4.3028,360.9317],[12.9886,-4.325,363.424],[12.9942,-4.3325,384.589],[13.0022,-4.335,354.9797],[13.025,-4.3367,378.5108],[13.0328,-4.3394,374.8182],[13.04,-4.3467,410.3053],[13.0458,-4.3681,363.1476],[13.0494,-4.3753,395.2875],[13.0567,-4.3781,428.7411],[13.0644,-4.3786,426.2784],[13.0806,-4.3753,350.5375],[13.0967,-4.3817,337.3541],[13.1197,-4.375,267.5641],[13.1269,-4.3772,279.8134],[13.1333,-4.3844,284.9297],[13.1411,-4.3883,286.0681],[13.17,-4.3844,196.9663],[13.1852,-4.394,226.4238],[13.1755,-4.3467,158.7079],[13.1764,-4.297,206.6808],[13.1703,-4.2782,210.1666],[13.1629,-4.2621,220.8813],[13.1558,-4.2493,198.0038],[13.1387,-4.2279,203.0608],[13.1345,-4.1699,165.7847],[13.1362,-4.1368,136.6248],[13.1506,-4.1176,140.766],[13.1643,-4.103,149.3095],[13.2409,-4.0582,300.0526],[13.2945,-4.0306,194.5681],[13.3195,-4.0147,212.8812],[13.3327,-4.0004,238.6575],[13.3441,-3.9843,245.0057],[13.3521,-3.9672,215.1206]]]]}}