{"type":"Feature","properties":{"ISO3166-1-Alpha-3":"COG","country":"Republic of the Congo","fill":"#FF0","id":"2838","name":"Likouala"},
"geometry":{"type": "Polygon","coordinates": [[[17.62728,3.62632,510.9867],[17.58676,3.63223,556.6234],[17.55048,3.64815,505.387],[17.51348,3.67918,545.0808],[17.50894,3.68177,549.4388],[17.49498,3.68321,526.5778],[17.49013,3.68714,503.2617],[17.4862,3.70029,511.8649],[17.48186,3.70476,531.6971],[17.45891,3.70828,550.1494],[17.44269,3.70127,555.8333],[17.42749,3.69011,530.3977],[17.41449,3.68341,561.4089],[17.37571,3.66345,571.4301],[17.35577,3.63844,526.2209],[17.33437,3.61851,563.3499],[17.2981,3.6159,552.635],[17.27226,3.62456,574.0651],[17.25944,3.6259,557.3825],[17.24497,3.62061,551.6472],[17.23112,3.60911,548.4449],[17.22296,3.59852,549.1774],[17.21397,3.58929,565.2556],[17.19722,3.58172,598.7577],[17.18286,3.5796,578.9923],[17.14276,3.58084,590.8492],[17.12901,3.57707,559.146],[17.10214,3.56661,575.5037],[17.08839,3.56443,579.1702],[17.06142,3.56614,570.8297],[17.05243,3.56397,584.0363],[17.03579,3.55614,547.5173],[17.02886,3.55154,556.8932],[17.0176,3.5418,560.8294],[17.00922,3.53813,571.5895],[17.00313,3.53772,588.47],[16.98969,3.53947,577.9169],[16.98194,3.53798,583.1356],[16.96861,3.53348,565.8206],[16.96055,3.53844,547.8411],[16.95321,3.54689,574.214],[16.94225,3.55309,558.9423],[16.93243,3.55392,569.1386],[16.90474,3.55064,580.3635],[16.89554,3.55237,572.7651],[16.87724,3.55916,603.4706],[16.86784,3.56154,610.9629],[16.85316,3.56009,602.6989],[16.85182,3.5519,583.2869],[16.85461,3.54134,591.9708],[16.85265,3.53281,606.1776],[16.83301,3.52286,603.8279],[16.81192,3.52167,599.7426],[16.72955,3.54221,620.8218],[16.7094,3.54371,611.8007],[16.68635,3.54221,639.4204],[16.63943,3.5286,630.6449],[16.5985,3.50167,646.877],[16.5677,3.46439,635.4821],[16.55168,3.41977,607.2307],[16.54279,3.33615,617.2944],[16.51778,3.27324,619.3766],[16.51716,3.24869,602.7897],[16.51148,3.22725,572.8031],[16.47706,3.17939,592.9968],[16.46549,3.1565,561.3898],[16.46476,3.1318,542.9177],[16.47272,3.11061,570.1667],[16.48316,3.09015,568.1484],[16.49081,3.06782,576.8297],[16.48419,3.03191,533.758],[16.44554,2.95765,529.7206],[16.44833,2.91347,489.5097],[16.46052,2.8946,551.1402],[16.47499,2.87838,551.1094],[16.48378,2.86039,482.5632],[16.47913,2.83631,489.1378],[16.4506,2.77559,514.8167],[16.42749,2.72649,512.2299],[16.4412,2.71994,503.4859],[16.46797,2.70754,536.6776],[16.48068,2.68986,526.9425],[16.48729,2.6755,497.2272],[16.48905,2.66568,504.1107],[16.48698,2.65731,527.1311],[16.48316,2.64883,538.1789],[16.48192,2.63777,545.9996],[16.48502,2.62036,475.7463],[16.4906,2.61157,479.0602],[16.49649,2.6063,475.9745],[16.50083,2.60429,440.8428],[16.50755,2.59984,462.9314],[16.51572,2.59281,477.5688],[16.55199,2.55251,516.7206],[16.55685,2.54341,514.9808],[16.55912,2.53473,499.4558],[16.55974,2.50806,487.6974],[16.56264,2.50259,497.4334],[16.5646,2.50011,493.4216],[16.5676,2.49923,486.6042],[16.57256,2.49918,451.3329],[16.57938,2.50031,479.7065],[16.60326,2.5093,502.7728],[16.61111,2.51147,512.5865],[16.61959,2.5122,514.241],[16.65442,2.49907,517.8685],[16.6724,2.48962,523.0601],[16.67932,2.48254,530.371],[16.68521,2.47494,535.1216],[16.7341,2.38797,492.086],[16.73906,2.37381,498.5712],[16.74092,2.36234,494.6833],[16.73978,2.33826,448.018],[16.74289,2.30663,453.0475],[16.73441,2.24219,455.9665],[16.7373,2.1946,451.7933],[16.74754,2.1638,409.7713],[16.75735,2.14886,421.3478],[16.76108,2.12917,429.9373],[16.75994,2.12194,432.2389],[16.75715,2.11558,453.1857],[16.75146,2.1114,421.9997],[16.73782,2.10509,437.4072],[16.73172,2.09982,421.439],[16.7278,2.093,436.4504],[16.72532,2.08499,446.0288],[16.72283,2.06871,421.5581],[16.7219,2.05259,393.7794],[16.72935,1.99078,406.7397],[16.73575,1.96774,398.7815],[16.73854,1.92619,404.8353],[16.73596,1.9064,390.537],[16.73575,1.89771,406.2776],[16.73689,1.88898,414.0065],[16.74971,1.83865,379.3951],[16.75735,1.81911,415.695],[16.75797,1.80568,411.2381],[16.75622,1.79648,401.3681],[16.71787,1.69054,380.8516],[16.70816,1.67328,384.2766],[16.70599,1.66191,376.9863],[16.70878,1.65199,395.5985],[16.71911,1.62698,408.4632],[16.73131,1.5429,411.0578],[16.73162,1.53365,422.4509],[16.72955,1.5259,403.7655],[16.72532,1.51846,421.3602],[16.70785,1.49805,370.8581],[16.70392,1.49216,382.1043],[16.70051,1.48441,377.2225],[16.69855,1.47443,400.2312],[16.70237,1.46668,394.6037],[16.71632,1.45428,397.6636],[16.71849,1.44725,401.525],[16.71818,1.43826,378.6802],[16.71622,1.42803,365.8843],[16.71508,1.41263,374.3287],[16.71746,1.39919,391.7625],[16.73885,1.33883,338.6744],[16.74619,1.32318,363.0709],[16.75157,1.31589,356.1107],[16.7587,1.30891,362.2086],[16.76614,1.30018,340.1717],[16.7741,1.28767,336.7818],[16.79601,1.20044,364.2684],[16.79849,1.18163,347.64],[16.79673,1.16763,337.274],[16.79146,1.15977,337.9218],[16.78671,1.1483,359.1299],[16.78288,1.13378,347.1573],[16.78278,1.08148,334.1948],[16.78154,1.07389,333.8608],[16.77823,1.06645,334.8282],[16.77348,1.05932,350.8739],[16.76697,1.05327,349.9832],[16.7525,1.04459,347.6443],[16.72873,1.03317,370.1502],[16.72087,1.02805,364.6347],[16.71322,1.02128,341.516],[16.70103,1.00717,346.6828],[16.69607,0.99953,340.861],[16.69307,0.98681,373.3235],[16.694,0.88661,360.1897],[16.69927,0.85886,334.4514],[16.7064,0.84269,334.9858],[16.715699999999998,0.82615,335.1505],[17.04953,0.39408,336.5254],[17.09139,0.3746,330.8499],[17.10648,0.35941,325.5151],[17.17686,0.25745,329.9014],[17.20301,0.21038,329.2103],[17.20425,0.20655,329.2436],[17.20301,0.19844,329.8625],[17.20022,0.18795,329.0228],[17.19268,0.18345,328.8324],[17.18503,0.18547,325.406],[17.1779,0.18521,323.6643],[17.17221,0.17363,326.4882],[17.17345,0.16454,327.485],[17.184,0.1417,325.699],[17.18854,0.11772,325.0593],[17.19175,0.10831,325.6069],[17.19144,0.09953,323.4754],[17.18317,0.08868,323.1113],[17.17232,0.08206,321.9944],[17.16095,0.0772,322.3652],[17.15123,0.07038,327.863],[17.14555,0.05757,322.2179],[17.14731,0.03907,323.6833],[17.16239,-0.00796,326.3402],[17.16601,-0.0277,326.5188],[17.16818,-0.09498,324.4579],[17.17221,-0.11369,321.9423],[17.18524,-0.15069,322.1764],[17.1873,-0.17281,324.3685],[17.17593,-0.18262,327.4186],[17.16022,-0.1881,314.5031],[17.1533,-0.20247,319.1849],[17.15206,-0.27967,303.3382],[17.15516,-0.28505,306.8058],[17.17035,-0.28877,343.2415],[17.17066,-0.29735,312.2596],[17.1349,-0.3392,297.5],[17.14234,-0.34727,335.8136],[17.16229,-0.35243,305.4117],[17.17976,-0.3669,327.4203],[17.14658,-0.41393,323.2551],[17.13924,-0.4407,320.3369],[17.15175,-0.46374,317.4051],[17.16312,-0.44307,324.9104],[17.18193,-0.44524,323.8515],[17.20198,-0.45909,317.6725],[17.21728,-0.47336,318.9271],[17.22492,-0.49227,314.0581],[17.221,-0.51408,318.3674],[17.20146,-0.55955,312.1195],[17.20064,-0.56596,318.8465],[17.21376,-0.60844,317.5018],[17.21521,-0.62074,317.505],[17.20405,-0.64027,319.7352],[17.20332,-0.65154,321.1589],[17.20797,-0.68802,297.4919],[17.21231,-0.69112,314.399],[17.21893,-0.69081,295.6221],[17.22751,-0.69587,296.5023],[17.23402,-0.70177,295.5384],[17.23805,-0.70425,294.054],[17.24043,-0.70952,297.2811],[17.24167,-0.72884,296.6985],[17.25221,-0.73918,299.2675],[17.26244,-0.743,295.9648],[17.28053,-0.7461,297.8372],[17.53136,-0.75044,293.5],[17.5417,-0.75406,293.5],[17.54542,-0.75623,293.5],[17.54586,-0.75649,294.1729],[17.60216,-0.68869,294.0],[17.62304,-0.67329,294.0],[17.63585,-0.65851,294.0],[17.64764,-0.64993,294.0],[17.65094,-0.64632,294.0],[17.65249,-0.64218,294.0],[17.65446,-0.62751,294.0],[17.65869,-0.61975,294.0],[17.66417,-0.61273,294.0],[17.72804,-0.55309,299.1112],[17.742,-0.53335,298.7434],[17.74954,-0.52343,294.0],[17.74076,-0.34618,313.3246],[17.71626,-0.24624,318.9101],[17.71368,-0.22092,316.0167],[17.71637,-0.1958,319.8631],[17.75709,-0.00946,319.3056],[17.77538,0.02641,314.2895],[17.85403,0.24107,319.137],[17.93992,0.36127,311.9626],[17.9455,0.37729,329.7055],[17.95201,0.47434,303.2235],[17.94994,0.4915,297.5],[17.94364,0.51082,297.5],[17.9331,0.52705,315.8378],[17.91842,0.53521,301.4389],[17.8993,0.58327,328.5498],[17.8932,0.60766,331.8456],[17.89258,0.63588,321.1648],[17.90757,0.71308,325.7643],[17.90767,0.74047,332.2035],[17.87791,0.86791,327.7277],[17.87822,0.94718,334.542],[17.86664,1.01663,301.5],[17.87325,1.03963,333.0172],[17.89248,1.0774,332.0906],[17.9148,1.102,335.9645],[17.95625,1.17166,332.3256],[17.96338,1.19145,340.4716],[17.967,1.25372,338.1352],[18.00203,1.36578,310.9518],[18.00668,1.4024,309.0],[18.01226,1.42196,309.0],[18.07138,1.55146,310.5],[18.07366,1.57233,311.9255],[18.06611,1.85898,313.1891],[18.06818,1.87622,313.0],[18.07831,1.90929,313.5],[18.08151,1.92655,316.0368],[18.08172,1.94241,313.5],[18.07603,1.98848,314.0],[18.08079,2.08416,314.0],[18.07831,2.11481,314.0],[18.07242,2.14519,334.5004],[18.07242,2.16002,329.603],[18.11117,2.26529,328.9519],[18.11861,2.27697,324.6576],[18.1427,2.3057,314.0],[18.14673,2.31593,314.0],[18.16378,2.32105,314.0],[18.17401,2.33614,319.5031],[18.18796,2.37092,314.0],[18.19913,2.38911,314.0],[18.20781,2.40797,314.5],[18.21411,2.42766,314.5],[18.22517,2.48646,332.0605],[18.23303,2.50259,341.0128],[18.24615,2.51892,340.1678],[18.30351,2.57256,315.7076],[18.31374,2.57597,317.978],[18.31674,2.58434,316.2759],[18.39322,2.71369,325.5467],[18.41834,2.78174,332.2352],[18.42185,2.80882,344.4991],[18.42516,2.82215,345.9848],[18.44924,2.873,343.7939],[18.46733,2.89889,348.3505],[18.47177,2.90923,348.5981],[18.4758,2.93119,349.0568],[18.47963,2.94137,345.1768],[18.49534,2.96607,340.8497],[18.52841,3.06478,327.5104],[18.54143,3.08281,329.5161],[18.5621,3.09681,323.5],[18.59735,3.11464,323.5],[18.61305,3.12818,323.5],[18.61967,3.14477,329.3164],[18.62184,3.15666,325.5561],[18.63114,3.17898,323.5],[18.64241,3.32383,324.0],[18.63455,3.44922,324.5],[18.62639,3.47687,324.5],[18.58246,3.47739,358.3207],[18.57027,3.48961,381.053],[18.55435,3.52638,375.9954],[18.51342,3.59224,386.5991],[18.49709,3.61146,389.1586],[18.47208,3.63205,391.7731],[18.45906,3.63138,410.0651],[18.448,3.61802,357.9608],[18.42971,3.60022,396.9601],[18.42061,3.59637,390.9647],[18.40366,3.59735,384.1304],[18.39229,3.59585,373.6276],[18.38785,3.59167,387.7071],[18.38371,3.578,380.859],[18.37989,3.57438,374.4956],[18.37286,3.57454,368.2612],[18.3616,3.58017,393.8612],[18.3556,3.58146,392.5694],[18.27592,3.57438,405.0786],[18.26486,3.57474,402.1012],[18.25587,3.57722,404.8443],[18.24853,3.5749,397.4951],[18.24253,3.56113,394.1464],[18.2354,3.53092,403.6641],[18.23158,3.52116,408.0339],[18.22,3.50395,401.9186],[18.20254,3.48733,405.733],[18.18156,3.47739,403.9988],[18.15985,3.48031,406.8897],[18.14673,3.4949,402.2394],[18.13401,3.53482,414.7195],[18.11644,3.55201,417.7046],[18.08203,3.56345,419.2666],[18.04709,3.56314,419.9017],[18.01309,3.55397,430.8839],[17.98188,3.5388,443.0317],[17.96948,3.53751,434.925],[17.95986,3.54108,444.4776],[17.92452,3.56345,461.2167],[17.91925,3.5656,470.8081],[17.91356,3.56133,504.7725],[17.87532,3.54273,496.8545],[17.85641,3.5373,519.3331],[17.84215,3.54015,528.1627],[17.83532,3.55583,530.4045],[17.83057,3.57567,556.0416],[17.82116,3.59399,535.6219],[17.80835,3.60859,506.5161],[17.79316,3.61751,522.4047],[17.78447,3.61823,527.1111],[17.76515,3.61435,508.5085],[17.75595,3.61451,483.967],[17.74964,3.61807,504.2482],[17.73993,3.62916,540.6993],[17.73321,3.63221,532.4945],[17.72608,3.63185,512.1917],[17.7145,3.62751,483.5452],[17.70913,3.62642,517.4963],[17.62728,3.62632,510.9867]]]}}