{"type": "Feature","bbox": [16.4528,-0.7593,18.65,3.7031],"geometry": {"type": "MultiPolygon","coordinates": [[[[18.0675,1.8805,313.0],[18.0749,1.9019,313.0],[18.0775,1.9213,313.5],[18.0807,1.9314,319.6099],[18.0915,1.9515,313.5],[18.0925,1.9621,317.3244],[18.0864,1.9837,314.0],[18.0842,2.0048,314.0],[18.0672,2.0213,314.0],[18.0653,2.027,314.0],[18.0716,2.0388,324.6884],[18.0708,2.0514,323.3198],[18.0751,2.0607,315.4047],[18.0787,2.0639,314.0],[18.0888,2.0896,338.3099],[18.0908,2.1273,321.5749],[18.0912,2.2023,326.3842],[18.095,2.238,318.2719],[18.099,2.251,325.9479],[18.106,2.2666,314.0],[18.1165,2.2757,322.7803],[18.1235,2.2794,333.2847],[18.1442,2.2991,331.9431],[18.1538,2.3045,322.0023],[18.168,2.325,314.0],[18.185,2.345,314.0],[18.19,2.359,314.0],[18.19,2.37,314.0],[18.193,2.376,314.0],[18.203,2.384,314.0],[18.212,2.399,314.0],[18.214,2.417,314.5],[18.227,2.44,314.5],[18.229,2.452,314.5],[18.2281,2.4639,332.7329],[18.237,2.495,338.5096],[18.242,2.507,342.6948],[18.268,2.538,315.375],[18.2769,2.5445,315.5],[18.2952,2.5525,316.1401],[18.3124,2.5736,319.2826],[18.33,2.5845,347.1729],[18.3388,2.5989,316.25],[18.343,2.622,316.5],[18.384,2.699,319.5],[18.394,2.71,346.8264],[18.401,2.733,319.625],[18.4113,2.7398,320.0],[18.421,2.752,320.0],[18.433,2.7779,320.0],[18.4383,2.8047,320.5],[18.4455,2.8224,321.0],[18.4458,2.8367,321.0],[18.4393,2.8555,321.0],[18.4389,2.8766,321.5],[18.453,2.927,324.8838],[18.463,2.942,322.0],[18.468,2.958,322.0],[18.475,2.97,322.5],[18.497,2.991,325.1453],[18.5049,2.9962,336.6405],[18.5169,3.014,323.0],[18.5216,3.0253,323.5],[18.529,3.062,323.5],[18.533,3.07,338.0641],[18.5439,3.0796,323.5],[18.576,3.095,323.5],[18.5848,3.0976,323.5],[18.6014,3.1145,323.5],[18.6256,3.1589,323.5],[18.6417,3.2089,324.0],[18.6426,3.2207,324.0],[18.635,3.26,331.2838],[18.638,3.29,329.0212],[18.645,3.305,324.0],[18.65,3.331,346.6363],[18.649,3.344,334.4041],[18.645,3.359,328.712],[18.633,3.386,324.5],[18.632,3.397,324.5],[18.639,3.417,324.5],[18.64,3.427,324.5],[18.6399,3.4486,324.5],[18.6351,3.4711,324.5],[18.6037,3.4727,358.6556],[18.595,3.477,354.9328],[18.5901,3.4873,351.0282],[18.588,3.4988,343.8249],[18.5754,3.5307,356.1361],[18.5583,3.549,371.0184],[18.5513,3.5635,370.0013],[18.5442,3.5961,366.9134],[18.5356,3.6101,361.2338],[18.514,3.6247,394.1377],[18.4909,3.6517,405.6351],[18.4817,3.6532,404.072],[18.4753,3.6467,394.8053],[18.4679,3.6317,399.0507],[18.4613,3.6261,400.91],[18.4551,3.6236,385.4522],[18.4539,3.6077,403.7408],[18.4486,3.6012,391.4003],[18.4436,3.5986,392.2669],[18.4372,3.5997,391.528],[18.4259,3.6072,401.1319],[18.4197,3.609,388.3981],[18.414,3.6039,392.6882],[18.4134,3.5869,386.7535],[18.4105,3.5779,384.7913],[18.406,3.5779,387.8002],[18.3912,3.5888,370.0143],[18.3733,3.5963,397.5222],[18.3595,3.5992,399.4986],[18.3459,3.6076,379.8622],[18.3334,3.6036,385.7178],[18.3256,3.5968,392.6371],[18.3087,3.587,408.4294],[18.2872,3.5919,401.5233],[18.2745,3.5932,394.044],[18.2677,3.5916,397.6887],[18.2647,3.5881,399.517],[18.2597,3.5494,402.074],[18.2499,3.5141,406.724],[18.2429,3.5046,408.3983],[18.2416,3.5004,396.4844],[18.2315,3.4907,402.1807],[18.2247,3.4895,402.7896],[18.2149,3.485,399.2352],[18.189,3.4812,406.2638],[18.1805,3.4841,411.5051],[18.1761,3.4882,406.1515],[18.1698,3.5008,409.3124],[18.1663,3.5201,402.5644],[18.1634,3.5275,410.6593],[18.1525,3.5449,410.7159],[18.1447,3.5533,406.1744],[18.1334,3.5615,404.1962],[18.1235,3.5661,405.2006],[18.1052,3.5715,419.1664],[18.087,3.5715,414.947],[18.0707,3.5753,424.9053],[18.0584,3.5732,424.2093],[18.0488,3.5683,422.7162],[18.0151,3.5774,442.9612],[18.0,3.5789,413.2907],[17.9987,3.5539,438.7541],[17.9957,3.5512,449.1403],[17.985,3.5535,443.1408],[17.9694,3.5605,425.6972],[17.9576,3.5713,469.7112],[17.9493,3.5831,488.6608],[17.9439,3.5998,497.8432],[17.9377,3.6024,519.4014],[17.9327,3.599,511.1539],[17.9299,3.5898,507.5083],[17.9193,3.5735,497.6281],[17.9023,3.5593,532.369],[17.8904,3.557,528.1243],[17.8814,3.5499,526.7346],[17.8667,3.5332,522.6908],[17.8591,3.533,512.6708],[17.8537,3.5489,524.6488],[17.8455,3.5632,540.6464],[17.8446,3.5788,556.2545],[17.8403,3.5871,532.4731],[17.8401,3.6053,491.36],[17.8333,3.6233,547.4974],[17.829,3.6267,551.3214],[17.7958,3.6292,530.5165],[17.7896,3.6317,535.0654],[17.7873,3.6349,534.1937],[17.7589,3.6389,540.8468],[17.7452,3.6431,548.5441],[17.7445,3.6461,545.7114],[17.7383,3.6503,535.3696],[17.733,3.6512,530.5607],[17.7207,3.6453,522.4882],[17.705,3.6345,530.3355],[17.7009,3.6343,533.6307],[17.6947,3.6391,538.33989999999994],[17.6877,3.6415,542.3632],[17.6533,3.639,540.9246],[17.6063,3.6413,541.3788],[17.5976,3.6436,563.0444],[17.5926,3.6535,548.3381],[17.5876,3.6583,541.8262],[17.5782,3.6637,523.7845],[17.5576,3.6692,559.6217],[17.5494,3.681,560.9496],[17.5437,3.6859,547.2861],[17.5334,3.6891,539.9324],[17.5066,3.6919,555.1619],[17.4917,3.7021,520.1583],[17.4741,3.7031,522.347],[17.4619,3.6992,550.4373],[17.4511,3.6937,548.8214],[17.441,3.6804,551.5787],[17.4052,3.6694,573.5367],[17.3942,3.6617,586.0935],[17.388,3.6529,590.3597],[17.3659,3.6102,552.3674],[17.3627,3.607,551.2858],[17.3547,3.6045,538.5884],[17.3487,3.6049,542.8767],[17.3157,3.6193,542.5797],[17.3045,3.629,538.4604],[17.2988,3.6301,544.9991],[17.258,3.6146,572.9897],[17.2525,3.6107,569.3716],[17.2477,3.6054,563.8564],[17.2495,3.5886,556.7633],[17.2483,3.5833,569.463],[17.2393,3.5792,568.0411],[17.2235,3.5751,571.6649],[17.1992,3.5722,604.1358],[17.1768,3.5656,601.3889],[17.1722,3.5653,601.4988],[17.1635,3.5726,601.1243],[17.1571,3.5751,602.4594],[17.1472,3.5728,584.7483],[17.1321,3.5654,551.4844],[17.1133,3.5593,573.1472],[17.0982,3.5607,567.1921],[17.0794,3.5529,569.9362],[17.0581,3.5481,592.135],[17.0525,3.5304,568.2004],[17.039,3.515,590.9131],[17.0353,3.5134,600.6198],[17.0296,3.5137,604.2426],[17.0108,3.5291,585.6098],[17.0092,3.539,574.8124],[17.0044,3.5466,592.2236],[16.9978,3.5469,589.7687],[16.9817,3.5391,581.3781],[16.976,3.5405,579.6154],[16.9607,3.5582,567.3513],[16.9573,3.5599,577.347],[16.9461,3.558,575.0852],[16.9328,3.5521,556.7104],[16.9101,3.5501,580.8854],[16.8961,3.5519,573.2469],[16.889,3.5584,575.1845],[16.8785,3.5596,603.4706],[16.8737,3.5575,607.1416],[16.8698,3.5534,615.1254],[16.8695,3.549,611.0573],[16.8743,3.5363,621.048],[16.8734,3.5271,613.6761],[16.8607,3.5115,624.8358],[16.8518,3.5106,615.1782],[16.8335,3.5203,603.9525],[16.8207,3.5215,594.0704],[16.8026,3.5434,609.0035],[16.795,3.5462,618.2838],[16.7744,3.5497,608.066],[16.7635,3.555,621.8032],[16.7545,3.5571,618.7011],[16.7451,3.5562,617.1416],[16.7261,3.5491,624.744],[16.713,3.5479,619.3212],[16.6878,3.5425,640.4572],[16.672,3.5418,636.4741],[16.6475,3.5292,628.5332],[16.6106,3.4973,647.0433],[16.5965,3.4773,654.4048],[16.5933,3.4667,652.546],[16.5829,3.4161,637.4636],[16.5771,3.3427,634.1448],[16.5729,3.3296,643.5196],[16.5594,3.314,636.6079],[16.5546,3.3057,634.6584],[16.5502,3.2827,613.1262],[16.5565,3.2663,602.8949],[16.5584,3.2534,596.697],[16.5542,3.2449,580.935],[16.5469,3.2369,594.5909],[16.5388,3.2245,577.5224],[16.5324,3.2058,602.7941],[16.509,3.1711,582.9598],[16.5058,3.1599,593.736],[16.5071,3.1477,592.4464],[16.511,3.1359,599.4564],[16.5123,3.1205,596.1975],[16.5219,3.0996,578.8203],[16.5388,3.0795,600.0701],[16.5443,3.0703,600.1823],[16.5445,3.0657,596.3676],[16.5315,3.0496,587.9279],[16.5032,3.0213,548.5907],[16.4934,3.0043,519.5945],[16.4896,2.9229,586.2741],[16.4902,2.9093,570.6945],[16.5017,2.8992,563.0037],[16.5138,2.8934,564.8611],[16.5209,2.8879,565.4072],[16.5248,2.8805,548.6957],[16.5201,2.8423,483.146],[16.4758,2.7598,560.8434],[16.4744,2.7543,545.6607],[16.4632,2.7326,495.7372],[16.4528,2.716,547.4196],[16.4644,2.7131,520.8831],[16.4719,2.7083,521.1765],[16.4911,2.6717,482.8482],[16.4925,2.6639,507.9224],[16.4883,2.6567,525.9391],[16.4811,2.6519,543.6254],[16.4789,2.6439,542.8034],[16.4786,2.6294,514.6531],[16.4836,2.6131,501.9884],[16.4911,2.6081,485.5403],[16.52,2.5956,444.1131],[16.5261,2.5881,491.5025],[16.5319,2.5736,508.5947],[16.5369,2.5664,521.4327],[16.5533,2.5578,488.5542],[16.5578,2.5506,500.1274],[16.5597,2.5344,496.9217],[16.5569,2.5128,475.1772],[16.5583,2.5044,501.9],[16.5656,2.4989,493.4216],[16.5736,2.4986,455.6957],[16.5964,2.5056,500.8416],[16.6178,2.5161,503.6905],[16.6256,2.5136,521.6506],[16.6325,2.5067,502.3494],[16.67,2.495,522.4125],[16.6775,2.4894,521.387],[16.6978,2.4531,516.4971],[16.7119,2.4228,470.4421],[16.7406,2.3858,479.4599],[16.7431,2.3786,488.7077],[16.7392,2.3394,461.0282],[16.7439,2.3056,453.0475],[16.7344,2.25,477.2703],[16.7344,2.2275,437.3016],[16.7378,2.1819,435.8035],[16.7386,2.1747,409.7037],[16.7453,2.1603,406.7338],[16.7603,2.1522,419.3133],[16.7639,2.145,417.6982],[16.7608,2.1364,437.2362],[16.7614,2.1217,430.9758],[16.7597,2.1139,450.7225],[16.7375,2.1064,428.3885],[16.7303,2.1008,412.778],[16.7236,2.0772,426.3898],[16.7217,2.0519,396.7808],[16.7289,1.9914,406.7397],[16.7369,1.9675,390.5522],[16.7375,1.96,388.1555],[16.7347,1.9378,392.5766],[16.7417,1.9222,386.2411],[16.7344,1.9069,392.6341],[16.735,1.8978,406.2776],[16.7483,1.8344,382.6859],[16.7617,1.8208,409.4787],[16.7636,1.8128,406.8817],[16.7494,1.7808,382.0271],[16.7444,1.7644,371.665],[16.7328,1.7364,386.517],[16.7231,1.7058,374.2579],[16.7197,1.6903,374.3691],[16.7064,1.6753,377.0047],[16.7031,1.6681,387.3007],[16.7031,1.66,378.713],[16.7125,1.6444,399.2875],[16.7214,1.6358,388.43],[16.7233,1.6286,396.0409],[16.7183,1.6214,420.5502],[16.7167,1.6139,405.7044],[16.7186,1.5989,389.9803],[16.7261,1.5733,369.4326],[16.7331,1.5336,419.8614],[16.7311,1.5258,391.683],[16.7264,1.5183,420.8061],[16.7131,1.5044,372.6141],[16.6997,1.4864,372.4868],[16.6947,1.4719,399.1906],[16.7003,1.4647,402.4456],[16.7147,1.4619,403.18],[16.7211,1.4547,399.7195],[16.7189,1.44,379.3291],[16.7119,1.4183,366.9595],[16.7153,1.4006,392.0168],[16.7269,1.385,396.4703],[16.7303,1.3778,394.1622],[16.7297,1.3708,379.6332],[16.7331,1.355,351.3487],[16.7453,1.3231,363.0709],[16.7508,1.3153,359.6278],[16.7583,1.3086,359.7202],[16.7731,1.3003,337.8887],[16.7778,1.2931,337.0084],[16.7764,1.2783,351.6805],[16.7786,1.2622,358.6582],[16.7897,1.2233,343.8427],[16.7964,1.2081,365.5045],[16.8025,1.1839,364.6257],[16.8025,1.1756,336.096],[16.7806,1.1442,335.343],[16.7739,1.1294,333.98],[16.7814,1.1053,332.83],[16.7836,1.0897,334.4774],[16.7825,1.0739,332.8152],[16.7797,1.0667,334.8282],[16.7747,1.0586,346.2669],[16.7672,1.0522,349.9832],[16.7211,1.0292,360.9689],[16.7056,1.0136,344.1363],[16.6919,0.9917,347.2696],[16.6906,0.9842,370.5925],[16.6931,0.9689,376.699],[16.6931,0.9467,346.7402],[16.6903,0.8914,362.2548],[16.6933,0.875,334.5334],[16.7061,0.8428,334.9858],[16.7153,0.8261,335.1505],[16.7283,0.8097,332.7646],[16.7325,0.7994,331.1597],[16.7614,0.7647,331.3314],[16.9006,0.5797,326.1859],[16.9417,0.5272,327.0671],[16.9731,0.4906,329.6104],[17.0228,0.4244,333.6163],[17.0497,0.3942,336.5254],[17.0753,0.3872,334.9096],[17.0908,0.38,333.4408],[17.1033,0.3669,328.603],[17.1133,0.3442,324.6892],[17.1244,0.3286,326.1301],[17.1453,0.3042,328.5926],[17.1825,0.2497,330.0531],[17.2019,0.2178,326.5432],[17.2097,0.2006,328.1922],[17.21,0.1944,324.8412],[17.2081,0.1897,328.2499],[17.2044,0.1861,328.4579],[17.1936,0.1833,327.7068],[17.18,0.1836,322.0838],[17.1744,0.1822,326.2621],[17.1717,0.1786,325.7174],[17.1717,0.1717,326.5993],[17.1836,0.1425,327.7966],[17.1847,0.1247,328.8824],[17.1931,0.1056,325.482],[17.1919,0.0939,324.7058],[17.1844,0.0878,323.4941],[17.15,0.0678,328.0023],[17.1439,0.0603,322.908],[17.1425,0.055,326.3477],[17.1428,0.0486,324.4884],[17.1572,0.0286,330.6297],[17.1619,0.0128,329.3847],[17.1594,-0.0194,328.8203],[17.1647,-0.0275,326.5188],[17.1661,-0.0331,325.64],[17.1636,-0.0789,337.032],[17.1703,-0.1064,324.1639],[17.1836,-0.1339,335.7342],[17.1864,-0.1517,323.2084],[17.1853,-0.1647,329.6617],[17.1819,-0.175,332.1513],[17.1761,-0.1831,327.8363],[17.1556,-0.1967,319.6777],[17.1514,-0.2061,312.3443],[17.1533,-0.2244,325.5808],[17.1508,-0.2622,321.6638],[17.1533,-0.2869,315.08],[17.1569,-0.2903,324.9659],[17.1678,-0.2933,328.5536],[17.1717,-0.2961,316.1859],[17.1744,-0.3003,312.9715],[17.1736,-0.3064,337.2368],[17.1586,-0.3183,343.3378],[17.135,-0.3292,322.5752],[17.1289,-0.3367,323.5873],[17.1314,-0.3478,316.4421],[17.1342,-0.3517,322.3379],[17.1439,-0.3561,305.7467],[17.1631,-0.3547,304.3444],[17.1719,-0.3597,333.4466],[17.1758,-0.3692,343.6648],[17.1731,-0.3803,318.3754],[17.1686,-0.39,324.2344],[17.1417,-0.4244,317.5032],[17.1389,-0.4353,323.325],[17.1394,-0.4469,319.3063],[17.1403,-0.4533,321.5389],[17.1447,-0.4619,317.568],[17.1508,-0.4631,317.4051],[17.1628,-0.4472,323.8922],[17.1725,-0.4433,295.5],[17.1786,-0.4442,317.4425],[17.1875,-0.4489,313.6852],[17.1961,-0.4608,319.3774],[17.2092,-0.4683,323.6191],[17.2175,-0.4808,311.1397],[17.2219,-0.5033,295.5],[17.2231,-0.5225,318.7361],[17.2214,-0.5281,323.5214],[17.2092,-0.5361,321.3295],[17.2064,-0.5403,321.3342],[17.205,-0.5456,321.9539],[17.2072,-0.5506,321.8748],[17.1981,-0.5553,318.3303],[17.1953,-0.5594,317.1626],[17.1944,-0.5656,314.58],[17.1953,-0.5717,315.8239],[17.2011,-0.5792,316.2175],[17.2072,-0.5936,317.5287],[17.2125,-0.6086,317.5018],[17.2147,-0.6206,317.505],[17.2033,-0.6575,320.7915],[17.205,-0.6758,314.7437],[17.2033,-0.6936,300.8458],[17.2047,-0.6992,297.2936],[17.2089,-0.7019,305.5547],[17.2314,-0.6967,295.1136],[17.2406,-0.7014,296.2334],[17.2431,-0.7058,297.3362],[17.2439,-0.7119,297.3227],[17.2394,-0.7281,297.0216],[17.2414,-0.7467,308.9359],[17.2606,-0.745,294.615],[17.4864,-0.7514,295.4188],[17.5336,-0.7503,293.5],[17.5511,-0.7569,296.9052],[17.5536,-0.7593,293.5],[17.5745,-0.732,300.9709],[17.6096,-0.6935,294.0],[17.638,-0.6563,294.0],[17.6549,-0.6251,294.0],[17.6836,-0.5953,302.3061],[17.7001,-0.5676,294.0],[17.7097,-0.5406,294.0],[17.7187,-0.5031,294.0],[17.7282,-0.4422,307.067],[17.7404,-0.3977,301.0364],[17.7418,-0.381,300.7991],[17.7386,-0.3265,302.0544],[17.7346,-0.3073,299.6634],[17.722,-0.2753,317.4295],[17.7153,-0.2328,320.16],[17.714,-0.2169,316.8276],[17.716,-0.199,318.0326],[17.712,-0.157,320.5345],[17.714,-0.128,309.2703],[17.725,-0.095,295.0],[17.747,-0.054,295.0],[17.771,0.0,310.5328],[17.758,0.018,295.0],[17.764,0.041,295.0],[17.7683,0.0798,295.5],[17.7752,0.1076,295.5],[17.787,0.143,320.2931],[17.8,0.173,295.5],[17.813,0.196,296.0],[17.821,0.216,296.0],[17.843,0.244,297.5654],[17.845,0.249,296.0],[17.855,0.26,298.0497],[17.8946,0.2884,296.5],[17.923,0.316,313.2633],[17.926,0.3225,296.5],[17.9421,0.3424,317.3128],[17.954,0.3653,296.5],[17.96,0.389,297.0],[17.9603,0.3995,297.0],[17.9626,0.4085,297.0],[17.9599,0.4662,297.0],[17.9551,0.4899,297.5],[17.9443,0.5121,297.5],[17.905,0.549,298.0],[17.886,0.572,298.0],[17.876,0.594,298.0],[17.873,0.612,298.5],[17.874,0.66,298.5],[17.88,0.675,313.6216],[17.8807,0.685,303.6093],[17.885,0.6915,303.5751],[17.891,0.707,299.0],[17.885,0.739,327.5016],[17.8953,0.7751,326.5172],[17.887,0.8031,330.7996],[17.8862,0.8268,323.0494],[17.8832,0.8382,314.1443],[17.8795,0.8457,300.0],[17.8612,0.8711,300.0],[17.845,0.919,307.987],[17.8451,0.9363,327.1008],[17.8522,0.9775,301.0],[17.8532,0.9974,301.5],[17.8501,1.0124,301.5],[17.8536,1.023,322.5674],[17.8595,1.0299,312.9236],[17.8611,1.0446,304.7295],[17.864,1.052,326.3751],[17.8831,1.0841,303.0],[17.9152,1.1149,304.0],[17.9286,1.1351,304.5],[17.9418,1.1645,305.0],[17.945,1.1875,305.5],[17.9549,1.2316,312.6873],[17.9549,1.2512,324.9554],[17.9578,1.2665,331.5077],[17.9706,1.309,335.4761],[17.976,1.338,310.1141],[17.9868,1.3603,308.5],[18.0,1.393,309.0],[18.0076,1.4064,309.0],[18.013,1.429,313.0495],[18.019,1.444,312.959],[18.0381,1.477,317.3072],[18.0596,1.5032,310.0],[18.0664,1.514,324.9366],[18.068,1.5214,310.0],[18.0665,1.5398,310.25],[18.0716,1.5578,310.5],[18.072,1.59,310.5],[18.0794,1.6174,311.5125],[18.076,1.6335,311.0],[18.0784,1.6542,311.0],[18.0872,1.6651,311.5],[18.088,1.678,311.5],[18.0833,1.7039,311.5],[18.0659,1.7629,313.3848],[18.0644,1.7836,312.0],[18.0583,1.8038,312.5],[18.06,1.8491,325.8595],[18.0677,1.8582,317.4409],[18.0675,1.8805,313.0]]]]}
,"properties": {"GID_1": "COG.7_1","GID_0": "COG","country": "RepublicoftheCongo","province": "Likouala","VARNAME_1": "NA","NL_NAME_1": "NA","TYPE_1": "Région","ENGTYPE_1": "Region","CC_1": "NA","HASC_1": "CG.LI","ISO_1": "NA","name": "Likouala.province","area_km2": 67018.87,"hist_schema_id": "Elevation0-9000","hist_area_km2": {"300": 4098.63,"325": 20725.85,"350": 14721.59,"375": 7706.02,"400": 4704.14,"425": 3434.32,"450": 2979.49,"475": 2532.04,"500": 2170.82,"525": 1696.18,"550": 1104.74,"575": 677.71,"600": 340.26,"625": 109.91,"650": 17.16}}}