{"type": "Feature","bbox": [11.6185,-4.3763,12.2214,-3.6804],"geometry": {"type": "MultiPolygon","coordinates": [[[[11.7077,-3.6804,294.7383],[11.6959,-3.7271,310.5655],[11.6804,-3.7552,374.2425],[11.6655,-3.7914,620.366],[11.6268,-3.8518,133.4612],[11.6185,-3.8751,90.4099],[11.6222,-3.8948,75.0206],[11.6466,-3.9297,59.9529],[11.6686,-3.9476,142.1394],[11.7135,-3.9758,136.0836],[11.7764,-4.0119,93.6401],[11.8078,-4.0261,23.6214],[11.8423,-4.037,148.427],[11.8759,-4.0782,59.3261],[11.896,-4.1065,18.8687],[11.9026,-4.1297,24.5935],[11.8946,-4.1604,5.4067],[11.8819,-4.1887,8.5783],[11.8622,-4.2163,33.3998],[11.8288,-4.2584,3.1455],[11.799,-4.2847,23.9674],[11.7401,-4.3314,27.4204],[11.7079,-4.3484,43.7654],[11.6954,-4.3657,46.7977],[11.7195,-4.373,14.6794],[11.7554,-4.3763,23.4933],[11.7903,-4.3717,7.202],[11.8437,-4.3602,7.178],[11.898,-4.3402,6.5779],[11.9488,-4.3518,9.8073],[12.0122,-4.3526,78.5664],[12.0572,-4.3448,131.9616],[12.0748,-4.3391,95.4193],[12.1043,-4.3377,125.5872],[12.1514,-4.3237,123.8425],[12.1825,-4.3184,212.3647],[12.1994,-4.3065,179.7223],[12.2141,-4.2778,309.6425],[12.2047,-4.2273,423.139],[12.2112,-4.1763,415.0968],[12.2214,-4.1492,542.0181],[12.2024,-4.0937,279.8359],[12.1746,-4.0234,177.0968],[12.1569,-4.0018,237.2603],[12.1491,-3.9576,187.4359],[12.1525,-3.929,174.1798],[12.1574,-3.9117,148.4224],[12.1711,-3.894,143.1447],[12.1689,-3.8917,132.076],[12.1614,-3.8892,154.6834],[12.1447,-3.8861,171.5219],[12.1219,-3.8856,214.0928],[12.0989,-3.8828,188.0156],[12.0756,-3.87,267.4678],[12.0533,-3.8631,216.6177],[12.0378,-3.8525,231.8059],[12.015,-3.8325,221.7626],[11.9833,-3.8144,241.4452],[11.9594,-3.7983,232.439],[11.9447,-3.7847,199.2593],[11.9242,-3.7606,200.365],[11.9172,-3.7556,212.8561],[11.9083,-3.7511,212.9559],[11.8925,-3.7508,256.9326],[11.885,-3.7528,247.6812],[11.8694,-3.7506,245.5591],[11.83,-3.7293,227.3399],[11.7928,-3.712,238.2329],[11.7866,-3.7077,265.0606],[11.7135,-3.6843,389.955],[11.7077,-3.6804,294.7383]]]]}
,"properties": {"GID_2": "COG.5.1_1","GID_0": "COG","country": "RepublicoftheCongo","GID_1": "COG.5_1","province": "Kouilou","NL_NAME_1": "NA","county": "Kakamoeka","VARNAME_2": "NA","NL_NAME_2": "NA","TYPE_2": "District","ENGTYPE_2": "District","CC_2": "NA","HASC_2": "CG.KO.KA","name": "Kakamoeka.county","area_km2": 2903.869,"hist_schema_id": "Elevation0-9000","hist_area_km2": {"0": 143.328,"25": 237.462,"50": 141.883,"75": 154.586,"100": 157.238,"125": 166.695,"150": 203.671,"175": 229.985,"200": 253.597,"225": 257.353,"250": 217.869,"275": 167.144,"300": 144.934,"325": 120.968,"350": 98.842,"375": 68.7,"400": 49.176,"425": 30.944,"450": 20.325,"475": 13.515,"500": 8.333,"525": 6.175,"550": 4.631,"575": 2.813,"600": 1.438,"625": 1.163,"650": 0.529,"675": 0.338,"700": 0.169,"725": 0.063}}}