{"type": "Feature","bbox": [12.4441,-2.6765,13.0467,-1.8583],"geometry": {"type": "MultiPolygon","coordinates": [[[[12.749,-1.8725,771.5502],[12.7333,-1.8648,778.8112],[12.7221,-1.8644,762.3511],[12.6855,-1.8744,767.8836],[12.6837,-1.8767,750.369],[12.6501,-1.882,769.2473],[12.6261,-1.8791,801.2057],[12.6144,-1.8754,766.2675],[12.5908,-1.8644,806.5205],[12.5718,-1.8583,778.1442],[12.5618,-1.8592,811.1268],[12.5563,-1.8661,785.9531],[12.5504,-1.885,804.7158],[12.5436,-1.8965,788.9135],[12.5351,-1.9009,854.2416],[12.5207,-1.9014,842.7039],[12.485,-1.8885,830.41],[12.4715,-1.8743,839.7276],[12.4621,-1.87,870.1207],[12.4454,-1.87,895.7277],[12.4441,-1.8746,857.3901],[12.4673,-1.9435,822.8065],[12.471,-1.9707,841.0428],[12.4706,-1.9918,715.9278],[12.4752,-2.019,697.3628],[12.4824,-2.0385,704.325],[12.4941,-2.0594,696.9801],[12.52,-2.0867,752.4879],[12.5237,-2.0952,685.3959],[12.5221,-2.1159,684.1274],[12.5108,-2.1587,665.8763],[12.5126,-2.1649,712.2686],[12.5273,-2.1861,672.8443],[12.5322,-2.2139,655.9272],[12.5287,-2.222,681.8776],[12.5048,-2.254,665.525],[12.497,-2.268,689.0783],[12.498,-2.2795,690.1525],[12.5267,-2.3188,677.7902],[12.5292,-2.3264,615.5533],[12.5208,-2.3466,604.2889],[12.5062,-2.3681,614.0532],[12.5016,-2.3798,671.0229],[12.5061,-2.4131,622.7027],[12.5033,-2.4213,599.248],[12.5162,-2.456,667.157],[12.5151,-2.4903,668.3115],[12.5105,-2.5028,611.4272],[12.5185,-2.5228,663.5734],[12.5168,-2.5607,634.5433],[12.5682,-2.5657,675.8583],[12.6419,-2.6003,677.1078],[12.6729,-2.6005,593.2565],[12.7146,-2.6493,581.1404],[12.7266,-2.6657,568.4606],[12.7615,-2.6765,580.1107],[12.7982,-2.6705,572.8535],[12.8397,-2.6735,548.0734],[12.8871,-2.662,546.9481],[12.9344,-2.6478,574.559],[12.9798,-2.6362,582.5805],[13.0274,-2.5905,608.4925],[13.0386,-2.5702,569.9417],[13.0416,-2.5328,511.7491],[13.0467,-2.4973,541.1727],[13.0391,-2.4719,611.7908],[13.0365,-2.444,666.5645],[13.0365,-2.411,708.0139],[13.0315,-2.3856,747.0002],[13.0298,-2.3216,697.6981],[13.0269,-2.3143,712.7093],[13.0348,-2.2669,717.4544],[13.0338,-2.2517,698.54],[13.0255,-2.2298,668.3192],[13.0072,-2.2023,670.5917],[12.9987,-2.1952,662.3032],[12.9666,-2.181,669.1462],[12.9306,-2.1551,672.9813],[12.9132,-2.1372,660.236],[12.9033,-2.122,653.5992],[12.8852,-2.0995,672.7266],[12.882,-2.0805,698.2186],[12.8757,-2.0584,692.3451],[12.8738,-2.0354,703.1293],[12.8694,-2.0136,743.8172],[12.8641,-1.9979,744.0343],[12.8568,-1.9832,730.7394],[12.8416,-1.9396,723.994],[12.829,-1.926,738.4289],[12.749,-1.8725,771.5502]]]]}
,"properties": {"GID_2": "COG.8.5_1","GID_0": "COG","country": "RepublicoftheCongo","GID_1": "COG.8_1","province": "Niari","NL_NAME_1": "NA","county": "Mayoko","VARNAME_2": "NA","NL_NAME_2": "NA","TYPE_2": "District","ENGTYPE_2": "District","CC_2": "NA","HASC_2": "CG.NI.MY","name": "Mayoko.county","area_km2": 4291.681,"hist_schema_id": "Elevation0-9000","hist_area_km2": {"500": 0.233,"525": 9.256,"550": 137.186,"575": 406.975,"600": 295.402,"625": 292.857,"650": 632.854,"675": 773.899,"700": 540.859,"725": 379.846,"750": 339.497,"775": 226.189,"800": 113.723,"825": 65.921,"850": 41.511,"875": 24.39,"900": 10.32,"925": 0.763}}}