{"type":"Feature","properties":{"GID_2":"COG.4.1_1","GID_0":"COG","country":"RepublicoftheCongo","GID_1":"COG.4_1","province":"Cuvette","NL_NAME_1":"NA","county":"Boundji","VARNAME_2":"NA","NL_NAME_2":"NA","TYPE_2":"District","ENGTYPE_2":"District","CC_2":"NA","HASC_2":"CG.CU.BO","name":"Boundji.county"},
"geometry":{"type": "MultiPolygon","coordinates": [[[[15.0474,-1.0472,396.054],[15.0581,-1.0803,444.5458],[15.0687,-1.0899,462.3056],[15.087,-1.0985,461.8308],[15.1012,-1.1009,439.1545],[15.1225,-1.1095,429.9075],[15.1686,-1.1504,369.8709],[15.2024,-1.1999,354.598],[15.2069,-1.1956,359.719],[15.2175,-1.1647,337.9952],[15.2233,-1.1564,341.2094],[15.2419,-1.1408,343.416],[15.2572,-1.1289,353.6127],[15.2828,-1.1203,351.0801],[15.2994,-1.1094,348.4886],[15.3236,-1.0994,353.6922],[15.3383,-1.0661,345.5014],[15.3425,-1.0633,346.2319],[15.3486,-1.0631,344.6844],[15.365,-1.0672,351.4126],[15.3747,-1.0633,348.0307],[15.3811,-1.0569,343.1633],[15.3867,-1.0492,352.0969],[15.4039,-1.0322,359.6393],[15.4069,-1.0211,363.9092],[15.4044,-0.9978,338.7892],[15.4086,-0.9883,331.461],[15.4164,-0.9822,341.6574],[15.4314,-0.9769,344.5476],[15.45,-0.975,345.0272],[15.4561,-0.9761,336.992],[15.4728,-0.9719,338.8028],[15.4808,-0.9667,342.6021],[15.4908,-0.9556,346.933],[15.4956,-0.9553,350.2944],[15.5078,-0.9633,343.9781],[15.5139,-0.9644,343.5444],[15.5436,-0.9614,329.1921],[15.5483,-0.9592,331.6715],[15.5589,-0.9442,337.9008],[15.5631,-0.9414,332.8209],[15.5733,-0.9383,333.5146],[15.5869,-0.9386,339.7651],[15.5925,-0.9372,339.1009],[15.6033,-0.94,336.0634],[15.6136,-0.9367,337.2971],[15.6253,-0.9444,336.6869],[15.6375,-0.9461,336.4468],[15.6501,-0.9505,336.6138],[15.6247,-0.8633,338.2741],[15.6201,-0.8374,337.7287],[15.6021,-0.7993,334.432],[15.5935,-0.787,336.9129],[15.5386,-0.7663,359.3826],[15.5195,-0.7557,366.7589],[15.4818,-0.7382,367.2639],[15.4587,-0.7331,384.0211],[15.4385,-0.7196,363.1681],[15.4098,-0.6952,355.1253],[15.3784,-0.6487,343.8793],[15.4155,-0.5345,344.7559],[15.4432,-0.4629,339.0791],[15.4521,-0.4452,346.8072],[15.451,-0.4311,333.3059],[15.442,-0.4101,361.2963],[15.1418,-0.4404,358.9328],[15.1429,-0.448,352.6053],[15.1542,-0.4696,345.574],[15.1434,-0.508,381.7846],[15.1348,-0.5195,398.7138],[15.1225,-0.5522,369.9028],[15.1121,-0.5722,371.7366],[15.0944,-0.5936,385.8138],[15.0714,-0.6152,404.592],[15.0591,-0.6232,409.6149],[15.008,-0.6859,423.9475],[15.0404,-0.7215,427.1608],[15.0703,-0.7482,423.6413],[15.1245,-0.7846,405.7731],[15.1518,-0.8099,387.8615],[15.1734,-0.8362,378.0383],[15.1854,-0.8576,380.4178],[15.1723,-0.8705,377.5914],[15.1446,-0.9379,387.2397],[15.1371,-0.9495,379.1461],[15.088,-0.992,418.3572],[15.0542,-1.0296,420.0211],[15.0474,-1.0472,396.054]]]]}}