{"type": "Feature","bbox": [15.0879,-1.2586,16.5127,-0.0634],"geometry": {"type": "MultiPolygon","coordinates": [[[[15.1418,-0.4404,358.9328],[15.442,-0.4101,361.2963],[15.451,-0.4311,333.3059],[15.4521,-0.4452,346.8072],[15.4432,-0.4629,339.0791],[15.4155,-0.5345,344.7559],[15.3784,-0.6487,343.8793],[15.4098,-0.6952,355.1253],[15.4385,-0.7196,363.1681],[15.4587,-0.7331,384.0211],[15.4818,-0.7382,367.2639],[15.5195,-0.7557,366.7589],[15.5386,-0.7663,359.3826],[15.5935,-0.787,336.9129],[15.6021,-0.7993,334.432],[15.6201,-0.8374,337.7287],[15.6247,-0.8633,338.2741],[15.6501,-0.9505,336.6138],[15.6711,-0.9542,329.4016],[15.7164,-0.9572,337.4984],[15.7211,-0.9594,339.2902],[15.7217,-0.9725,320.6113],[15.7275,-0.98,332.2681],[15.7283,-0.985,330.6061],[15.7211,-0.9986,331.019],[15.7219,-1.0047,315.4842],[15.7278,-1.0122,317.2037],[15.7292,-1.0178,318.3876],[15.7272,-1.0294,319.2231],[15.7297,-1.0336,331.7163],[15.7386,-1.0386,326.4455],[15.7442,-1.0467,316.6877],[15.7467,-1.0578,320.4511],[15.7494,-1.0622,321.9525],[15.7542,-1.0628,321.105],[15.7636,-1.0586,321.3012],[15.77,-1.0581,318.6705],[15.7878,-1.0611,315.8633],[15.81,-1.0731,331.2097],[15.8272,-1.0767,313.415],[15.8314,-1.0794,312.6882],[15.8367,-1.0878,314.3362],[15.8386,-1.0994,331.5431],[15.8456,-1.1064,316.4966],[15.8647,-1.1053,323.34],[15.8694,-1.1072,323.0269],[15.8753,-1.115,323.4084],[15.8794,-1.1178,324.6631],[15.8856,-1.1186,324.1472],[15.8981,-1.1172,321.2332],[15.9028,-1.1194,320.2658],[15.9069,-1.1222,318.6664],[15.9131,-1.13,319.0721],[15.925,-1.1586,317.5533],[15.9306,-1.1603,318.4477],[15.9369,-1.1458,308.7914],[15.9417,-1.1439,307.0],[15.9458,-1.1467,320.6441],[15.9497,-1.1633,317.4524],[15.9472,-1.1817,322.4378],[15.9528,-1.19,308.8828],[15.9631,-1.1936,319.8597],[15.9678,-1.1931,306.2595],[15.9756,-1.1867,318.6288],[15.9808,-1.1856,322.9951],[15.9975,-1.1969,319.6536],[16.0192,-1.1917,310.9639],[16.0308,-1.1922,313.2991],[16.0378,-1.1994,319.5358],[16.0425,-1.2014,311.3022],[16.0542,-1.2022,323.3546],[16.0631,-1.2139,320.5575],[16.0669,-1.2153,317.4246],[16.0706,-1.2122,318.8163],[16.0808,-1.2114,321.7906],[16.0808,-1.2239,313.5353],[16.0833,-1.2278,314.9095],[16.0886,-1.2292,314.4934],[16.1033,-1.2233,310.251],[16.1094,-1.2242,307.7884],[16.1189,-1.2353,310.3609],[16.1272,-1.2408,318.8921],[16.1478,-1.2481,321.0891],[16.1527,-1.2586,316.2364],[16.1959,-1.2236,304.9633],[16.2124,-1.205,309.7928],[16.2317,-1.1933,304.8661],[16.2541,-1.1677,309.4344],[16.2711,-1.1453,308.2152],[16.291,-1.1257,304.6501],[16.3085,-1.1008,306.6201],[16.3024,-1.0855,309.9122],[16.2837,-1.07,319.9633],[16.2668,-1.0607,307.2537],[16.2551,-1.0421,316.1956],[16.2419,-1.0285,312.335],[16.2574,-0.9805,305.5554],[16.5127,-0.6344,305.7745],[16.207,-0.0634,328.6873],[16.193,-0.0637,329.2371],[16.1731,-0.0668,330.8437],[16.1427,-0.0805,335.5521],[16.1102,-0.1267,336.155],[16.1032,-0.163,333.6562],[16.1015,-0.1811,333.5491],[16.0903,-0.207,336.9379],[16.066,-0.2346,332.4663],[16.0146,-0.2312,330.825],[15.9888,-0.2191,332.8228],[15.9601,-0.2204,334.5228],[15.9162,-0.241,377.4973],[15.803,-0.271,344.3805],[15.7654,-0.2522,335.0957],[15.7202,-0.2515,349.2874],[15.6495,-0.2375,366.1869],[15.6251,-0.2369,373.9108],[15.5917,-0.2135,379.537],[15.5612,-0.2039,389.4686],[15.5399,-0.1913,373.1393],[15.5272,-0.1781,380.9213],[15.4945,-0.178,356.6118],[15.4475,-0.2201,368.3253],[15.4339,-0.2345,373.3271],[15.4129,-0.248,380.0979],[15.3821,-0.2348,391.2096],[15.3363,-0.2341,410.2594],[15.2969,-0.228,404.1787],[15.2814,-0.2221,402.9228],[15.1914,-0.2257,425.9852],[15.1471,-0.2293,409.9105],[15.1126,-0.2408,433.2303],[15.0879,-0.2544,429.6506],[15.0971,-0.2726,432.9025],[15.1052,-0.2989,415.5901],[15.1086,-0.3242,403.7263],[15.1259,-0.3563,383.0842],[15.132,-0.3811,388.0838],[15.1418,-0.4404,358.9328]]]]}
,"properties": {"GID_2": "COG.4.6_1","GID_0": "COG","country": "RepublicoftheCongo","GID_1": "COG.4_1","province": "Cuvette","NL_NAME_1": "NA","county": "Owando","VARNAME_2": "NA","NL_NAME_2": "NA","TYPE_2": "District","ENGTYPE_2": "District","CC_2": "NA","HASC_2": "CG.CU.OW","name": "Owando.county","area_km2": 10706.959,"hist_schema_id": "Elevation0-9000","hist_area_km2": {"300": 1024.093,"325": 6430.851,"350": 1996.091,"375": 817.852,"400": 360.728,"425": 75.033,"450": 2.29}}}