{"type": "Feature","bbox": [14.3493,-4.9232,14.967,-4.2914],"geometry": {"type": "MultiPolygon","coordinates": [[[[14.967,-4.6312,344.8139],[14.9393,-4.6172,379.0658],[14.9107,-4.5995,385.1549],[14.8934,-4.5775,385.2271],[14.877,-4.522,429.031],[14.8394,-4.4599,468.8719],[14.8184,-4.452,413.2608],[14.7855,-4.4367,398.0247],[14.7599,-4.4315,440.6939],[14.7335,-4.4332,455.7943],[14.7097,-4.4259,405.2803],[14.6911,-4.4153,407.4276],[14.6714,-4.395,423.0773],[14.6595,-4.379,461.9282],[14.6609,-4.3521,470.8702],[14.6531,-4.337,444.4791],[14.6423,-4.3251,459.8348],[14.6305,-4.2914,467.4499],[14.6255,-4.3055,455.6732],[14.599,-4.3335,450.9868],[14.559,-4.3552,452.8654],[14.5248,-4.377,475.0986],[14.5084,-4.3817,466.711],[14.4904,-4.391,509.1785],[14.4743,-4.3934,502.082],[14.4365,-4.4097,446.1681],[14.4581,-4.4277,451.8716],[14.4805,-4.4363,434.1093],[14.4696,-4.446,435.482],[14.4661,-4.4511,435.6358],[14.46,-4.47,459.7292],[14.4474,-4.481,442.3122],[14.4426,-4.4829,448.2028],[14.4385,-4.4923,452.717],[14.433,-4.4933,442.7119],[14.4353,-4.4988,457.3045],[14.4319,-4.5202,454.0177],[14.4284,-4.5158,443.7703],[14.4259,-4.516,446.0329],[14.4238,-4.514,445.2195],[14.4213,-4.5142,444.7882],[14.414,-4.5195,446.0964],[14.4119,-4.5138,465.7619],[14.406,-4.5169,449.9937],[14.4014,-4.5149,445.1115],[14.3817,-4.5249,485.3836],[14.3589,-4.5436,558.8853],[14.3582,-4.5466,575.0252],[14.3507,-4.5561,568.0593],[14.3493,-4.5641,582.0531],[14.3524,-4.5749,560.8513],[14.3572,-4.583,556.519],[14.3816,-4.596,540.0786],[14.378,-4.6155,547.6449],[14.3811,-4.6326,585.8749],[14.3861,-4.6378,568.0621],[14.3804,-4.6496,592.4849],[14.3813,-4.6628,478.4011],[14.3869,-4.6702,556.9277],[14.406,-4.688,582.2709],[14.4083,-4.6931,576.0173],[14.411,-4.7209,606.9457],[14.4097,-4.724,631.1802],[14.4078,-4.7661,412.2711],[14.409,-4.7705,392.6821],[14.4159,-4.7785,365.0857],[14.4166,-4.7831,360.892],[14.4057,-4.7956,349.0498],[14.4011,-4.8064,361.3202],[14.404,-4.8301,355.7418],[14.403,-4.8609,346.4589],[14.4092,-4.8745,308.8996],[14.4126,-4.8943,172.0],[14.4162,-4.8975,172.0],[14.4291,-4.8944,184.1753],[14.43,-4.8964,263.3742],[14.4355,-4.8858,239.4925],[14.4458,-4.8798,195.5844],[14.45,-4.8807,238.1268],[14.4605,-4.8736,281.547],[14.471,-4.863,218.9093],[14.4776,-4.853,254.2912],[14.4828,-4.8498,220.1117],[14.4899,-4.8482,210.6128],[14.497,-4.8507,181.0],[14.5085,-4.858,181.5],[14.5283,-4.8625,183.0],[14.5427,-4.8622,183.5],[14.5576,-4.8654,184.75],[14.5763,-4.8834,186.5],[14.5867,-4.8997,187.5],[14.592,-4.9034,188.0],[14.612,-4.9075,189.0],[14.6286,-4.9166,198.5011],[14.6462,-4.9232,191.5],[14.6879,-4.9176,329.1242],[14.6937,-4.9144,272.5959],[14.7252,-4.8865,196.5],[14.7394,-4.8758,198.0],[14.7616,-4.8651,325.5083],[14.7718,-4.8582,376.5453],[14.8007,-4.8429,338.2194],[14.8129,-4.843,307.8531],[14.826599999999999,-4.8363,333.4695],[14.8438,-4.8245,348.0085],[14.8497,-4.8178,328.5109],[14.8552,-4.8088,361.8224],[14.8562,-4.8034,367.2489],[14.8706,-4.7838,278.4568],[14.8756,-4.7558,322.9388],[14.8821,-4.7426,313.4763],[14.8965,-4.7209,295.7203],[14.9036,-4.6988,384.3466],[14.9131,-4.6811,348.5369],[14.9251,-4.6686,378.5022],[14.967,-4.6312,344.8139]]]]}
,"properties": {"GID_2": "COG.11.1_1","GID_0": "COG","country": "RepublicoftheCongo","GID_1": "COG.11_1","province": "Pool","NL_NAME_1": "NA","county": "Boko","VARNAME_2": "NA","NL_NAME_2": "NA","TYPE_2": "District","ENGTYPE_2": "District","CC_2": "NA","HASC_2": "CG.PO.BO","name": "Boko.county","area_km2": 2838.629,"hist_schema_id": "Elevation0-9000","hist_area_km2": {"175": 19.224,"200": 30.336,"225": 25.397,"250": 14.113,"275": 23.261,"300": 30.698,"325": 65.391,"350": 69.069,"375": 79.531,"400": 136.09,"425": 249.115,"450": 356.453,"475": 330.524,"500": 320.93,"525": 346.873,"550": 326.746,"575": 252.1,"600": 121.949,"625": 31.022,"650": 8.665,"675": 1.141}}}