{"type": "Feature","id": "3343","bbox": [11.11402,-5.01963,12.78266,-3.50929],"geometry": {"type": "Polygon","coordinates": [[[11.68764,-3.69874,297.1829],[11.66593,-3.6914,313.1923],[11.64919,-3.67331,339.6796],[11.56982,-3.54495,446.4795],[11.53271,-3.51653,558.1677],[11.48259,-3.50929,708.152],[11.45499,-3.52821,648.4491],[11.43628,-3.55901,400.4352],[11.41396,-3.58764,374.0097],[11.37582,-3.60035,304.8025],[11.33469,-3.60862,277.9654],[11.30244,-3.62846,177.8282],[11.27268,-3.65295,226.5166],[11.23857,-3.67507,32.4241],[11.21252,-3.69729,59.8687],[11.19609,-3.72882,16.807],[11.12962,-3.90786,39.8847],[11.11402,-3.93686,0.0],[11.13909,-3.9531,0.0],[11.17242,-3.97747,0.0],[11.27018,-4.04173,14.0527],[11.35825,-4.11191,4.8002],[11.36215,-4.11981,21.1359],[11.36313,-4.13112,3.456],[11.36207,-4.15309,0.0],[11.36476,-4.16277,0.0],[11.3777,-4.18467,0.0],[11.3825,-4.19101,6.358],[11.4014,-4.22137,0.0],[11.45059,-4.26473,0.0],[11.49789,-4.29404,8.8775],[11.58912,-4.37469,0.0],[11.69298,-4.46349,0.0],[11.80641,-4.57712,0.0],[11.82462,-4.61477,0.0],[11.82016,-4.63728,25.4749],[11.80132,-4.65794,0.0],[11.77769,-4.6577,0.0],[11.77691,-4.66788,0.0],[11.78163,-4.68041,0.0],[11.82407,-4.71868,0.0],[11.84167,-4.74154,0.0],[11.89824,-4.74178,74.2949],[11.89762,-4.8554,12.5152],[11.88624,-4.85524,1.3008],[11.89573,-4.88264,0.0],[11.92026,-4.90643,3.4341],[11.95786,-4.95192,7.5859],[11.98048,-4.98943,0.0],[11.99431,-5.00579,7.4034],[12.00961,-5.01963,5.2183],[12.01807,-5.0086,2.6649],[12.13081,-4.91293,79.8861],[12.15717,-4.87055,77.2499],[12.18756,-4.76803,93.8515],[12.19221,-4.76348,76.8394],[12.20409,-4.76348,79.8127],[12.2135,-4.76917,65.8712],[12.22259,-4.78064,88.4577],[12.2352,-4.804,106.8386],[12.24409,-4.79635,90.8943],[12.25856,-4.79077,83.9662],[12.27375,-4.78715,121.0979],[12.30765,-4.78363,98.6153],[12.32191,-4.77816,110.4368],[12.33235,-4.76586,124.2554],[12.37411,-4.68318,111.425],[12.37886,-4.6623,119.9884],[12.37762,-4.61941,140.0359],[12.38703,-4.60545,131.5763],[12.4141,-4.60886,193.7958],[12.42909,-4.60752,204.322],[12.4972,-4.5853,251.8085],[12.6081,-4.56504,213.0892],[12.62381,-4.55926,196.9657],[12.63487,-4.54768,194.5446],[12.65657,-4.50737,280.3623],[12.67052,-4.49135,277.8462],[12.68685,-4.47833,417.144],[12.70494,-4.46799,497.0467],[12.71848,-4.45187,567.205],[12.72654,-4.428,613.8932],[12.73791,-4.40495,719.0374],[12.76168,-4.3912,639.7648],[12.77543,-4.39616,621.9587],[12.78266,-4.40007,662.2465],[12.77899,-4.38888,577.9388],[12.75129,-4.3618,587.095],[12.73217,-4.34661,745.4272],[12.72143,-4.3403,652.3879],[12.70644,-4.33379,715.1],[12.69631,-4.33079,662.6148],[12.68742,-4.32976,607.6091],[12.62334,-4.33286,628.6552],[12.6159,-4.33224,574.1111],[12.60815,-4.33079,437.9424],[12.59978,-4.32666,423.3492],[12.59079,-4.31953,457.2973],[12.55544,-4.2725,657.1707],[12.5481,-4.25648,747.8307],[12.54593,-4.24811,604.9022],[12.54531,-4.24015,580.7328],[12.54562,-4.23261,511.6773],[12.55451,-4.18507,307.2486],[12.5543,-4.17856,370.2495],[12.55213,-4.17111,321.4222],[12.54552,-4.16202,415.209],[12.5356,-4.14528,308.663],[12.45219,-4.04999,267.0664],[12.44341,-4.04223,253.4048],[12.43266,-4.03603,219.1283],[12.39855,-4.02838,308.9316],[12.39266,-4.02425,224.0132],[12.38956,-4.01774,190.4019],[12.38935,-4.01112,237.5796],[12.39059,-4.00513,250.5238],[12.3908,-4.00131,235.9546],[12.38997,-3.99893,282.0453],[12.38439,-3.99459,203.6332],[12.37354,-3.98901,207.7356],[12.35184,-3.98126,184.8293],[12.33861,-3.97846,197.2112],[12.31959,-3.9765,117.7962],[12.29551,-3.96854,149.8273],[12.26946,-3.964,157.0805],[12.23918,-3.95376,204.8058],[12.21841,-3.95004,43.5552],[12.21262,-3.94746,87.3263],[12.21035,-3.94239,88.2301],[12.20921,-3.9364,104.96],[12.20942,-3.9242,151.0341],[12.20787,-3.91986,249.5602],[12.20239,-3.91511,260.4308],[12.18637,-3.90777,139.7758],[12.1689,-3.89609,125.35],[12.13893,-3.88627,204.6734],[12.10606,-3.88369,184.7675],[12.09707,-3.88121,183.0827],[12.06193,-3.86653,246.5695],[11.92778,-3.76876,210.8711],[11.89874,-3.7546,248.4304],[11.87703,-3.7514,248.1405],[11.86783,-3.74623,232.9485],[11.86091,-3.74117,222.6254],[11.84081,-3.70999,217.9525],[11.83833,-3.71094,222.885],[11.81972,-3.71042,226.2506],[11.76215,-3.69399,240.6343],[11.7421,-3.69171,228.4631],[11.68764,-3.69874,297.1829]]]}
,"properties": {"ISO3166-1-Alpha-3": "COG","country": "Republic of the Congo","fill": "#FF0","name": "Kouilou","area_km2": 13642.18,"hist_schema_id": "Elevation0-9000","hist_area_km2": {"0": 1107.1,"25": 2037.47,"50": 1925.05,"75": 1462.91,"100": 897.33,"125": 626.81,"150": 537.89,"175": 555.31,"200": 623.8,"225": 627.66,"250": 537.97,"275": 431.47,"300": 373.97,"325": 326.56,"350": 280.67,"375": 230.15,"400": 193.81,"425": 157.66,"450": 126.19,"475": 101.87,"500": 85.42,"525": 71.48,"550": 58.2,"575": 50.56,"600": 45.21,"625": 41.11,"650": 34.41,"675": 31.4,"700": 23.13,"725": 16.33,"750": 11.61,"775": 7.17,"800": 3.38,"825": 1.04}}}