{"type":"Feature","properties":{"GID_1":"COG.5_1","GID_0":"COG","country":"RepublicoftheCongo","province":"Kouilou","VARNAME_1":"NA","NL_NAME_1":"NA","TYPE_1":"Région","ENGTYPE_1":"Region","CC_1":"NA","HASC_1":"CG.KO","ISO_1":"NA","name":"Kouilou.province"},
"geometry":{"type": "MultiPolygon","coordinates": [[[[12.1948,-4.812,45.9784],[12.2022,-4.7804,71.7167],[12.2102,-4.7677,68.59],[12.2132,-4.7696,55.2558],[12.244,-4.8086,131.5792],[12.2538,-4.8174,122.8863],[12.2908,-4.8157,168.0965],[12.3016,-4.8136,168.4511],[12.3238,-4.7947,146.1119],[12.3513,-4.7666,91.7186],[12.3586,-4.7571,98.1467],[12.4135,-4.6719,97.1788],[12.443,-4.6208,196.9606],[12.4543,-4.604,256.2325],[12.4624,-4.5961,201.6971],[12.505,-4.5891,271.9566],[12.5536,-4.5771,454.212],[12.5644,-4.5762,386.5898],[12.6161,-4.5643,235.2556],[12.621,-4.5579,200.4737],[12.6235,-4.5486,192.8371],[12.6292,-4.5382999999999996,199.1232],[12.6464,-4.5155,253.9276],[12.6583,-4.4918,273.733],[12.6628,-4.4874,268.9985],[12.686,-4.4832,523.56],[12.7034,-4.4836,375.7647],[12.7362,-4.4904,715.9822],[12.7555,-4.4881,504.9012],[12.7601,-4.486,506.2524],[12.7539,-4.4771,442.8499],[12.7458,-4.4715,438.2834],[12.7375,-4.4621,423.1503],[12.726,-4.4376,595.8704],[12.723,-4.427,561.3332],[12.7237,-4.4173,658.9793],[12.728,-4.3998,713.1592],[12.7344,-4.386,677.9808],[12.7513,-4.3726,657.2035],[12.7648,-4.3745,551.8866],[12.7422,-4.3531,603.1743],[12.7256,-4.3408,619.7247],[12.7019,-4.3311,580.689],[12.6878,-4.3294,598.1348],[12.6236,-4.3333,620.1127],[12.6081,-4.3314,480.6048],[12.5928,-4.3244,486.1328],[12.5858,-4.3172,558.7972],[12.5547,-4.2722,621.4667],[12.5475,-4.2569,747.8307],[12.545,-4.2475,590.4329],[12.5475,-4.2175,431.1711],[12.5561,-4.1797,400.415],[12.5564,-4.1722,331.8137],[12.5494,-4.1681,330.7091],[12.5431,-4.1611,373.3865],[12.5381,-4.1458,304.7579],[12.5231,-4.1325,300.6233],[12.5181,-4.1247,333.5444],[12.5036,-4.1108,279.5821],[12.4456,-4.0414,222.2104],[12.4367,-4.0339,190.062],[12.4289,-4.0311,232.2028],[12.4058,-4.0314,226.5481],[12.3983,-4.0297,330.0266],[12.3908,-4.0258,230.9544],[12.3875,-4.0178,213.4235],[12.3919,-4.0033,228.5059],[12.39,-3.9964,259.6448],[12.3825,-3.9908,318.1681],[12.3583,-3.9836,213.5457],[12.3511,-3.9789,176.529],[12.3439,-3.9767,175.7456],[12.3272,-3.9783,164.9316],[12.3197,-3.9775,117.7962],[12.2875,-3.9658,145.6877],[12.2719,-3.9661,216.9818],[12.2631,-3.9631,142.9221],[12.2481,-3.9511,146.9857],[12.2333,-3.9494,189.1011],[12.2178,-3.9517,45.8753],[12.2103,-3.9489,108.2239],[12.2114,-3.925,131.9309],[12.2103,-3.9181,263.8946],[12.2025,-3.9147,260.4308],[12.1953,-3.9144,207.5469],[12.1881,-3.9119,166.9344],[12.18,-3.9067,128.8675],[12.1756,-3.8989,146.474],[12.1689,-3.8917,132.076],[12.1447,-3.8861,171.5219],[12.1219,-3.8856,214.0928],[12.0989,-3.8828,188.0156],[12.0756,-3.87,267.4678],[12.0533,-3.8631,216.6177],[12.0378,-3.8525,231.8059],[12.015,-3.8325,221.7626],[11.9833,-3.8144,241.4452],[11.9594,-3.7983,232.439],[11.9447,-3.7847,199.2593],[11.9242,-3.7606,200.365],[11.9172,-3.7556,212.8561],[11.9083,-3.7511,212.9559],[11.8925,-3.7508,256.9326],[11.885,-3.7528,247.6812],[11.8694,-3.7506,245.5591],[11.83,-3.7293,227.3399],[11.7928,-3.712,238.2329],[11.7866,-3.7077,265.0606],[11.7135,-3.6843,389.955],[11.7028,-3.6772,405.4573],[11.6963,-3.6707,281.2534],[11.6809,-3.6468,304.6568],[11.6775,-3.6443,299.9705],[11.6692,-3.6323,300.2272],[11.6463,-3.5907,234.8697],[11.6316,-3.5702,240.2347],[11.6259,-3.5668,230.3141],[11.6213,-3.5606,228.4433],[11.6096,-3.5518,239.2532],[11.5855,-3.5387,218.0193],[11.5647,-3.5295,288.1687],[11.5374,-3.5139,386.0955],[11.5294,-3.5128,489.8003],[11.5198,-3.5185,695.8918],[11.5081,-3.5298,707.4724],[11.4868,-3.5567,620.1839],[11.4584,-3.5839,367.3124],[11.4422,-3.5897,331.6265],[11.4284,-3.5901,459.2417],[11.4078,-3.5872,359.1202],[11.3931,-3.5869,350.6125],[11.3615,-3.5952,249.9327],[11.3455,-3.6035,246.6681],[11.3343,-3.6139,232.8099],[11.3029,-3.6574,226.9423],[11.27,-3.6885,54.6677],[11.2562,-3.706,73.983],[11.2496,-3.7181,55.361],[11.245,-3.7423,169.0816],[11.2455,-3.7649,70.4614],[11.2515,-3.8118,29.6874],[11.2492,-3.8265,16.5498],[11.2279,-3.859,37.3947],[11.2242,-3.8788,44.1826],[11.2272,-3.8988,63.4672],[11.227,-3.9075,92.697],[11.2236,-3.9177,64.0269],[11.2135,-3.9322,72.5167],[11.2124,-3.9552,52.0556],[11.201,-3.991,7.3532],[11.2149,-4.0015,0.0],[11.2262,-4.0076,1.2536],[11.2315,-4.0146,0.0],[11.2507,-4.0268,2.5119],[11.2918,-4.0593,1.9447],[11.3004,-4.0679,2.9176],[11.3049,-4.0654,9.7474],[11.3051,-4.0671,5.4883],[11.3029,-4.0671,0.0],[11.3015,-4.0693,0.0],[11.3193,-4.0843,49.5362],[11.324,-4.0907,0.0],[11.3474,-4.1126,0.0],[11.3512,-4.1124,3.3083],[11.3512,-4.114,1.4356],[11.3482,-4.1137,0.0],[11.3485,-4.1149,0.0],[11.374,-4.1446,1.9018],[11.3763,-4.154,5.9745],[11.3735,-4.1599,1.8969],[11.3732,-4.1637,3.1879],[11.3757,-4.1674,1.7707],[11.3757,-4.1754,2.0583],[11.3732,-4.1793,0.8525],[11.3843,-4.1937,1.3694],[11.3888,-4.2063,6.7553],[11.396,-4.2137,0.0],[11.404,-4.2182,0.0],[11.4062,-4.2221,0.0],[11.4315,-4.241,5.3502],[11.4388,-4.2485,0.0],[11.4546,-4.2593,9.1247],[11.4563,-4.2621,0.0],[11.4918,-4.289,10.9697],[11.5035,-4.2999,0.0],[11.5126,-4.3057,13.1317],[11.5404,-4.3315,0.0],[11.5421,-4.3313,0.0],[11.5565,-4.3435,5.6271],[11.5629,-4.351,0.6858],[11.5693,-4.3549,1.8512],[11.5704,-4.3576,0.4896],[11.6143,-4.3965,0.0],[11.6504,-4.426,0.571],[11.686,-4.4515,1.8852],[11.6893,-4.4576,0.6888],[11.6954,-4.4632,0.0],[11.7068,-4.4693,7.9066],[11.711,-4.4735,0.0],[11.7165,-4.4735,0.0],[11.7171,-4.4751,0.6922],[11.7146,-4.4785,3.0678],[11.7093,-4.4776,0.0],[11.7507,-4.5118,1.4883],[11.8013,-4.5674,0.0],[11.8171,-4.5918,2.4643],[11.824,-4.6062,1.8996],[11.8263,-4.6121,0.0],[11.8254,-4.6257,2.3773],[11.8224,-4.6343,0.0],[11.8176,-4.6382,5.5128],[11.8112,-4.6512,2.3292],[11.8035,-4.6585,0.7569],[11.8004,-4.6604,3.181],[11.7904,-4.6582,2.1135],[11.7815,-4.6593,0.0],[11.781,-4.6668,0.0],[11.7846,-4.674,6.1633],[11.7857,-4.6821,0.0],[11.7988,-4.6985,0.0],[11.8246,-4.7185,0.0],[11.8385,-4.7318,0.4474],[11.849,-4.7467,0.0],[11.8693,-4.7474,10.9087],[11.9018,-4.7644,48.9715],[11.9114,-4.7962,22.035],[11.8989,-4.808,18.6545],[11.8627,-4.831,0.0],[11.8912,-4.8624,6.7926],[11.8954,-4.8718,0.0],[11.894,-4.8771,0.0],[11.8979,-4.8843,0.0],[11.919,-4.9082,0.0],[11.9221,-4.9076,0.7663],[11.929,-4.901,3.0262],[11.9276,-4.8949,2.8413],[11.9288,-4.894,0.5809],[11.9307,-4.8985,2.7258],[11.9293,-4.9049,4.6415],[11.9257,-4.9057,2.2571],[11.9207,-4.9101,0.0],[11.9671,-4.9665,1.0153],[12.0099,-5.0307,0.0],[12.1253,-4.9365,34.8092],[12.1631,-4.9079,100.5126],[12.1732,-4.898,72.2616],[12.1796,-4.8778,101.2784],[12.1948,-4.812,45.9784]]],
[[[11.6982,-4.4674,0.0],[11.6987,-4.4685,0.0],[11.7001,-4.4676,0.0],[11.6999,-4.4671,0.0],[11.6982,-4.4674,0.0]]],
[[[11.696,-4.4674,0.0],[11.6976,-4.4676,0.0],[11.6932,-4.4646,0.0],[11.6949,-4.4671,0.0],[11.696,-4.4674,0.0]]]]}}