{"type":"Feature","properties":{"featurecla":"River","scalerank":8,"rivernum":954,"dissolve":"954River","name":"Kouilou1","name_alt":null,"note":null,"min_zoom":7.0,"strokeweig":0.3,"name_en":"Kouilou","min_label":8.0},
"geometry":{"type": "LineString","coordinates": [[12.067138671875,-4.1084286437558859,173.3874],[12.052148437500023,-4.12859465938088,30.3225],[12.044091796875023,-4.14251067500588,155.9122],[12.040429687500023,-4.1531552062558887,108.9515],[12.035302734375023,-4.16399505000588,158.14],[12.023193359375,-4.17253997188088,84.5989],[11.99951171875,-4.1841122375058859,164.5746],[11.985595703125,-4.1782528625058859,55.5233],[11.962548828125023,-4.16545989375588,59.8904],[11.947900390625023,-4.16301848750588,31.7089],[11.933837890625,-4.1684872375058859,28.7769],[11.917724609375,-4.19231536250588,60.2401],[11.9013671875,-4.2000302062558887,4.2991],[11.87939453125,-4.21453215938088,87.446],[11.873291015625,-4.22356536250588,34.2737],[11.875732421875,-4.2268856750058887,23.7331],[11.880615234375,-4.22820403438088,14.4777],[11.8828125,-4.2319638000058859,13.682],[11.884667968750023,-4.23674895625588,9.7531],[11.888427734375,-4.24358489375588,15.1123],[11.888427734375,-4.2498348937558887,11.5079],[11.870751953125023,-4.2556942687558887,19.3357],[11.864892578125023,-4.2635067687558887,19.3291],[11.85546875,-4.2803036437558859,4.5008],[11.813720703125,-4.31707122188088,9.4009],[11.807031250000023,-4.32439544063088,9.214],[11.800683593750023,-4.34148528438088,12.5531],[11.7724609375,-4.35906340938088,14.0089],[11.759912109375023,-4.3847958312558859,13.216],[11.74560546875,-4.39177825313088,7.2018],[11.7294921875,-4.39690520625588,44.5792],[11.717675781250023,-4.4038388000058859,3.7029],[11.710839843750023,-4.4179989562558859,63.7777],[11.708251953125,-4.4321591125058859,18.0463],[11.70361328125,-4.44426848750588,26.0557],[11.691064453125023,-4.4516903625058859,6.8384]]}}