{"type": "Feature","bbox": [13.1309,1.218,14.4407,2.1877],"geometry": {"type": "MultiPolygon","coordinates": [[[[13.6801,2.1717,543.2028],[13.299,2.171,516.8276],[13.2981,2.1618,532.1624],[13.296,2.1595,523.0413],[13.2917,2.159,521.0277],[13.2912,2.1565,510.0796],[13.294,2.1542,520.1399],[13.299,2.1429,525.1691],[13.2972,2.1392,521.6646],[13.2919,2.139,507.1171],[13.2873,2.1333,503.6917],[13.2944,2.1289,511.8965],[13.2949,2.1257,514.9964],[13.2914,2.122,502.1313],[13.291,2.1183,497.7369],[13.2937,2.1082,513.3464],[13.2983,2.1082,507.7703],[13.2978,2.1008,506.7293],[13.2994,2.0981,501.4644],[13.296,2.0939,506.2069],[13.2974,2.0916,507.561],[13.2944,2.0886,505.1149],[13.2935,2.0841,497.0886],[13.2953,2.0751,502.5475],[13.2935,2.0682,501.0028],[13.2955,2.0647,509.5825],[13.2944,2.0613,501.7426],[13.29,2.0572,505.6424],[13.2898,2.0503,512.5434],[13.2868,2.0509,510.9362],[13.2832,2.0546,513.7927],[13.2813,2.0542,499.2406],[13.2811,2.051,506.2579],[13.2886,2.0434,504.0265],[13.2866,2.0392,501.095],[13.2779,2.0351,504.6458],[13.2738,2.025,509.3215],[13.269,2.0257,500.2633],[13.263,2.0234,499.7467],[13.2541,2.0248,503.7774],[13.2509,2.0195,506.9146],[13.2463,2.0204,500.53],[13.2374,2.011,501.3787],[13.2399,2.0073,496.6042],[13.236,2.005,499.4702],[13.2351,1.9983,539.3027],[13.2296,1.9963,521.9297],[13.2248,1.9912,504.5292],[13.2186,1.9878,498.9881],[13.2177,1.9829,512.163],[13.2097,1.9818,504.7665],[13.2072,1.9751,501.9108],[13.2088,1.9655,497.4476],[13.2168,1.9498,516.6891],[13.2166,1.9464,499.7599],[13.2074,1.9388,514.0049],[13.2042,1.9381,496.2426],[13.2012,1.9338,489.2833],[13.1939,1.9319,500.9773],[13.1909,1.9289,499.2735],[13.1877,1.9218,512.0219],[13.1838,1.9179,502.7049],[13.1829,1.9147,496.4839],[13.1848,1.9105,496.9313],[13.1813,1.9071,508.4373],[13.1726,1.9009,490.9499],[13.1676,1.9027,506.9154],[13.1619,1.9014,503.8974],[13.1582,1.8933,497.4888],[13.1607,1.8867,503.3908],[13.1575,1.8818,500.2505],[13.1596,1.8756,497.7527],[13.1717,1.8694,502.446],[13.1708,1.8614,506.2633],[13.1728,1.8584,506.3799],[13.1872,1.8579,494.3186],[13.192,1.8538,499.1312],[13.1939,1.8492,505.1169],[13.1936,1.8349,496.1089],[13.1959,1.8298,497.2928],[13.1904,1.8232,492.103],[13.1923,1.8171,497.0011],[13.1955,1.8165,501.252],[13.2014,1.8068,494.7108],[13.1986,1.7963,498.5243],[13.1957,1.7914,506.3924],[13.1884,1.7885,500.799],[13.1863,1.7933,493.2253],[13.1831,1.794,490.6805],[13.1817,1.7912,491.4531],[13.1824,1.7834,500.3868],[13.1792,1.7735,500.7403],[13.1824,1.7692,494.6515],[13.1824,1.757,501.4525],[13.1803,1.754,491.5155],[13.1751,1.751,495.2932],[13.1714,1.7457,489.3207],[13.1591,1.7418,496.674],[13.1566,1.7329,497.6832],[13.1588,1.7257,492.8055],[13.1577,1.7232,485.559],[13.1527,1.7214,489.041],[13.1451,1.7085,497.112],[13.1371,1.7018,490.0542],[13.1387,1.6972,492.369],[13.1364,1.6919,494.9749],[13.1398,1.6841,491.949],[13.1394,1.677,486.3473],[13.143,1.6726,491.8613],[13.1401,1.6634,493.56],[13.1423,1.6581,499.9728],[13.1401,1.6529,490.4457],[13.1453,1.6407,495.5294],[13.1503,1.6411,495.1554],[13.1508,1.6349,498.6747],[13.1471,1.6338,493.7552],[13.1462,1.6313,493.0847],[13.1492,1.629,510.7652],[13.151,1.6248,494.357],[13.1492,1.6175,490.4459],[13.1451,1.6158,498.3444],[13.1432,1.6106,480.4014],[13.1455,1.6069,495.2011],[13.1421,1.5982,494.5089],[13.146,1.5924,491.1569],[13.1455,1.5894,506.8923],[13.1414,1.591,488.1299],[13.1366,1.5897,484.9332],[13.1323,1.591,498.3615],[13.1309,1.5869,494.3845],[13.1332,1.5832,492.2661],[13.1382,1.5816,508.6404],[13.1407,1.5775,505.6557],[13.1412,1.5701,507.8016],[13.1396,1.5634,492.9382],[13.1373,1.5614,490.2059],[13.139099999999999,1.5591,485.0042],[13.1446,1.56,507.1888],[13.1453,1.5552,499.4544],[13.1482,1.551,496.8072],[13.1537,1.5515,497.3758],[13.1544,1.5496,494.6469],[13.1521,1.5434,503.3735],[13.1592,1.5303,506.2968],[13.1638,1.5255,488.5452],[13.1693,1.5299,496.4532],[13.1729,1.5296,494.8162],[13.1729,1.5322,485.7209],[13.1754,1.5351,488.0803],[13.1786,1.5358,504.9669],[13.1839,1.5276,494.2152],[13.1901,1.5241,495.0977],[13.1916,1.5154,496.6016],[13.1946,1.5154,499.3129],[13.1983,1.5121,500.2868],[13.1953,1.5089,493.976],[13.1928,1.4984,486.2809],[13.1983,1.5004,491.1838],[13.1992,1.4981,492.1888],[13.1939,1.4896,485.5656],[13.1948,1.4876,490.8077],[13.2001,1.4873,492.1884],[13.206,1.4901,500.186],[13.2081,1.4811,492.3484],[13.2138,1.482,495.3138],[13.2179,1.4793,494.1592],[13.2207,1.474,489.639],[13.2202,1.4708,487.8981],[13.2163,1.4657,478.1422],[13.2179,1.4629,489.1759],[13.2227,1.462,481.0309],[13.2232,1.4602,482.8259],[13.2211,1.4565,479.7556],[13.2234,1.4514,485.9433],[13.2213,1.448,485.1936],[13.2216,1.4439,487.1126],[13.2266,1.4393,487.9641],[13.2289,1.4434,480.5342],[13.2341,1.4383,486.969],[13.2389,1.4278,503.4936],[13.2366,1.422,489.5578],[13.2375,1.4186,489.5213],[13.2419,1.4158,517.5955],[13.2437,1.4112,488.7258],[13.249,1.4112,496.2989],[13.2526,1.4055,479.092],[13.2492,1.3965,489.5349],[13.2494,1.3917,483.9101],[13.2563,1.3923,489.9099],[13.2572,1.3889,502.7213],[13.2464,1.3675,497.9185],[13.2473,1.3645,493.1249],[13.254,1.3588,501.9229],[13.2542,1.3565,494.8321],[13.2448,1.3489,490.5164],[13.2439,1.3448,487.6811],[13.2455,1.3402,487.8229],[13.2503,1.3367,484.7449],[13.2542,1.3381,482.8708],[13.2576,1.3418,505.8526],[13.2617,1.342,538.3045],[13.264,1.3365,500.6934],[13.2574,1.316,508.7414],[13.24,1.305,492.4468],[13.2313,1.3037,480.26369999999997],[13.229,1.3004,488.2872],[13.2297,1.2901,482.1301],[13.224,1.285,478.2693],[13.2203,1.2853,484.5005],[13.2139,1.2913,488.4429],[13.1977,1.2869,488.9595],[13.1945,1.2892,488.07],[13.1929,1.2938,505.5128],[13.1888,1.2924,502.1138],[13.1849,1.2869,489.1028],[13.1829,1.28,479.5125],[13.1831,1.2681,510.1439],[13.1783,1.2642,482.9766],[13.1771,1.2598,486.6921],[13.1806,1.2511,488.7078],[13.179,1.2474,485.394],[13.1755,1.2469,479.9946],[13.1712,1.2513,490.8793],[13.168,1.2506,487.5551],[13.1563,1.2396,494.5308],[13.1563,1.2343,475.8634],[13.1678,1.2332,501.1685],[13.1817,1.2285,489.1882],[13.1895,1.2246,498.2397],[13.1956,1.218,475.0953],[13.2182,1.2269,493.5583],[13.2265,1.2253,478.3583],[13.2365,1.226,493.6769],[13.2429,1.2239,489.9414],[13.2555,1.2283,475.7806],[13.258,1.2239,487.6065],[13.261,1.2232,487.669],[13.2653,1.2278,476.1451],[13.2712,1.2276,477.9036],[13.2747,1.2248,478.246],[13.2781,1.2248,484.9901],[13.2875,1.2296,483.1079],[13.2932,1.2275,481.7437],[13.2996,1.2298,485.0221],[13.3057,1.2213,482.7802],[13.3094,1.2211,484.8443],[13.3133,1.2252,485.2254],[13.3147,1.2395,483.9238],[13.3236,1.2358,482.3134],[13.3249,1.2381,481.0835],[13.3254,1.2431,495.6588],[13.322,1.2491,480.2307],[13.322,1.2622,482.538],[13.335,1.2629,488.6542],[13.34,1.2581,483.9467],[13.343,1.2576,489.4861],[13.3467,1.2585,488.543],[13.3519,1.2661,487.8586],[13.3725,1.2654,483.9401],[13.3745,1.2677,485.9425],[13.3732,1.2704,494.4008],[13.3663,1.2757,492.2744],[13.3661,1.2792,491.1437],[13.375,1.2909,501.5911],[13.3778,1.2911,498.1214],[13.3841,1.2867,490.6081],[13.3976,1.2824,493.7647],[13.4001,1.2837,487.4514],[13.4022,1.2902,475.0381],[13.4097,1.2911,488.6159],[13.4139,1.2975,484.4782],[13.4223,1.2952,491.7317],[13.4315,1.2996,494.2514],[13.4367,1.3002,487.8461],[13.4385,1.2929,480.0211],[13.4426,1.2947,481.5276],[13.4463,1.294,485.1284],[13.4577,1.286,491.7575],[13.4751,1.28,488.881],[13.4774,1.2745,488.0803],[13.4822,1.2738,483.0432],[13.4886,1.2701,492.7133],[13.4947,1.2692,489.44],[13.4961,1.2754,487.3662],[13.5009,1.2751,475.3377],[13.5103,1.2666,489.6175],[13.5144,1.2659,484.603],[13.5153,1.2673,483.8237],[13.5116,1.2717,481.9965],[13.513,1.2737,482.782],[13.5244,1.276,482.9269],[13.5411,1.284,487.9614],[13.5475,1.2829,493.8889],[13.5521,1.2783,483.1281],[13.5566,1.2787,484.679],[13.5761,1.2904,497.6138],[13.5777,1.2985,492.9431],[13.5884,1.3044,489.1339],[13.5905,1.3074,490.751],[13.5907,1.3168,491.2312],[13.6042,1.3205,480.0209],[13.6083,1.3295,491.9186],[13.6294,1.3304,484.4401],[13.6344,1.3292,488.7533],[13.6326,1.3411,485.0797],[13.6335,1.3441,501.4694],[13.6392,1.345,482.9272],[13.6477,1.3494,497.6809],[13.6547,1.3455,484.1827],[13.665,1.3526,490.5912],[13.6787,1.354,489.1796],[13.6833,1.3494,492.2267],[13.6876,1.3484,481.9031],[13.6899,1.3549,491.1664],[13.694,1.3498,496.9667],[13.7078,1.3509,485.7515],[13.7098,1.3546,493.7684],[13.7254,1.3617,492.4703],[13.7274,1.3684,487.6887],[13.7313,1.37,495.1566],[13.7391,1.3704,489.9984],[13.7443,1.3681,494.5199],[13.7452,1.3663,496.8259],[13.7418,1.3624,489.0339],[13.7425,1.3605,491.0606],[13.7509,1.361,498.9684],[13.7544,1.3591,495.9333],[13.7592,1.3529,484.053],[13.7624,1.3525,493.7874],[13.7653,1.3587,494.0495],[13.7681,1.3607,486.9758],[13.7786,1.3614,491.4954],[13.7855,1.3662,490.3917],[13.7889,1.371,484.5763],[13.7891,1.38,491.8769],[13.7837,1.391,490.5406],[13.7857,1.397,483.3651],[13.791,1.3942,486.3243],[13.7942,1.3956,492.8972],[13.7972,1.3988,487.2374],[13.7967,1.4041,493.3577],[13.7997,1.408,485.2789],[13.8072,1.4075,491.4204],[13.8104,1.4119,491.5533],[13.8077,1.4172,482.7349],[13.8084,1.4236,487.6818],[13.8024,1.4204,489.302],[13.8008,1.4225,496.718],[13.802,1.4303,489.2174],[13.8059,1.437,484.9425],[13.8102,1.4377,495.3084],[13.8127,1.4356,503.4428],[13.8139,1.4287,487.4783],[13.8171,1.4278,486.9691],[13.8246,1.4307,493.2283],[13.8342,1.4277,492.2313],[13.8399,1.4286,485.4568],[13.8507,1.4339,492.0163],[13.8564,1.4337,491.0273],[13.8619,1.4259,481.2924],[13.8664,1.4254,488.3069],[13.8758,1.4295,478.0],[13.892,1.4327,481.9721],[13.8968,1.4322,484.0482],[13.9263,1.4172,487.8141],[13.9489,1.4177,481.8034],[13.9665,1.4222,486.1466],[13.972,1.422,490.6169],[13.9777,1.4178,492.0226],[13.9834,1.4162,483.5037],[13.9994,1.4201,495.6994],[14.0045,1.432,495.1314],[14.0093,1.4341,489.3093],[14.0116,1.4382,497.2194],[14.0246,1.4313,491.648],[14.0285,1.4276,487.9196],[14.0303,1.4214,491.512],[14.0287,1.4136,492.4795],[14.0303,1.4104,495.2869],[14.0426,1.3987,491.1417],[14.0499,1.3975,489.6684],[14.0586,1.3851,491.4812],[14.0665,1.3807,493.1083],[14.0745,1.3788,489.961],[14.0938,1.3771,489.5387],[14.2356,1.5504,510.0252],[14.3238,1.6635,549.5582],[14.4167,2.0855,506.1995],[14.4291,2.1559,479.2762],[14.4337,2.1559,486.7688],[14.4407,2.1594,576.8948],[14.434,2.1669,604.8932],[14.4245,2.1687,540.5167],[14.4217,2.1747,568.8779],[14.4122,2.1813,581.0004],[14.4021,2.1781,517.7979],[14.3835,2.1856,564.9304],[14.3724,2.1821,544.6053],[14.3629,2.1877,566.9048],[14.3559,2.1854,530.1683],[14.3462,2.1756,639.8385],[14.3287,2.1727,636.6758],[14.3039,2.1626,661.4258],[14.2915,2.1719,619.9576],[14.2528,2.1725,642.4905],[14.176,2.1711,718.6547],[14.158,2.1724,673.0189],[13.9279,2.1728,581.7864],[13.6801,2.1717,543.2028]]]]}
,"properties": {"GID_2": "COG.12.3_1","GID_0": "COG","country": "RepublicoftheCongo","GID_1": "COG.12_1","province": "Sangha","NL_NAME_1": "NA","county": "Souanké","VARNAME_2": "NA","NL_NAME_2": "NA","TYPE_2": "District","ENGTYPE_2": "District","CC_2": "NA","HASC_2": "CG.SA.SO","name": "Souanké.county","area_km2": 11375.336,"hist_schema_id": "Elevation0-9000","hist_area_km2": {"475": 63.057,"500": 3684.404,"525": 4491.65,"550": 1631.959,"575": 421.693,"600": 175.749,"625": 135.466,"650": 146.587,"675": 177.777,"700": 181.189,"725": 126.883,"750": 75.458,"775": 38.927,"800": 10.744,"825": 4.81,"850": 3.475,"875": 2.331,"900": 1.653,"925": 0.826,"950": 0.36,"975": 0.17,"1000": 0.17}}}