{"type": "Feature","bbox": [11.8235,-4.831,11.9114,-4.7467],"geometry": {"type": "MultiPolygon","coordinates": [[[[11.849,-4.7467,0.0],[11.8535,-4.7601,0.0],[11.8532,-4.7738,0.0],[11.8501,-4.7787,0.0],[11.8501,-4.7863,4.594],[11.8429,-4.7926,2.9507],[11.836,-4.7921,4.8645],[11.8374,-4.7876,0.6795],[11.8318,-4.7829,0.0],[11.8296,-4.7868,1.8644],[11.8254,-4.7843,2.1573],[11.8254,-4.7782,0.9504],[11.8307,-4.7782,0.7827],[11.829,-4.7757,1.8687],[11.8243,-4.7743,0.271],[11.8235,-4.7871,0.5928],[11.8376,-4.8038,2.1061],[11.8471,-4.8124,0.985],[11.8462,-4.8154,0.0],[11.8379,-4.824,0.0],[11.849,-4.8151,0.0],[11.8627,-4.831,0.0],[11.8989,-4.808,18.6545],[11.9114,-4.7962,22.035],[11.9018,-4.7644,48.9715],[11.8693,-4.7474,10.9087],[11.849,-4.7467,0.0]]]]}
,"properties": {"GID_2": "COG.10.1_1","GID_0": "COG","country": "RepublicoftheCongo","GID_1": "COG.10_1","province": "PointeNoire","NL_NAME_1": "NA","county": "PointeNoire","VARNAME_2": "NA","NL_NAME_2": "NA","TYPE_2": "District","ENGTYPE_2": "District","CC_2": "NA","HASC_2": "CG.PN.PN","name": "Pointe_Noire.county","area_km2": 49.46116,"hist_schema_id": "Elevation0-9000","hist_area_km2": {"0": 22.83961,"25": 26.5793,"50": 0.04226}}}