{"type":"Feature","properties":{"GID_2":"COG.7.1_1","GID_0":"COG","country":"RepublicoftheCongo","GID_1":"COG.7_1","province":"Likouala","NL_NAME_1":"NA","county":"Dongou","VARNAME_2":"NA","NL_NAME_2":"NA","TYPE_2":"District","ENGTYPE_2":"District","CC_2":"NA","HASC_2":"CG.LI.DO","name":"Dongou.county"},
"geometry":{"type": "MultiPolygon","coordinates": [[[[17.4151,3.6725,555.4661],[17.4052,3.6694,573.5367],[17.3942,3.6617,586.0935],[17.388,3.6529,590.3597],[17.3659,3.6102,552.3674],[17.3627,3.607,551.2858],[17.3547,3.6045,538.5884],[17.3487,3.6049,542.8767],[17.3157,3.6193,542.5797],[17.3045,3.629,538.4604],[17.2988,3.6301,544.9991],[17.258,3.6146,572.9897],[17.2525,3.6107,569.3716],[17.2477,3.6054,563.8564],[17.2495,3.5886,556.7633],[17.2483,3.5833,569.463],[17.2393,3.5792,568.0411],[17.2235,3.5751,571.6649],[17.1992,3.5722,604.1358],[17.1768,3.5656,601.3889],[17.1722,3.5653,601.4988],[17.1635,3.5726,601.1243],[17.1571,3.5751,602.4594],[17.1472,3.5728,584.7483],[17.1321,3.5654,551.4844],[17.1133,3.5593,573.1472],[17.0982,3.5607,567.1921],[17.0794,3.5529,569.9362],[17.0581,3.5481,592.135],[17.0525,3.5304,568.2004],[17.039,3.515,590.9131],[17.0353,3.5134,600.6198],[17.0296,3.5137,604.2426],[17.0108,3.5291,585.6098],[17.0092,3.539,574.8124],[17.0044,3.5466,592.2236],[16.9978,3.5469,589.7687],[16.9817,3.5391,581.3781],[16.976,3.5405,579.6154],[16.9607,3.5582,567.3513],[16.9573,3.5599,577.347],[16.9461,3.558,575.0852],[16.9328,3.5521,556.7104],[16.9101,3.5501,580.8854],[16.8961,3.5519,573.2469],[16.889,3.5584,575.1845],[16.8785,3.5596,603.4706],[16.8737,3.5575,607.1416],[16.8698,3.5534,615.1254],[16.8695,3.549,611.0573],[16.8743,3.5363,621.048],[16.8734,3.5271,613.6761],[16.8607,3.5115,624.8358],[16.8518,3.5106,615.1782],[16.8335,3.5203,603.9525],[16.8207,3.5215,594.0704],[16.8026,3.5434,609.0035],[16.795,3.5462,618.2838],[16.7744,3.5497,608.066],[16.7635,3.555,621.8032],[16.7545,3.5571,618.7011],[16.7451,3.5562,617.1416],[16.7261,3.5491,624.744],[16.713,3.5479,619.3212],[16.6878,3.5425,640.4572],[16.672,3.5418,636.4741],[16.6475,3.5292,628.5332],[16.6106,3.4973,647.0433],[16.5965,3.4773,654.4048],[16.5933,3.4667,652.546],[16.5829,3.4161,637.4636],[16.5771,3.3427,634.1448],[16.5729,3.3296,643.5196],[16.5594,3.314,636.6079],[16.5546,3.3057,634.6584],[16.5502,3.2827,613.1262],[16.5565,3.2663,602.8949],[16.5584,3.2534,596.697],[16.5542,3.2449,580.935],[16.5469,3.2369,594.5909],[16.5388,3.2245,577.5224],[16.5324,3.2058,602.7941],[16.509,3.1711,582.9598],[16.5058,3.1599,593.736],[16.5071,3.1477,592.4464],[16.511,3.1359,599.4564],[16.5123,3.1205,596.1975],[16.5219,3.0996,578.8203],[16.5388,3.0795,600.0701],[16.5443,3.0703,600.1823],[16.5445,3.0657,596.3676],[16.5315,3.0496,587.9279],[16.5032,3.0213,548.5907],[16.4934,3.0043,519.5945],[16.4896,2.9229,586.2741],[16.4902,2.9093,570.6945],[16.5017,2.8992,563.0037],[16.5138,2.8934,564.8611],[16.5209,2.8879,565.4072],[16.5248,2.8805,548.6957],[16.5201,2.8423,483.146],[16.4758,2.7598,560.8434],[16.4744,2.7543,545.6607],[16.4632,2.7326,495.7372],[16.4528,2.716,547.4196],[16.4644,2.7131,520.8831],[16.4719,2.7083,521.1765],[16.4911,2.6717,482.8482],[16.4925,2.6639,507.9224],[16.4883,2.6567,525.9391],[16.4811,2.6519,543.6254],[16.4789,2.6439,542.8034],[16.48,2.6217,469.8839],[16.4836,2.6131,501.9884],[16.4911,2.6081,485.5403],[16.52,2.5956,444.1131],[16.5261,2.5881,491.5025],[16.5319,2.5736,508.5947],[16.5369,2.5664,521.4327],[16.5533,2.5578,488.5542],[16.5578,2.5506,500.1274],[16.5592,2.5428,513.4008],[16.5597,2.5272,484.3884],[16.5569,2.5128,475.1772],[16.5583,2.5044,501.9],[16.5656,2.4989,493.4216],[16.5736,2.4986,455.6957],[16.5964,2.5056,500.8416],[16.6178,2.5161,503.6905],[16.6256,2.5136,521.6506],[16.6325,2.5067,502.3494],[16.67,2.495,522.4125],[16.6775,2.4894,521.387],[16.6819,2.4811,534.7222],[16.8114,2.4951,511.7303],[16.8739,2.4984,477.3928],[16.9613,2.4885,420.0915],[17.0202,2.469,377.572],[17.1232,2.4315,449.6172],[17.1828,2.3938,428.9955],[17.2636,2.3578,412.6945],[17.4259,2.2544,355.2677],[17.5497,2.2074,355.8039],[17.6163,2.1691,348.882],[17.6497,2.1423,342.1329],[17.7259,2.0936,343.8515],[17.7803,2.0664,340.8461],[18.0687,1.8839,313.0],[18.0749,1.9019,313.0],[18.0775,1.9213,313.5],[18.0807,1.9314,319.6099],[18.0915,1.9515,313.5],[18.0925,1.9621,317.3244],[18.0864,1.9837,314.0],[18.0842,2.0048,314.0],[18.0672,2.0213,314.0],[18.0653,2.027,314.0],[18.0716,2.0388,324.6884],[18.0708,2.0514,323.3198],[18.0751,2.0607,315.4047],[18.0787,2.0639,314.0],[18.0888,2.0896,338.3099],[18.0908,2.1273,321.5749],[18.0912,2.2023,326.3842],[18.095,2.238,318.2719],[18.099,2.251,325.9479],[18.106,2.2666,314.0],[18.1165,2.2757,322.7803],[18.1235,2.2794,333.2847],[18.1442,2.2991,331.9431],[18.1538,2.3045,322.0023],[18.168,2.325,314.0],[18.185,2.345,314.0],[18.19,2.359,314.0],[18.19,2.37,314.0],[18.193,2.376,314.0],[18.203,2.384,314.0],[18.212,2.399,314.0],[18.214,2.417,314.5],[18.227,2.44,314.5],[18.229,2.452,314.5],[18.2281,2.4639,332.7329],[18.237,2.495,338.5096],[18.242,2.507,342.6948],[18.268,2.538,315.375],[18.2769,2.5445,315.5],[18.2952,2.5525,316.1401],[18.3124,2.5736,319.2826],[18.33,2.5845,347.1729],[18.3388,2.5989,316.25],[18.343,2.622,316.5],[18.384,2.699,319.5],[18.394,2.71,346.8264],[18.401,2.733,319.625],[18.4113,2.7398,320.0],[18.421,2.752,320.0],[18.433,2.7779,320.0],[18.4383,2.8047,320.5],[18.4455,2.8224,321.0],[18.4458,2.8367,321.0],[18.4393,2.8555,321.0],[18.4385,2.8723,321.0],[18.4415,2.8889,321.5],[18.453,2.927,324.8838],[18.463,2.942,322.0],[18.468,2.958,322.0],[18.475,2.97,322.5],[18.497,2.991,325.1453],[18.5049,2.9962,336.6405],[18.5169,3.014,323.0],[18.5216,3.0253,323.5],[18.529,3.062,323.5],[18.533,3.07,338.0641],[18.5439,3.0796,323.5],[18.576,3.095,323.5],[18.5848,3.0976,323.5],[18.5946,3.1064,323.5],[18.6014,3.1145,323.5],[18.6256,3.1589,323.5],[18.6417,3.2089,324.0],[18.6426,3.2207,324.0],[18.635,3.26,331.2838],[18.638,3.29,329.0212],[18.645,3.305,324.0],[18.65,3.331,346.6363],[18.649,3.344,334.4041],[18.645,3.359,328.712],[18.633,3.386,324.5],[18.632,3.397,324.5],[18.639,3.417,324.5],[18.64,3.427,324.5],[18.6399,3.4486,324.5],[18.6351,3.4711,324.5],[18.6037,3.4727,358.6556],[18.595,3.477,354.9328],[18.5901,3.4873,351.0282],[18.588,3.4988,343.8249],[18.5754,3.5307,356.1361],[18.5583,3.549,371.0184],[18.5513,3.5635,370.0013],[18.5442,3.5961,366.9134],[18.5356,3.6101,361.2338],[18.514,3.6247,394.1377],[18.4909,3.6517,405.6351],[18.4868,3.6533,407.4122],[18.4817,3.6532,404.072],[18.4753,3.6467,394.8053],[18.4679,3.6317,399.0507],[18.4613,3.6261,400.91],[18.4551,3.6236,385.4522],[18.4539,3.6077,403.7408],[18.4486,3.6012,391.4003],[18.4436,3.5986,392.2669],[18.4372,3.5997,391.528],[18.4259,3.6072,401.1319],[18.4197,3.609,388.3981],[18.414,3.6039,392.6882],[18.4134,3.5869,386.7535],[18.4105,3.5779,384.7913],[18.406,3.5779,387.8002],[18.3912,3.5888,370.0143],[18.3733,3.5963,397.5222],[18.3595,3.5992,399.4986],[18.3459,3.6076,379.8622],[18.3334,3.6036,385.7178],[18.3256,3.5968,392.6371],[18.3087,3.587,408.4294],[18.2872,3.5919,401.5233],[18.2745,3.5932,394.044],[18.2677,3.5916,397.6887],[18.2647,3.5881,399.517],[18.2597,3.5494,402.074],[18.2499,3.5141,406.724],[18.2429,3.5046,408.3983],[18.2416,3.5004,396.4844],[18.2315,3.4907,402.1807],[18.2247,3.4895,402.7896],[18.2149,3.485,399.2352],[18.189,3.4812,406.2638],[18.1805,3.4841,411.5051],[18.1761,3.4882,406.1515],[18.1698,3.5008,409.3124],[18.1663,3.5201,402.5644],[18.1634,3.5275,410.6593],[18.1525,3.5449,410.7159],[18.1447,3.5533,406.1744],[18.1334,3.5615,404.1962],[18.1235,3.5661,405.2006],[18.1052,3.5715,419.1664],[18.087,3.5715,414.947],[18.0707,3.5753,424.9053],[18.0584,3.5732,424.2093],[18.0488,3.5683,422.7162],[18.0151,3.5774,442.9612],[18.0,3.5789,413.2907],[17.9987,3.5539,438.7541],[17.9957,3.5512,449.1403],[17.985,3.5535,443.1408],[17.9694,3.5605,425.6972],[17.9576,3.5713,469.7112],[17.9493,3.5831,488.6608],[17.9439,3.5998,497.8432],[17.9377,3.6024,519.4014],[17.9327,3.599,511.1539],[17.9299,3.5898,507.5083],[17.9193,3.5735,497.6281],[17.9023,3.5593,532.369],[17.8904,3.557,528.1243],[17.8814,3.5499,526.7346],[17.8667,3.5332,522.6908],[17.8591,3.533,512.6708],[17.8537,3.5489,524.6488],[17.8455,3.5632,540.6464],[17.8446,3.5788,556.2545],[17.8403,3.5871,532.4731],[17.8401,3.6053,491.36],[17.8333,3.6233,547.4974],[17.829,3.6267,551.3214],[17.7958,3.6292,530.5165],[17.7896,3.6317,535.0654],[17.7873,3.6349,534.1937],[17.7589,3.6389,540.8468],[17.7452,3.6431,548.5441],[17.7445,3.6461,545.7114],[17.7383,3.6503,535.3696],[17.733,3.6512,530.5607],[17.7207,3.6453,522.4882],[17.705,3.6345,530.3355],[17.7009,3.6343,533.6307],[17.6947,3.6391,538.33989999999994],[17.6877,3.6415,542.3632],[17.6533,3.639,540.9246],[17.6063,3.6413,541.3788],[17.5976,3.6436,563.0444],[17.5926,3.6535,548.3381],[17.5876,3.6583,541.8262],[17.5782,3.6637,523.7845],[17.5576,3.6692,559.6217],[17.5494,3.681,560.9496],[17.5437,3.6859,547.2861],[17.5334,3.6891,539.9324],[17.5066,3.6919,555.1619],[17.4917,3.7021,520.1583],[17.4741,3.7031,522.347],[17.4619,3.6992,550.4373],[17.4511,3.6937,548.8214],[17.441,3.6804,551.5787],[17.4151,3.6725,555.4661]]]]}}