{"type":"Feature","properties":{"GID_2":"COG.11.4_1","GID_0":"COG","country":"RepublicoftheCongo","GID_1":"COG.11_1","province":"Pool","NL_NAME_1":"NA","county":"Mayama","VARNAME_2":"NA","NL_NAME_2":"NA","TYPE_2":"District","ENGTYPE_2":"District","CC_2":"NA","HASC_2":"CG.PO.MA","name":"Mayama.county"},
"geometry":{"type": "MultiPolygon","coordinates": [[[[14.8768,-2.7152,388.0737],[14.8602,-2.7535,625.0709],[14.8203,-2.8708,744.078],[14.769,-2.9769,570.946],[14.7442,-3.0217,610.864],[14.6841,-3.0996,761.2494],[14.6668,-3.1299,657.9757],[14.6841,-3.1629,654.4337],[14.7171,-3.1901,704.6973],[14.7384,-3.2188,525.2061],[14.7472,-3.2579,508.7543],[14.7453,-3.3125,625.1725],[14.7414,-3.3496,490.9051],[14.7332,-3.4006,512.535],[14.7312,-3.4269,482.9118],[14.7321,-3.4685,469.5189],[14.7354,-3.4823,423.8327],[14.7299,-3.5063,469.6095],[14.7123,-3.5328,464.0767],[14.6651,-3.5691,456.7281],[14.6496,-3.5925,462.0976],[14.6603,-3.6178,466.9908],[14.6922,-3.6404,557.1711],[14.7696,-3.703,399.2256],[14.7955,-3.7265,496.3124],[14.8076,-3.7402,523.295],[14.8274,-3.7691,402.9583],[14.8159,-3.7978,540.9464],[14.8054,-3.8304,689.5943],[14.7909,-3.8483,532.6094],[14.7929,-3.8759,375.1043],[14.8095,-3.8964,354.1932],[14.8176,-3.9147,353.6867],[14.821,-3.937,340.0721],[14.8402,-3.989,355.6533],[14.8175,-4.0112,484.8315],[14.8649,-4.0319,350.1493],[14.8959,-4.0265,326.4858],[14.9215,-4.0299,385.3658],[14.9526,-4.0316,482.4261],[14.975,-4.0358,604.553],[14.9933,-4.0441,612.2507],[15.0028,-4.0586,459.959],[14.999,-4.0762,468.618],[14.9964,-4.1021,348.519],[15.0093,-4.1297,412.74],[15.0097,-4.1543,459.2699],[15.027,-4.1639,325.5768],[15.0286,-4.1895,479.989],[15.0227,-4.2069,370.4061],[15.0446,-4.2329,320.0559],[15.0631,-4.2082,389.2576],[15.0705,-4.1889,312.0914],[15.072,-4.1513,369.8771],[15.0771,-4.1072,531.8849],[15.0941,-4.0909,389.4671],[15.1118,-4.0338,525.3912],[15.1118,-4.0115,457.7958],[15.1149,-3.9876,512.2695],[15.1104,-3.9476,712.8859],[15.1006,-3.9224,680.3587],[15.097,-3.8955,536.3956],[15.1122,-3.8668,458.8368],[15.1286,-3.8542,717.6266],[15.1562,-3.8269,759.0764],[15.1711,-3.8231,727.179],[15.1869,-3.7809,592.4747],[15.1997,-3.7203,759.4063],[15.2084,-3.6956,733.6142],[15.2127,-3.673,585.8516],[15.2137,-3.6292,734.9739],[15.2225,-3.5642,516.2529],[15.2325,-3.5317,488.9448],[15.2461,-3.5034,389.4097],[15.2547,-3.4727,441.569],[15.2591,-3.4038,739.9498],[15.2634,-3.3672,570.6211],[15.2909,-3.2891,692.7045],[15.3117,-3.2642,720.0922],[15.3347,-3.2541,581.9619],[15.3587,-3.2483,521.5905],[15.3931,-3.2425,453.5259],[15.4193,-3.2355,423.607],[15.4566,-3.2154,418.3806],[15.48,-3.2054,361.299],[15.4982,-3.1892,337.168],[15.5117,-3.1412,349.4174],[15.5119,-3.1188,342.186],[15.5091,-3.093,337.3694],[15.5131,-3.0744,324.4437],[15.5079,-3.0407,320.6868],[15.4721,-3.0073,331.6741],[15.4475,-3.0147,326.4058],[15.4186,-3.0267,326.0875],[15.3908,-3.0331,318.0],[15.3786,-3.0317,328.2498],[15.36,-3.0225,330.4235],[15.3375,-3.0175,345.1312],[15.3236,-3.0172,345.2429],[15.3014,-3.0225,327.1949],[15.2925,-3.0272,334.3999],[15.2864,-3.0278,333.0831],[15.2483,-3.0244,345.4703],[15.2347,-3.0214,339.0642],[15.2272,-3.015,326.8691],[15.2142,-3.0072,332.4206],[15.2025,-3.0053,336.7935],[15.1983,-3.0022,332.1428],[15.1953,-2.9933,343.4217],[15.1917,-2.99,342.3661],[15.1869,-2.9878,334.6877],[15.1678,-2.9861,345.1525],[15.1581,-2.9819,352.4651],[15.1519,-2.9744,349.0904],[15.1461,-2.9592,343.7501],[15.145,-2.9397,345.7805],[15.1411,-2.9231,340.0788],[15.1383,-2.9192,340.907],[15.1261,-2.9106,344.6077],[15.1194,-2.8967,339.064],[15.1106,-2.8919,345.0231],[15.0911,-2.8917,354.9326],[15.0744,-2.8956,347.3426],[15.0575,-2.8919,341.5196],[15.0486,-2.8869,354.1133],[15.0375,-2.8839,382.2605],[15.0314,-2.8847,365.6444],[15.01,-2.8975,346.2464],[14.9831,-2.9044,353.8655],[14.9561,-2.905,351.9307],[14.945,-2.9019,387.023],[14.9408,-2.8992,382.8446],[14.9369,-2.8894,403.354],[14.9414,-2.8731,367.327],[14.9336,-2.84,369.5573],[14.9322,-2.7953,379.9045],[14.9228,-2.7839,376.1538],[14.9144,-2.7783,377.2161],[14.9125,-2.7736,378.471],[14.9164,-2.7564,386.235],[14.9156,-2.7503,382.1343],[14.9136,-2.7456,399.1009],[14.9061,-2.7392,387.8457],[14.8975,-2.7203,383.2475],[14.8894,-2.7147,389.0375],[14.8768,-2.7152,388.0737]]]]}}