{"type": "Feature","bbox": [15.257,-3.7988,16.2224,-2.8203],"geometry": {"type": "MultiPolygon","coordinates": [[[[16.1807,-2.942,274.0],[16.1536,-2.9411,274.513],[16.1428,-2.9383,281.7831],[16.1283,-2.9319,285.5184],[16.0836,-2.9281,302.0941],[16.0594,-2.9308,337.2147],[16.0497,-2.935,315.0484],[16.0386,-2.9447,377.2119],[16.0336,-2.9464,317.2054],[16.0275,-2.9472,331.9323],[15.9975,-2.9425,306.0],[15.9858,-2.9269,333.4052],[15.9706,-2.9211,308.0801],[15.9667,-2.9181,307.1153],[15.9639,-2.9003,379.306],[15.9581,-2.8928,413.2526],[15.9533,-2.8906,358.5386],[15.9486,-2.8814,378.2372],[15.9397,-2.8767,306.0],[15.9328,-2.8767,308.1339],[15.9281,-2.8744,306.0],[15.9014,-2.8542,308.3217],[15.8856,-2.8492,306.0],[15.8831,-2.845,306.0],[15.8781,-2.8428,306.4644],[15.8689,-2.8475,308.4069],[15.8628,-2.8481,310.9671],[15.8581,-2.8461,308.1736],[15.8514,-2.8336,308.4027],[15.8458,-2.8336,307.5301],[15.8417,-2.8364,308.2442],[15.8361,-2.8375,308.1384],[15.83,-2.8367,308.2877],[15.8278,-2.8319,309.0687],[15.8281,-2.825,308.3147],[15.8261,-2.8203,308.2617],[15.8206,-2.8214,307.042],[15.8169,-2.825,308.2494],[15.8142,-2.8289,308.6797],[15.8108,-2.8392,308.1943],[15.8072,-2.8428,308.4031],[15.8017,-2.8428,308.2994],[15.7956,-2.8281,308.2516],[15.7647,-2.8381,306.6732],[15.7244,-2.8456,342.1387],[15.7053,-2.8544,308.4993],[15.6767,-2.8747,308.447],[15.6689,-2.8875,309.0818],[15.6689,-2.8944,307.5883],[15.6658,-2.8986,310.0455],[15.6611,-2.9006,309.1488],[15.6419,-2.9003,309.581],[15.6272,-2.9131,309.2372],[15.5858,-2.9264,317.7162],[15.5725,-2.9339,320.7648],[15.565,-2.94,330.8237],[15.5517,-2.9542,322.4547],[15.5425,-2.9592,315.1777],[15.5253,-2.9758,313.1092],[15.5119,-2.9831,323.6112],[15.4878,-3.0,318.932],[15.4721,-3.0073,331.6741],[15.5079,-3.0407,320.6868],[15.5131,-3.0744,324.4437],[15.5091,-3.093,337.3694],[15.5119,-3.1188,342.186],[15.5117,-3.1412,349.4174],[15.4982,-3.1892,337.168],[15.48,-3.2054,361.299],[15.4566,-3.2154,418.3806],[15.4193,-3.2355,423.607],[15.3931,-3.2425,453.5259],[15.3587,-3.2483,521.5905],[15.3347,-3.2541,581.9619],[15.3117,-3.2642,720.0922],[15.2909,-3.2891,692.7045],[15.2634,-3.3672,570.6211],[15.2591,-3.4038,739.9498],[15.257,-3.4467,396.4207],[15.3085,-3.5059,743.4805],[15.3526,-3.5272,731.5048],[15.4091,-3.5482,611.0859],[15.4622,-3.5761,704.7105],[15.4848,-3.5927,696.27],[15.5069,-3.6177,689.7075],[15.5223,-3.6398,681.8092],[15.5462,-3.652,619.7449],[15.5644,-3.6471,609.7799],[15.5769,-3.6346,632.8375],[15.5851,-3.6114,665.0953],[15.6141,-3.5655,574.484],[15.6263,-3.5407,623.7281],[15.6532,-3.5102,602.7029],[15.6877,-3.5129,578.5283],[15.7096,-3.535,484.0131],[15.743,-3.5638,457.6624],[15.7642,-3.5766,414.187],[15.7973,-3.6061,506.5977],[15.8383,-3.6595,555.524],[15.8641,-3.7115,570.2229],[15.8751,-3.7536,389.6388],[15.8942,-3.7806,603.7324],[15.9049,-3.7888,611.7212],[15.9666,-3.7988,283.7236],[15.9817,-3.7679,289.7994],[16.001,-3.7386,297.6848],[16.0236,-3.6823,302.7348],[16.0372,-3.6603,281.3183],[16.0468,-3.6322,304.3036],[16.0581,-3.6089,294.0748],[16.0866,-3.5765,300.6338],[16.1102,-3.5384,277.4562],[16.1129,-3.5363,292.8022],[16.1253,-3.5042,273.0],[16.1324,-3.4768,289.7145],[16.1449,-3.4548,273.0],[16.1649,-3.431,273.0],[16.1871,-3.3954,276.0918],[16.2112,-3.3396,274.5429],[16.2224,-3.2963,273.0],[16.2194,-3.2901,273.0],[16.1979,-3.2763,273.0],[16.1893,-3.2673,273.0],[16.1841,-3.2505,273.0],[16.1864,-3.2224,287.2347],[16.1927,-3.1989,273.0],[16.1909,-3.1787,273.0],[16.1803,-3.1375,273.25],[16.1783,-3.1021,273.5],[16.1824,-3.0696,273.5],[16.1953,-3.016,274.0],[16.1945,-2.9999,274.0],[16.1905,-2.9773,274.0],[16.1824,-2.9571,274.0],[16.1807,-2.942,274.0]]]]}
,"properties": {"GID_2": "COG.11.6_1","GID_0": "COG","country": "RepublicoftheCongo","GID_1": "COG.11_1","province": "Pool","NL_NAME_1": "NA","county": "Ngabé","VARNAME_2": "NA","NL_NAME_2": "NA","TYPE_2": "District","ENGTYPE_2": "District","CC_2": "NA","HASC_2": "CG.PO.NG","name": "Ngabé.county","area_km2": 6968.299,"hist_schema_id": "Elevation0-9000","hist_area_km2": {"275": 181.051,"300": 134.739,"325": 232.948,"350": 218.703,"375": 233.493,"400": 225.892,"425": 220.113,"450": 219.164,"475": 234.446,"500": 254.933,"525": 293.307,"550": 317.487,"575": 492.643,"600": 937.168,"625": 1100.605,"650": 774.067,"675": 430.895,"700": 241.101,"725": 201.292,"750": 24.254}}}