{"type": "Feature","bbox": [16.7424,-1.1636,17.5536,0.3942],"geometry": {"type": "MultiPolygon","coordinates": [[[[17.5536,-0.7593,293.5],[17.5511,-0.7569,296.9052],[17.5336,-0.7503,293.5],[17.4864,-0.7514,295.4188],[17.2606,-0.745,294.615],[17.2414,-0.7467,308.9359],[17.2394,-0.7281,297.0216],[17.2439,-0.7119,297.3227],[17.2431,-0.7058,297.3362],[17.2406,-0.7014,296.2334],[17.2314,-0.6967,295.1136],[17.2089,-0.7019,305.5547],[17.2047,-0.6992,297.2936],[17.2033,-0.6936,300.8458],[17.205,-0.6758,314.7437],[17.2033,-0.6575,320.7915],[17.2147,-0.6206,317.505],[17.2125,-0.6086,317.5018],[17.2072,-0.5936,317.5287],[17.2011,-0.5792,316.2175],[17.1953,-0.5717,315.8239],[17.1944,-0.5656,314.58],[17.1953,-0.5594,317.1626],[17.1981,-0.5553,318.3303],[17.2072,-0.5506,321.8748],[17.205,-0.5456,321.9539],[17.2092,-0.5361,321.3295],[17.2214,-0.5281,323.5214],[17.2231,-0.5158,317.7337],[17.22,-0.4917,323.5711],[17.2175,-0.4808,311.1397],[17.2125,-0.4717,319.9439],[17.1961,-0.4608,319.3774],[17.1875,-0.4489,313.6852],[17.1786,-0.4442,317.4425],[17.1725,-0.4433,295.5],[17.1628,-0.4472,323.8922],[17.1508,-0.4631,317.4051],[17.1447,-0.4619,317.568],[17.1403,-0.4533,321.5389],[17.1394,-0.4469,319.3063],[17.1389,-0.4353,323.325],[17.1417,-0.4244,317.5032],[17.1686,-0.39,324.2344],[17.1731,-0.3803,318.3754],[17.1758,-0.3692,343.6648],[17.1719,-0.3597,333.4466],[17.1631,-0.3547,304.3444],[17.1439,-0.3561,305.7467],[17.1342,-0.3517,322.3379],[17.1314,-0.3478,316.4421],[17.1289,-0.3367,323.5873],[17.135,-0.3292,322.5752],[17.1586,-0.3183,343.3378],[17.1736,-0.3064,337.2368],[17.1744,-0.3003,312.9715],[17.1717,-0.2961,316.1859],[17.1678,-0.2933,328.5536],[17.1569,-0.2903,324.9659],[17.1533,-0.2869,315.08],[17.1508,-0.2622,321.6638],[17.1533,-0.2244,325.5808],[17.1514,-0.2061,312.3443],[17.1556,-0.1967,319.6777],[17.1761,-0.1831,327.8363],[17.1819,-0.175,332.1513],[17.1853,-0.1647,329.6617],[17.1864,-0.1517,323.2084],[17.1836,-0.1339,335.7342],[17.1703,-0.1064,324.1639],[17.1636,-0.0789,337.032],[17.1661,-0.0331,325.64],[17.1647,-0.0275,326.5188],[17.1594,-0.0194,328.8203],[17.1619,0.0128,329.3847],[17.1572,0.0286,330.6297],[17.1428,0.0486,324.4884],[17.1425,0.055,326.3477],[17.1439,0.0603,322.908],[17.15,0.0678,328.0023],[17.1844,0.0878,323.4941],[17.1919,0.0939,324.7058],[17.1931,0.1056,325.482],[17.1847,0.1247,328.8824],[17.1836,0.1425,327.7966],[17.1717,0.1717,326.5993],[17.1717,0.1786,325.7174],[17.1744,0.1822,326.2621],[17.18,0.1836,322.0838],[17.1936,0.1833,327.7068],[17.2044,0.1861,328.4579],[17.2081,0.1897,328.2499],[17.21,0.1944,324.8412],[17.2097,0.2006,328.1922],[17.2019,0.2178,326.5432],[17.1825,0.2497,330.0531],[17.1453,0.3042,328.5926],[17.1244,0.3286,326.1301],[17.1133,0.3442,324.6892],[17.1072,0.3597,330.6593],[17.0978,0.3739,333.315],[17.0908,0.38,333.4408],[17.0753,0.3872,334.9096],[17.0497,0.3942,336.5254],[17.0283,0.3819,332.5035],[16.95,0.3442,328.2522],[16.8811,0.3069,321.8],[16.8067,0.2717,324.8333],[16.77,0.2525,324.3318],[16.7424,0.2344,329.3973],[16.7899,0.1306,319.3631],[17.0542,-0.9556,296.0529],[16.9613,-1.1636,289.0],[16.9768,-1.1514,290.4251],[16.9904,-1.143,289.0],[17.0234,-1.1313,289.5935],[17.0412,-1.1231,289.5],[17.0562,-1.1119,292.2762],[17.0667,-1.107,289.5],[17.088,-1.089,290.0],[17.111,-1.074,290.0],[17.13,-1.064,290.5],[17.164,-1.052,291.0],[17.1827,-1.0482,291.0],[17.209,-1.047,291.0],[17.216,-1.049,291.5],[17.237,-1.047,291.5],[17.2548,-1.0408,292.7399],[17.2955,-1.0143,294.6528],[17.3178,-1.0058,295.3187],[17.3301,-0.9993,294.9199],[17.3412,-0.9905,292.0],[17.3851,-0.9424,293.0],[17.3931,-0.9369,293.5],[17.429,-0.903,293.5],[17.457,-0.876,294.3372],[17.468,-0.864,294.1211],[17.469,-0.861,293.5],[17.4871,-0.8427,296.6558],[17.4925,-0.839,298.8605],[17.4938,-0.8351,293.5],[17.5341,-0.7877,293.5],[17.5435,-0.7701,294.8981],[17.5536,-0.7593,293.5]]]]}
,"properties": {"GID_2": "COG.4.2_1","GID_0": "COG","country": "RepublicoftheCongo","GID_1": "COG.4_1","province": "Cuvette","NL_NAME_1": "NA","county": "Loukoléla","VARNAME_2": "Loukela","NL_NAME_2": "NA","TYPE_2": "District","ENGTYPE_2": "District","CC_2": "NA","HASC_2": "CG.CU.LO","name": "Loukoléla.county","area_km2": 5669.458,"hist_schema_id": "Elevation0-9000","hist_area_km2": {"300": 1785.022,"325": 3816.526,"350": 63.097,"375": 4.558,"400": 0.254}}}