{"type":"Feature","properties":{"ISO3166-1-Alpha-3":"COG","country":"Republic of the Congo","fill":"#F0F","id":"3342","name":"Cuvette"},
"geometry":{"type": "Polygon","coordinates": [[[15.76031,0.44473,339.2492],[15.7537,0.44499,347.8097],[15.74915,0.44752,368.5991],[15.74656,0.45165,371.7781],[15.74439,0.45703,392.7784],[15.74109,0.46152,386.4161],[15.73395,0.46529,379.2572],[15.7262,0.46617,357.6375],[15.71483,0.46571,349.728],[15.70956,0.46457,355.3974],[15.70574,0.46312,355.6753],[15.69871,0.4593,383.0103],[15.69675,0.45847,377.5411],[15.66636,0.45615,410.4252],[15.66243,0.45522,379.6765],[15.65448,0.45041,359.5221],[15.64941,0.44809,364.9535],[15.64321,0.44638,386.991],[15.63453,0.44504,419.3696],[15.62843,0.44307,427.232],[15.62378,0.44059,430.8243],[15.61841,0.43568,426.6909],[15.61634,0.43429,417.869],[15.61096,0.43243,399.9356],[15.59898,0.43067,362.8164],[15.59464,0.42969,358.6577],[15.59122,0.42845,361.2384],[15.58905,0.42736,365.2476],[15.58719,0.42561,373.1128],[15.58533,0.42323,377.3172],[15.58141,0.4145,393.1076],[15.57675,0.39874,353.9647],[15.57458,0.39388,348.1116],[15.5721,0.38943,374.7789],[15.5689,0.38587,365.8122],[15.5566,0.3777,347.4203],[15.55319,0.3746,335.8967],[15.53955,0.35801,357.4233],[15.53335,0.3545,355.4265],[15.52715,0.35357,354.0962],[15.52136,0.3545,347.633],[15.5166,0.35646,345.8531],[15.50772,0.36267,351.5598],[15.5012,0.36556,350.7973],[15.49077,0.36814,352.4943],[15.48053,0.3667,347.2606],[15.47516,0.36654,356.4338],[15.46999,0.36721,359.0286],[15.46617,0.36938,352.2355],[15.46224,0.37212,351.4042],[15.45759,0.37367,348.8884],[15.45294,0.37569,363.2446],[15.44012,0.37925,362.5173],[15.42937,0.38075,392.0863],[15.42235,0.38241,389.5369],[15.40746,0.38726,376.9735],[15.39506,0.38985,366.6631],[15.38824,0.38866,383.2895],[15.38183,0.38613,382.3065],[15.37646,0.38272,376.0883],[15.36778,0.37863,368.572],[15.36106,0.37801,366.8937],[15.35444,0.37812,369.6641],[15.33594,0.38029,390.2956],[15.30504,0.38861,363.5307],[15.30091,0.38773,363.2686],[15.29253,0.38427,354.0585],[15.2885,0.38561,349.9837],[15.28613,0.38928,356.333],[15.28613,0.39439,362.5515],[15.28799,0.40297,356.3184],[15.28819,0.40628,365.854],[15.28675,0.41016,352.7539],[15.2853,0.41145,357.0622],[15.2853,0.41145,357.0622],[15.26153,0.37708,365.5997],[15.23672,0.35528,377.6071],[15.20665,0.33864,431.3223],[15.1683,0.32169,437.202],[15.13399,0.30107,405.3799],[15.16293,0.24381,441.896],[15.22753,0.19658,400.6168],[15.24262,0.12873,380.8845],[15.1928,0.07503,353.3156],[15.11849,0.05095,365.0665],[15.04201,0.03643,369.1935],[15.0233,0.03695,389.142],[15.00449,0.03974,404.9827],[14.96553,0.03338,382.4951],[14.93028,0.03679,354.3521],[14.89752,0.03297,354.8672],[14.88832,-0.00419,366.8228],[14.8969,-0.04253,392.3138],[14.89721,-0.0586,378.7698],[14.89556,-0.07493,375.16],[14.90217,-0.09787,380.5287],[14.92935,-0.15482,395.7622],[14.93845,-0.19353,413.8347],[14.95033,-0.22557,445.7498],[14.98175,-0.24081,434.1208],[15.05534,-0.25022,421.9308],[15.08914,-0.26055,423.8238],[15.10392,-0.29487,403.0094],[15.15022,-0.47336,353.9876],[15.1434,-0.50803,381.7846],[15.12862,-0.54291,380.0416],[15.10929,-0.57562,374.5678],[15.05255,-0.63262,397.5929],[15.00976,-0.68792,418.9212],[15.16686,-0.8247,371.5374],[15.18536,-0.85767,380.4178],[15.16407,-0.89168,378.8214],[15.14567,-0.93539,388.4889],[15.04738,-1.04722,396.054],[14.9924,-1.09425,425.8761],[14.91736,-1.11125,465.5854],[14.72967,-1.11859,530.9559],[14.68844,-1.10939,522.6179],[14.66363,-1.12024,472.3903],[14.63996,-1.14334,549.2896],[14.56906,-1.16313,477.7755],[14.43943,-1.18573,550.3561],[14.45641,-1.20246,531.1599],[14.46416,-1.21538,569.0209],[14.46581,-1.22437,584.2882],[14.46478,-1.25558,559.2502],[14.46075,-1.27801,599.0109],[14.45713,-1.28762,598.3383],[14.45155,-1.29816,549.6088],[14.44432,-1.30633,562.9583],[14.43605,-1.31274,581.418],[14.42912,-1.31997,551.9476],[14.42633,-1.33103,554.9924],[14.43233,-1.35015,608.4961],[14.447,-1.36534,578.6599],[14.48214,-1.3886,612.9951],[14.48773,-1.40937,603.5228],[14.48059,-1.42084,601.1102],[14.46788,-1.42901,530.0608],[14.45631,-1.44017,510.7518],[14.45269,-1.44957,515.7682],[14.45103,-1.47366,592.2509],[14.43843,-1.50259,519.9238],[14.45155,-1.51562,564.296],[14.46271,-1.5336,611.9803],[14.46313,-1.54869,641.291],[14.43036,-1.55489,628.1355],[14.42396,-1.56357,640.5949],[14.41993,-1.57515,571.9424],[14.41321,-1.58528,623.576],[14.4037,-1.5922,656.8528],[14.39429,-1.59685,673.4198],[14.37383,-1.60409,619.5381],[14.36484,-1.61205,654.5444],[14.37145,-1.61949,625.122],[14.39088,-1.63034,630.8013],[14.40298,-1.67085,532.3669],[14.42003,-1.67612,578.5408],[14.44111,-1.67964,617.4367],[14.44876,-1.68625,657.3884],[14.4252,-1.70052,636.045],[14.4131,-1.71395,564.171],[14.4067,-1.73555,617.4976],[14.4036,-1.81524,601.9573],[14.3975,-1.84097,609.1331],[14.39688,-1.84945,614.4391],[14.40453,-1.89306,627.8535],[14.39729,-1.90681,633.0635],[14.37073,-1.92128,681.0942],[14.36857,-1.92212,664.647],[14.37125,-1.92856,682.3442],[14.37497,-1.98241,574.4941],[14.38086,-2.00184,525.2544],[14.38799,-2.01497,457.0751],[14.39595,-2.02013,462.5428],[14.41093,-2.02375,457.9433],[14.42695,-2.02582,454.8804],[14.43522,-2.02582,449.9446],[14.44297,-2.02499,476.0674],[14.48049,-2.01745,586.0623],[14.48793,-2.01393,549.3812],[14.49465,-2.00846,525.5398],[14.49878,-2.00412,521.1996],[14.50158,-2.00039,500.7423],[14.50933,-1.98396,492.4922],[14.5148,-1.97745,555.0518],[14.52235,-1.97239,571.5081],[14.5332,-1.9697,491.5739],[14.55005,-1.96215,465.0279],[14.56503,-1.95141,475.7975],[14.58756,-1.93053,454.1959],[14.62694,-1.87596,471.4521],[14.63097,-1.86862,456.4616],[14.64214,-1.83885,521.8145],[14.64699,-1.83131,469.6049],[14.66673,-1.80898,416.6151],[14.67852,-1.79017,434.537],[14.6872,-1.77881,446.4749],[14.715,-1.75183,407.6696],[14.72213,-1.74284,397.5299],[14.73546,-1.72062,408.4218],[14.73794,-1.71318,408.2151],[14.74146,-1.68982,385.1481],[14.74952,-1.67752,384.0697],[14.76275,-1.66243,378.6968],[14.81132,-1.62212,389.7834],[14.82435,-1.61354,376.6284],[14.87365,-1.59205,381.8631],[14.88181,-1.59019,381.1468],[14.89018,-1.58926,383.6888],[14.92894,-1.59215,381.4169],[14.94134,-1.58926,379.0401],[14.96863,-1.57768,381.5069],[14.98434,-1.56869,376.2295],[15.02196,-1.53314,363.4154],[15.09069,-1.44456,354.4069],[15.14257,-1.2823,355.8375],[15.16303,-1.2393,353.7947],[15.22856,-1.153,352.3669],[15.24944,-1.13554,352.1803],[15.29894,-1.11383,354.6026],[15.32137,-1.09947,349.5279],[15.32881,-1.09068,354.3138],[15.34049,-1.07187,352.6377],[15.34855,-1.0636,344.6844],[15.35258,-1.06298,347.3903],[15.36302,-1.06598,350.6275],[15.36778,-1.06495,347.9855],[15.38442,-1.05079,350.4902],[15.39878,-1.03425,363.8123],[15.427,-0.99105,353.6846],[15.44291,-0.97803,344.3378],[15.47847,-0.96666,340.2367],[15.49159,-0.95942,347.0015],[15.49862,-0.95694,345.3928],[15.50286,-0.95787,342.6833],[15.5133,-0.96346,343.5444],[15.51877,-0.96397,341.97],[15.53459,-0.95849,342.4238],[15.56425,-0.94361,337.357],[15.58006,-0.93824,322.0775],[15.59908,-0.937,336.6882],[15.65303,-0.95095,320.9587],[15.6923,-0.95446,330.3968],[15.70925,-0.95891,324.002],[15.72269,-0.97131,316.4729],[15.72786,-0.99115,327.9673],[15.72827,-1.01472,319.3735],[15.73209,-1.03787,330.5745],[15.7476,-1.05678,320.2067],[15.76641,-1.06433,318.8513],[15.8124,-1.07466,328.8918],[15.83369,-1.08386,313.3334],[15.84041,-1.09058,326.0505],[15.84392,-1.0974,313.9874],[15.84909,-1.10298,330.4638],[15.89539,-1.11642,321.7758],[15.90304,-1.11983,321.0819],[15.9172,-1.14122,318.6832],[15.92536,-1.15125,320.0457],[15.93301,-1.15135,321.2988],[15.94417,-1.14536,321.7316],[15.94738,-1.15486,318.5372],[15.948,-1.17791,322.7363],[15.96598,-1.1869,315.1794],[16.03016,-1.19321,318.3095],[16.06231,-1.20509,323.297],[16.09331,-1.2206,318.4486],[16.204,-1.29026,312.3398],[16.20989,-1.29625,313.2137],[16.21713,-1.30049,304.7413],[16.25568,-1.30514,316.8097],[16.26188,-1.30886,298.0],[16.26994,-1.31651,311.4779],[16.27428,-1.32364,311.2955],[16.28979,-1.35702,316.1412],[16.31139,-1.38534,304.0896],[16.34332,-1.4735,299.6344],[16.36813,-1.49645,307.2691],[16.4104,-1.49841,306.6738],[16.4043,-1.51474,305.2333],[16.41815,-1.52394,307.9482],[16.4352,-1.52931,305.6717],[16.43903,-1.53458,306.3506],[16.4413,-1.54233,300.8403],[16.4629,-1.54575,307.1217],[16.48915,-1.54513,305.386],[16.50548,-1.54037,301.0351],[16.52357,-1.5289,301.0942],[16.54393,-1.52714,303.2203],[16.56429,-1.5319,292.7927],[16.59375,-1.54378,307.2584],[16.59716,-1.54244,301.8871],[16.5984,-1.54357,299.5827],[16.60305,-1.55474,294.6019],[16.60212,-1.56859,290.11],[16.59736,-1.58357,286.8934],[16.60057,-1.59298,285.5],[16.62341,-1.59029,285.5],[16.65535,-1.59029,285.5],[16.65597,-1.59029,285.5],[16.6695,-1.56936,285.5],[16.69255,-1.52296,289.2628],[16.72552,-1.47996,286.5],[16.76273,-1.40586,287.375],[16.77926,-1.3824,289.4264],[16.79466,-1.3455,292.1162],[16.81782,-1.30416,291.8431],[16.82867,-1.27625,288.5],[16.83321,-1.26902,288.5],[16.83973,-1.26251,288.5],[16.86257,-1.24886,288.5],[16.90918,-1.21114,292.378],[16.9405,-1.17476,289.7196],[16.97956,-1.14024,289.9919],[17.00313,-1.11285,291.5653],[17.00592,-1.10675,289.0],[17.01202,-1.10427,289.0],[17.02256,-1.09704,296.6613],[17.02866,-1.09445,294.5146],[17.06049,-1.08918,305.1028],[17.10865,-1.07564,290.0],[17.17542,-1.04826,291.1645],[17.19485,-1.04298,291.0],[17.24539,-1.03585,292.1737],[17.29768,-1.02107,294.6421],[17.30802,-1.01498,295.2408],[17.32766,-0.99172,292.0],[17.33045,-0.98655,292.5],[17.35732,-0.97353,293.0],[17.36497,-0.96723,293.0],[17.38543,-0.94242,293.0],[17.41147,-0.91834,293.5],[17.54586,-0.75649,294.1729],[17.54542,-0.75623,293.5],[17.5417,-0.75406,293.5],[17.53136,-0.75044,293.5],[17.28053,-0.7461,297.8372],[17.26244,-0.743,295.9648],[17.25221,-0.73918,299.2675],[17.24167,-0.72884,296.6985],[17.24043,-0.70952,297.2811],[17.23805,-0.70425,294.054],[17.23402,-0.70177,295.5384],[17.22751,-0.69587,296.5023],[17.21893,-0.69081,295.6221],[17.21231,-0.69112,314.399],[17.20797,-0.68802,297.4919],[17.20332,-0.65154,321.1589],[17.20405,-0.64027,319.7352],[17.21521,-0.62074,317.505],[17.21376,-0.60844,317.5018],[17.20064,-0.56596,318.8465],[17.20146,-0.55955,312.1195],[17.221,-0.51408,318.3674],[17.22492,-0.49227,314.0581],[17.21728,-0.47336,318.9271],[17.20198,-0.45909,317.6725],[17.18193,-0.44524,323.8515],[17.16312,-0.44307,324.9104],[17.15175,-0.46374,317.4051],[17.13924,-0.4407,320.3369],[17.14658,-0.41393,323.2551],[17.17976,-0.3669,327.4203],[17.16229,-0.35243,305.4117],[17.14234,-0.34727,335.8136],[17.1349,-0.3392,297.5],[17.17066,-0.29735,312.2596],[17.17035,-0.28877,343.2415],[17.15516,-0.28505,306.8058],[17.15206,-0.27967,303.3382],[17.1533,-0.20247,319.1849],[17.16022,-0.1881,314.5031],[17.17593,-0.18262,327.4186],[17.1873,-0.17281,324.3685],[17.18524,-0.15069,322.1764],[17.17221,-0.11369,321.9423],[17.16818,-0.09498,324.4579],[17.16601,-0.0277,326.5188],[17.16239,-0.00796,326.3402],[17.14731,0.03907,323.6833],[17.14555,0.05757,322.2179],[17.15123,0.07038,327.863],[17.16095,0.0772,322.3652],[17.17232,0.08206,321.9944],[17.18317,0.08868,323.1113],[17.19144,0.09953,323.4754],[17.19175,0.10831,325.6069],[17.18854,0.11772,325.0593],[17.184,0.1417,325.699],[17.17345,0.16454,327.485],[17.17221,0.17363,326.4882],[17.1779,0.18521,323.6643],[17.18503,0.18547,325.406],[17.19268,0.18345,328.8324],[17.20022,0.18795,329.0228],[17.20301,0.19844,329.8625],[17.20425,0.20655,329.2436],[17.20301,0.21038,329.2103],[17.17686,0.25745,329.9014],[17.10648,0.35941,325.5151],[17.09139,0.3746,330.8499],[17.04953,0.39408,336.5254],[16.34146,0.04206,329.4073],[16.33836,0.04517,312.0471],[16.33526,0.04889,325.913],[16.33288,0.05354,327.1094],[16.33102,0.0585,318.7392],[16.32999,0.06346,318.7639],[16.32854,0.06749,323.5414],[16.32761,0.06945,327.1779],[16.32627,0.071,321.7912],[16.32141,0.07131,308.074],[16.29123,0.06883,315.6862],[16.28503,0.07018,326.2178],[16.28162,0.07297,312.7565],[16.27842,0.07669,322.6261],[16.27056,0.0893,325.0797],[16.26715,0.09271,318.6117],[16.26312,0.0955,325.3752],[16.24865,0.1017,326.0978],[16.24452,0.10428,331.1011],[16.24059,0.10728,326.9184],[16.23284,0.11431,318.7738],[16.22757,0.1171,310.6104],[16.21827,0.11855,319.8068],[16.21269,0.11772,311.1264],[16.20679,0.11565,313.6638],[16.18829,0.10656,319.1519],[16.17982,0.1048,316.1561],[16.17279,0.10459,307.5],[16.16731,0.10614,328.5287],[16.14799,0.11524,322.3776],[16.14189,0.11731,325.2372],[16.1329,0.11886,321.648],[16.12969,0.12134,325.5059],[16.12825,0.12392,322.5732],[16.13042,0.14686,314.6065],[16.13031,0.15549,329.7027],[16.12825,0.16521,328.9543],[16.12639,0.16971,326.7123],[16.1236,0.17322,326.8503],[16.12111,0.17518,325.2401],[16.11398,0.17942,333.3142],[16.11037,0.18211,329.5806],[16.10747,0.18547,324.1898],[16.1054,0.18976,327.9815],[16.10416,0.19415,330.2098],[16.10385,0.1973,324.8657],[16.1053,0.25249,321.9817],[16.10447,0.2573,332.958],[16.08639,0.29394,334.3159],[16.0805,0.30184,332.7573],[16.06851,0.31052,324.7997],[16.05466,0.32401,372.1541],[16.05032,0.32649,364.903],[16.04567,0.32866,349.5048],[16.00412,0.34148,334.8875],[15.98004,0.34628,334.9802],[15.97322,0.34856,339.0793],[15.96919,0.35125,331.4504],[15.96536,0.3544,334.7676],[15.96257,0.35832,333.1096],[15.9604,0.36287,333.7029],[15.95926,0.36866,331.8544],[15.95885,0.38726,343.7462],[15.95709,0.39233,341.4833],[15.95399,0.3961,337.751],[15.95048,0.39946,337.5211],[15.94128,0.40385,338.9628],[15.92113,0.41124,342.8407],[15.91658,0.41357,359.7651],[15.90821,0.41899,375.1979],[15.90449,0.42209,398.9383],[15.89798,0.42907,407.5891],[15.89363,0.4316,407.8714],[15.88919,0.43388,402.1968],[15.88506,0.43667,390.2104],[15.88154,0.43997,388.3548],[15.87534,0.44349,368.3153],[15.84248,0.44928,362.8242],[15.81777,0.44969,396.4518],[15.79338,0.45548,392.1468],[15.78842,0.45584,388.2316],[15.78491,0.45522,400.2073],[15.77633,0.45031,384.8839],[15.77013,0.44752,355.6246],[15.76031,0.44473,339.2492]]]}}