{"type": "Feature","bbox": [14.3719,-2.0264,17.5536,0.4675],"geometry": {"type": "MultiPolygon","coordinates": [[[[14.3986,-1.8757,619.9339],[14.3764,-1.8917,664.5138],[14.3722,-1.9356,587.0164],[14.3719,-1.9819,616.6896],[14.3764,-2.0064,464.7643],[14.3806,-2.0139,467.6885],[14.3881,-2.0189,468.9679],[14.4108,-2.0242,457.9433],[14.4358,-2.0264,448.7832],[14.4653,-2.0203,566.857],[14.4806,-2.0189,561.8773],[14.4886,-2.0156,519.9825],[14.5025,-1.9997,513.4562],[14.5128,-1.9764,546.7079],[14.52,-1.9706,588.2154],[14.5283,-1.9694,543.039],[14.5358,-1.9706,485.5962],[14.5572,-1.9578,431.641],[14.5808,-1.9381,460.4057],[14.6,-1.9156,452.9164],[14.6094,-1.8989,467.3413],[14.6228,-1.8831,460.1788],[14.6322,-1.8686,448.8688],[14.6356,-1.8539,495.0114],[14.6461,-1.8308,478.932],[14.6678,-1.8097,419.2088],[14.6828,-1.7758,482.3703],[14.6897,-1.7683,482.843],[14.7125,-1.7572,408.6952],[14.7186,-1.75,399.137],[14.7261,-1.7356,412.1069],[14.7369,-1.7206,399.7766],[14.7389,-1.7133,404.4114],[14.7408,-1.6897,385.1481],[14.7511,-1.6658,396.6502],[14.7578,-1.6581,384.1552],[14.8094,-1.6214,395.8982],[14.8653,-1.5944,401.3667],[14.8817,-1.5894,386.4329],[14.8906,-1.5886,383.6888],[14.9289,-1.5928,381.4169],[14.9369,-1.5922,378.5956],[14.9603,-1.5842,383.0936],[14.9678,-1.5867,370.4908],[15.0036,-1.5617,375.5783],[15.0206,-1.5303,369.4975],[15.03,-1.5194,364.3656],[15.0383,-1.5142,359.0001],[15.0553,-1.4967,404.8362],[15.0589,-1.4792,400.5955],[15.0639,-1.4706,413.3859],[15.0853,-1.4578,372.7966],[15.0956,-1.4478,365.7963],[15.1031,-1.4006,356.7343],[15.1061,-1.3894,349.0043],[15.1064,-1.3772,361.0067],[15.1111,-1.3683,360.1906],[15.1267,-1.3494,364.7455],[15.1314,-1.3406,351.3086],[15.1344,-1.3294,355.1953],[15.1397,-1.2933,345.9111],[15.1439,-1.2836,346.0621],[15.1544,-1.2667,363.8388],[15.1594,-1.2442,359.7564],[15.1639,-1.2344,357.8764],[15.1744,-1.2244,341.5001],[15.18,-1.2161,348.3029],[15.1869,-1.2097,354.3455],[15.2,-1.2022,352.9566],[15.2069,-1.1956,359.719],[15.2133,-1.1742,355.7489],[15.2233,-1.1564,341.2094],[15.2572,-1.1289,353.6127],[15.2828,-1.1203,351.0801],[15.2994,-1.1094,348.4886],[15.3236,-1.0994,353.6922],[15.3383,-1.0661,345.5014],[15.3425,-1.0633,346.2319],[15.3486,-1.0631,344.6844],[15.365,-1.0672,351.4126],[15.3747,-1.0633,348.0307],[15.39,-1.0456,346.8402],[15.4039,-1.0322,359.6393],[15.4069,-1.0211,363.9092],[15.4044,-0.9978,338.7892],[15.4086,-0.9883,331.461],[15.4164,-0.9822,341.6574],[15.4314,-0.9769,344.5476],[15.45,-0.975,345.0272],[15.4561,-0.9761,336.992],[15.4728,-0.9719,338.8028],[15.4808,-0.9667,342.6021],[15.4908,-0.9556,346.933],[15.4956,-0.9553,350.2944],[15.5078,-0.9633,343.9781],[15.5139,-0.9644,343.5444],[15.5436,-0.9614,329.1921],[15.5483,-0.9592,331.6715],[15.5589,-0.9442,337.9008],[15.5631,-0.9414,332.8209],[15.5733,-0.9383,333.5146],[15.5869,-0.9386,339.7651],[15.5925,-0.9372,339.1009],[15.6033,-0.94,336.0634],[15.6136,-0.9367,337.2971],[15.6253,-0.9444,336.6869],[15.6431,-0.9475,336.3637],[15.6528,-0.9517,317.5],[15.6711,-0.9542,329.4016],[15.6978,-0.955,331.1457],[15.7164,-0.9572,337.4984],[15.7211,-0.9594,339.2902],[15.7217,-0.9725,320.6113],[15.7275,-0.98,332.2681],[15.7283,-0.985,330.6061],[15.7211,-0.9986,331.019],[15.7219,-1.0047,315.4842],[15.7278,-1.0122,317.2037],[15.7292,-1.0178,318.3876],[15.7272,-1.0294,319.2231],[15.7297,-1.0336,331.7163],[15.7386,-1.0386,326.4455],[15.7442,-1.0467,316.6877],[15.7467,-1.0578,320.4511],[15.7494,-1.0622,321.9525],[15.7542,-1.0628,321.105],[15.7636,-1.0586,321.3012],[15.77,-1.0581,318.6705],[15.7878,-1.0611,315.8633],[15.81,-1.0731,331.2097],[15.8272,-1.0767,313.415],[15.8314,-1.0794,312.6882],[15.8367,-1.0878,314.3362],[15.8386,-1.0994,331.5431],[15.8456,-1.1064,316.4966],[15.8647,-1.1053,323.34],[15.8694,-1.1072,323.0269],[15.8753,-1.115,323.4084],[15.8794,-1.1178,324.6631],[15.8856,-1.1186,324.1472],[15.8981,-1.1172,321.2332],[15.9028,-1.1194,320.2658],[15.9069,-1.1222,318.6664],[15.9131,-1.13,319.0721],[15.925,-1.1586,317.5533],[15.9306,-1.1603,318.4477],[15.9369,-1.1458,308.7914],[15.9417,-1.1439,307.0],[15.9458,-1.1467,320.6441],[15.9497,-1.1633,317.4524],[15.9472,-1.1817,322.4378],[15.9528,-1.19,308.8828],[15.9631,-1.1936,319.8597],[15.9678,-1.1931,306.2595],[15.9756,-1.1867,318.6288],[15.9808,-1.1856,322.9951],[15.9975,-1.1969,319.6536],[16.0192,-1.1917,310.9639],[16.0308,-1.1922,313.2991],[16.0378,-1.1994,319.5358],[16.0425,-1.2014,311.3022],[16.0542,-1.2022,323.3546],[16.0631,-1.2139,320.5575],[16.0669,-1.2153,317.4246],[16.0706,-1.2122,318.8163],[16.0808,-1.2114,321.7906],[16.0808,-1.2239,313.5353],[16.0833,-1.2278,314.9095],[16.0886,-1.2292,314.4934],[16.1033,-1.2233,310.251],[16.1094,-1.2242,307.7884],[16.1189,-1.2353,310.3609],[16.1272,-1.2408,318.8921],[16.1478,-1.2481,321.0891],[16.1564,-1.2664,306.3478],[16.1658,-1.2708,316.2207],[16.1864,-1.2683,314.7198],[16.19,-1.2717,315.176],[16.1917,-1.2833,313.6207],[16.2014,-1.2878,314.4861],[16.2047,-1.2911,312.3398],[16.2025,-1.3014,317.5288],[16.2072,-1.3103,303.0891],[16.2133,-1.3111,314.145],[16.2244,-1.3017,306.4438],[16.2308,-1.3008,313.4352],[16.2356,-1.3033,314.3426],[16.2408,-1.3114,304.5232],[16.2456,-1.3136,315.7959],[16.2597,-1.3,312.8775],[16.2658,-1.3008,306.2061],[16.2692,-1.3042,311.0409],[16.27,-1.3358,311.7217],[16.2736,-1.3394,299.8699],[16.2839,-1.3428,311.435],[16.2919,-1.3622,315.1683],[16.3028,-1.3647,315.8033],[16.3061,-1.3686,311.377],[16.3114,-1.3836,301.4267],[16.3169,-1.3919,299.4337],[16.3178,-1.4181,300.9224],[16.3206,-1.4292,297.2579],[16.3264,-1.4442,313.2312],[16.3367,-1.4614,298.5685],[16.3458,-1.4847,308.7464],[16.3467,-1.4911,299.5524],[16.3494,-1.4953,307.75],[16.3533,-1.4981,305.9642],[16.3583,-1.4958,304.8242],[16.3611,-1.4919,305.8073],[16.3664,-1.4908,294.9701],[16.3719,-1.4919,305.8867],[16.3831,-1.5017,306.125],[16.3892,-1.5025,294.7195],[16.4089,-1.4953,305.9974],[16.4139,-1.5042,303.9204],[16.4025,-1.5069,305.4206],[16.3992,-1.51,306.4317],[16.4006,-1.5156,305.4534],[16.4039,-1.5192,292.0],[16.4142,-1.5228,292.0],[16.4403,-1.5244,301.8289],[16.4444,-1.5272,303.1782],[16.4447,-1.5333,305.1666],[16.4353,-1.5372,306.0622],[16.4319,-1.5408,305.9977],[16.4333,-1.5461,304.8895],[16.4578,-1.5494,302.9451],[16.4642,-1.5486,305.9744],[16.4708,-1.5419,304.5854],[16.4769,-1.5411,294.5615],[16.4894,-1.5497,306.5486],[16.495,-1.5497,305.6397],[16.4997,-1.5478,304.3143],[16.5075,-1.5347,300.9792],[16.5156,-1.5292,300.0975],[16.5397,-1.5303,302.8461],[16.5631,-1.5256,304.2277],[16.5728,-1.53,300.2713],[16.5781,-1.5383,289.6628],[16.5822,-1.5411,303.6223],[16.605,-1.5381,289.9136],[16.6031,-1.5611,297.0507],[16.5939,-1.5797,299.6212],[16.5933,-1.5858,288.6208],[16.5953,-1.5908,294.9209],[16.6064,-1.5933,298.3907],[16.6236,-1.5903,285.5],[16.6674,-1.5902,285.5],[16.7262,-1.4697,289.7625],[16.7415,-1.433,287.0],[16.7613,-1.3989,288.2321],[16.796,-1.331,288.0],[16.816,-1.301,291.1197],[16.846,-1.264,288.5],[16.882,-1.231,295.0627],[16.897,-1.214,293.0747],[16.9302,-1.186,289.0],[16.9768,-1.1514,290.4251],[16.9904,-1.143,289.0],[17.0234,-1.1313,289.5935],[17.0412,-1.1231,289.5],[17.0562,-1.1119,292.2762],[17.0667,-1.107,289.5],[17.088,-1.089,290.0],[17.111,-1.074,290.0],[17.13,-1.064,290.5],[17.164,-1.052,291.0],[17.1827,-1.0482,291.0],[17.209,-1.047,291.0],[17.216,-1.049,291.5],[17.237,-1.047,291.5],[17.2548,-1.0408,292.7399],[17.2955,-1.0143,294.6528],[17.3178,-1.0058,295.3187],[17.3301,-0.9993,294.9199],[17.3412,-0.9905,292.0],[17.3851,-0.9424,293.0],[17.3931,-0.9369,293.5],[17.429,-0.903,293.5],[17.457,-0.876,294.3372],[17.468,-0.864,294.1211],[17.469,-0.861,293.5],[17.4871,-0.8427,296.6558],[17.4925,-0.839,298.8605],[17.4938,-0.8351,293.5],[17.5341,-0.7877,293.5],[17.5435,-0.7701,294.8981],[17.5536,-0.7593,293.5],[17.5511,-0.7569,296.9052],[17.5336,-0.7503,293.5],[17.4864,-0.7514,295.4188],[17.2606,-0.745,294.615],[17.2414,-0.7467,308.9359],[17.2394,-0.7281,297.0216],[17.2439,-0.7119,297.3227],[17.2431,-0.7058,297.3362],[17.2406,-0.7014,296.2334],[17.2314,-0.6967,295.1136],[17.2089,-0.7019,305.5547],[17.2047,-0.6992,297.2936],[17.2033,-0.6936,300.8458],[17.205,-0.6758,314.7437],[17.2033,-0.6575,320.7915],[17.2147,-0.6206,317.505],[17.2125,-0.6086,317.5018],[17.2072,-0.5936,317.5287],[17.2011,-0.5792,316.2175],[17.1953,-0.5717,315.8239],[17.1944,-0.5656,314.58],[17.1953,-0.5594,317.1626],[17.1981,-0.5553,318.3303],[17.2072,-0.5506,321.8748],[17.205,-0.5456,321.9539],[17.2092,-0.5361,321.3295],[17.2214,-0.5281,323.5214],[17.2231,-0.5158,317.7337],[17.22,-0.4917,323.5711],[17.2175,-0.4808,311.1397],[17.2125,-0.4717,319.9439],[17.1961,-0.4608,319.3774],[17.1875,-0.4489,313.6852],[17.1786,-0.4442,317.4425],[17.1725,-0.4433,295.5],[17.1628,-0.4472,323.8922],[17.1508,-0.4631,317.4051],[17.1447,-0.4619,317.568],[17.1403,-0.4533,321.5389],[17.1394,-0.4469,319.3063],[17.1389,-0.4353,323.325],[17.1417,-0.4244,317.5032],[17.1686,-0.39,324.2344],[17.1731,-0.3803,318.3754],[17.1758,-0.3692,343.6648],[17.1719,-0.3597,333.4466],[17.1631,-0.3547,304.3444],[17.1439,-0.3561,305.7467],[17.1342,-0.3517,322.3379],[17.1314,-0.3478,316.4421],[17.1289,-0.3367,323.5873],[17.135,-0.3292,322.5752],[17.1586,-0.3183,343.3378],[17.1736,-0.3064,337.2368],[17.1744,-0.3003,312.9715],[17.1717,-0.2961,316.1859],[17.1678,-0.2933,328.5536],[17.1569,-0.2903,324.9659],[17.1533,-0.2869,315.08],[17.1508,-0.2622,321.6638],[17.1533,-0.2244,325.5808],[17.1514,-0.2061,312.3443],[17.1556,-0.1967,319.6777],[17.1761,-0.1831,327.8363],[17.1819,-0.175,332.1513],[17.1853,-0.1647,329.6617],[17.1864,-0.1517,323.2084],[17.1836,-0.1339,335.7342],[17.1703,-0.1064,324.1639],[17.1636,-0.0789,337.032],[17.1661,-0.0331,325.64],[17.1647,-0.0275,326.5188],[17.1594,-0.0194,328.8203],[17.1619,0.0128,329.3847],[17.1572,0.0286,330.6297],[17.1428,0.0486,324.4884],[17.1425,0.055,326.3477],[17.1439,0.0603,322.908],[17.15,0.0678,328.0023],[17.1844,0.0878,323.4941],[17.1919,0.0939,324.7058],[17.1931,0.1056,325.482],[17.1847,0.1247,328.8824],[17.1836,0.1425,327.7966],[17.1717,0.1717,326.5993],[17.1717,0.1786,325.7174],[17.1744,0.1822,326.2621],[17.18,0.1836,322.0838],[17.1936,0.1833,327.7068],[17.2044,0.1861,328.4579],[17.2081,0.1897,328.2499],[17.21,0.1944,324.8412],[17.2097,0.2006,328.1922],[17.2019,0.2178,326.5432],[17.1825,0.2497,330.0531],[17.1453,0.3042,328.5926],[17.1244,0.3286,326.1301],[17.1133,0.3442,324.6892],[17.1072,0.3597,330.6593],[17.0978,0.3739,333.315],[17.0908,0.38,333.4408],[17.0753,0.3872,334.9096],[17.0497,0.3942,336.5254],[17.0283,0.3819,332.5035],[16.95,0.3442,328.2522],[16.8811,0.3069,321.8],[16.8067,0.2717,324.8333],[16.77,0.2525,324.3318],[16.7424,0.2344,329.3973],[16.7378,0.2361,328.2575],[16.7019,0.2167,328.7303],[16.4856,0.11,322.1676],[16.3461,0.0383,316.289],[16.3411,0.0408,329.4073],[16.3344,0.0483,329.7234],[16.3275,0.0711,328.1626],[16.3106,0.0742,322.9972],[16.2897,0.0675,309.8158],[16.2853,0.0694,326.2178],[16.2811,0.0722,312.7565],[16.2711,0.0894,325.0797],[16.2675,0.0931,320.0403],[16.2636,0.0958,319.5904],[16.2483,0.1011,326.0978],[16.2403,0.1069,321.5786],[16.2308,0.1181,329.0437],[16.2267,0.1206,322.4602],[16.2208,0.1217,311.217],[16.2153,0.1203,311.1458],[16.2061,0.1156,313.6638],[16.1903,0.1039,323.2371],[16.185,0.1028,319.3781],[16.1781,0.1028,318.2355],[16.1672,0.1058,328.5287],[16.1447,0.1178,322.8514],[16.1256,0.1181,319.8341],[16.1283,0.1214,324.3398],[16.1306,0.1472,313.5845],[16.1286,0.1656,328.137],[16.1269,0.1706,325.5446],[16.1233,0.1742,326.8313],[16.1067,0.1844,332.049],[16.1039,0.1953,330.2098],[16.1036,0.2344,335.9885],[16.1053,0.2578,334.7368],[16.0811,0.3025,331.7918],[16.0683,0.31,323.3568],[16.0553,0.3247,372.1541],[16.0461,0.3289,366.6901],[16.0139,0.3381,333.6403],[16.0039,0.3483,334.8054],[15.9928,0.3472,337.051],[15.9886,0.3444,335.8636],[15.9731,0.3481,339.0793],[15.965,0.3536,339.5032],[15.9594,0.3622,333.7029],[15.96,0.3881,343.7462],[15.9578,0.3931,341.4833],[15.9511,0.3997,340.073],[15.9164,0.4133,359.7651],[15.9042,0.4214,394.0486],[15.8986,0.4297,407.5891],[15.8844,0.4361,380.5114],[15.8783,0.4436,360.1603],[15.8506,0.4508,354.9586],[15.8444,0.4517,361.6274],[15.8072,0.4472,389.4691],[15.8014,0.455,390.6581],[15.7906,0.4578,391.5873],[15.7642,0.4431,348.3284],[15.7519,0.4431,347.0304],[15.7458,0.4508,371.7781],[15.7433,0.4619,380.6617],[15.7353,0.4675,386.5457],[15.72,0.4636,348.7228],[15.7153,0.4656,349.728],[15.7097,0.4656,353.6341],[15.6967,0.4583,377.5411],[15.6797,0.455,377.1744],[15.6686,0.4567,421.2882],[15.6625,0.4558,384.5817],[15.6508,0.4472,366.7184],[15.6325,0.4456,426.7191],[15.6275,0.4433,429.7733],[15.6233,0.4408,432.2177],[15.6206,0.4367,428.0436],[15.6117,0.4319,405.9922],[15.5992,0.4308,362.8164],[15.5889,0.4278,365.2476],[15.5856,0.4242,378.1537],[15.5811,0.4147,393.1076],[15.5769,0.3983,353.9647],[15.5728,0.3889,374.7789],[15.5653,0.3825,347.9435],[15.5564,0.3781,347.4203],[15.5464,0.3667,350.3814],[15.5417,0.3578,354.0666],[15.5333,0.3525,354.8674],[15.5264,0.3525,356.3705],[15.5164,0.3561,345.2252],[15.5022,0.3692,350.2214],[15.4906,0.3714,349.9474],[15.4758,0.3656,353.1879],[15.47,0.3661,355.9975],[15.4631,0.3731,353.6011],[15.4575,0.3733,348.8884],[15.4386,0.3817,355.5083],[15.4264,0.3803,375.3806],[15.4119,0.3867,378.8224],[15.3903,0.3928,404.4129],[15.3756,0.3797,371.7336],[15.3661,0.3758,354.698],[15.3489,0.3794,374.527],[15.3353,0.3797,374.2918],[15.325,0.3831,354.2058],[15.3169,0.3889,396.0927],[15.3108,0.3894,400.8093],[15.3039,0.3897,364.9032],[15.2917,0.3817,362.3145],[15.2867,0.3839,359.7943],[15.2847,0.3886,360.0128],[15.2892,0.4088,360.8477],[15.2699,0.3933,363.6255],[15.26,0.3741,365.2369],[15.2182,0.3447,426.2306],[15.1715,0.3209,421.7641],[15.1573,0.3097,451.0341],[15.134,0.3011,405.3799],[15.1266,0.2815,432.9412],[15.1455,0.2601,403.5689],[15.1702,0.2406,458.8169],[15.1918,0.2271,416.51],[15.2158,0.2053,407.4284],[15.2275,0.1966,400.6168],[15.2417,0.1804,458.8659],[15.2481,0.1371,419.9981],[15.2401,0.1163,339.184],[15.221,0.0989,354.0608],[15.2061,0.0823,350.1426],[15.1666,0.0595,363.3317],[15.1381,0.0505,344.9642],[15.1101,0.0446,360.1163],[15.0716,0.0446,369.657],[15.0386,0.0356,371.5476],[15.0045,0.0398,404.9827],[14.9655,0.0334,382.4951],[14.9345,0.0339,359.8318],[14.9089,0.036,358.5745],[14.8976,0.033,354.8672],[14.8873,-0.0171,369.6022],[14.8981,-0.0454,384.4476],[14.8955,-0.0749,375.16],[14.9066,-0.1082,402.9832],[14.9128,-0.1195,396.0396],[14.9251,-0.1341,420.3839],[14.9367,-0.1743,412.0158],[14.9398,-0.2145,422.2851],[14.9549,-0.2314,421.9765],[14.9694,-0.238,441.0496],[15.0208,-0.2466,415.0241],[15.0886,-0.254,416.5168],[15.0971,-0.2726,432.9025],[15.1052,-0.2989,415.5901],[15.1086,-0.3242,403.7263],[15.1259,-0.3563,383.0842],[15.132,-0.3811,388.0838],[15.1429,-0.448,352.6053],[15.1542,-0.4696,345.574],[15.1434,-0.508,381.7846],[15.1348,-0.5195,398.7138],[15.1225,-0.5522,369.9028],[15.1121,-0.5722,371.7366],[15.0944,-0.5936,385.8138],[15.0714,-0.6152,404.592],[15.0591,-0.6232,409.6149],[15.008,-0.6859,423.9475],[15.0404,-0.7215,427.1608],[15.0703,-0.7482,423.6413],[15.1245,-0.7846,405.7731],[15.1518,-0.8099,387.8615],[15.1734,-0.8362,378.0383],[15.1854,-0.8576,380.4178],[15.1723,-0.8705,377.5914],[15.1446,-0.9379,387.2397],[15.1371,-0.9495,379.1461],[15.088,-0.992,418.3572],[15.0542,-1.0296,420.0211],[15.0393,-1.0686,434.8377],[15.0237,-1.0805,421.3376],[14.9761,-1.0978,394.1527],[14.9252,-1.1108,506.7636],[14.8304,-1.116,450.5113],[14.7959,-1.1132,465.934],[14.7753,-1.1187,490.4987],[14.7489,-1.1229,522.4796],[14.6749,-1.1063,508.7822],[14.6587,-1.1324,497.2704],[14.6366,-1.1453,545.5372],[14.4637,-1.1785,592.4019],[14.4707,-1.2079,545.8119],[14.4807,-1.2373,607.5266],[14.4856,-1.2601,615.7789],[14.483,-1.2835,582.0848],[14.4728,-1.3036,587.1156],[14.4596,-1.3236,585.1006],[14.4531,-1.3409,611.2489],[14.4523,-1.365,577.5532],[14.4573,-1.376,571.1848],[14.4677,-1.3866,555.2102],[14.4956,-1.4069,619.5399],[14.5009,-1.4147,582.7831],[14.5017,-1.4253,556.4824],[14.4985,-1.4329,558.9415],[14.4933,-1.4393,549.9801],[14.4719,-1.4537,568.9531],[14.4662,-1.4595,575.9421],[14.4626,-1.4698,586.8796],[14.4642,-1.4772,609.5961],[14.4822,-1.5077,588.4326],[14.4857,-1.5205,539.0378],[14.4853,-1.5336,613.9196],[14.4801,-1.5447,641.7209],[14.4737,-1.5525,606.2401],[14.4502,-1.5662,670.5163],[14.3843,-1.5971,604.6918],[14.377,-1.6017,594.169],[14.3745,-1.61,664.3055],[14.3769,-1.6208,631.5667],[14.3812,-1.6299,597.2078],[14.3918,-1.6446,613.2485],[14.4024,-1.6547,547.222],[14.4138,-1.6609,532.3429],[14.4214,-1.6629,540.5785],[14.4388,-1.6741,558.3569],[14.4475,-1.6832,635.7917],[14.4512,-1.6924,622.3387],[14.4488,-1.6986,587.5508],[14.442,-1.7073,609.8239],[14.4267,-1.7197,626.3903],[14.4208,-1.7287,629.8751],[14.4168,-1.7533,615.4595],[14.4138,-1.8039,608.2834],[14.405,-1.8281,618.9911],[14.4019,-1.8437,623.933],[14.4031,-1.8587,609.6161],[14.4006,-1.872,613.1747],[14.3986,-1.8757,619.9339]]]]}
,"properties": {"GID_1": "COG.4_1","GID_0": "COG","country": "RepublicoftheCongo","province": "Cuvette","VARNAME_1": "NA","NL_NAME_1": "NA","TYPE_1": "Région","ENGTYPE_1": "Region","CC_1": "NA","HASC_1": "CG.CU","ISO_1": "CG-8","name": "Cuvette.province","area_km2": 45060.33,"hist_schema_id": "Elevation0-9000","hist_area_km2": {"275": 123.25,"300": 8443.9,"325": 18716.87,"350": 5695.58,"375": 3582.05,"400": 2474.03,"425": 1638.68,"450": 959.51,"475": 673.0,"500": 596.67,"525": 601.11,"550": 541.91,"575": 415.73,"600": 259.66,"625": 169.68,"650": 114.05,"675": 48.65,"700": 5.98}}}