{"type":"Feature","properties":{"GID_2":"COG.4.5_1","GID_0":"COG","country":"RepublicoftheCongo","GID_1":"COG.4_1","province":"Cuvette","NL_NAME_1":"NA","county":"Okoyo","VARNAME_2":"NA","NL_NAME_2":"NA","TYPE_2":"District","ENGTYPE_2":"District","CC_2":"NA","HASC_2":"CG.CU.OK","name":"Okoyo.county"},
"geometry":{"type": "MultiPolygon","coordinates": [[[[14.3764,-1.8917,664.5138],[14.3722,-1.9356,587.0164],[14.3719,-1.9819,616.6896],[14.3764,-2.0064,464.7643],[14.3806,-2.0139,467.6885],[14.3881,-2.0189,468.9679],[14.4108,-2.0242,457.9433],[14.4358,-2.0264,448.7832],[14.4653,-2.0203,566.857],[14.4806,-2.0189,561.8773],[14.4886,-2.0156,519.9825],[14.5025,-1.9997,513.4562],[14.5128,-1.9764,546.7079],[14.52,-1.9706,588.2154],[14.5283,-1.9694,543.039],[14.5358,-1.9706,485.5962],[14.5572,-1.9578,431.641],[14.5808,-1.9381,460.4057],[14.6,-1.9156,452.9164],[14.6094,-1.8989,467.3413],[14.6228,-1.8831,460.1788],[14.6322,-1.8686,448.8688],[14.6356,-1.8539,495.0114],[14.6461,-1.8308,478.932],[14.6678,-1.8097,419.2088],[14.6828,-1.7758,482.3703],[14.6897,-1.7683,482.843],[14.7125,-1.7572,408.6952],[14.7186,-1.75,399.137],[14.7261,-1.7356,412.1069],[14.7369,-1.7206,399.7766],[14.7389,-1.7133,404.4114],[14.7408,-1.6897,385.1481],[14.7511,-1.6658,396.6502],[14.7578,-1.6581,384.1552],[14.8094,-1.6214,395.8982],[14.8653,-1.5944,401.3667],[14.8817,-1.5894,386.4329],[14.8906,-1.5886,383.6888],[14.9289,-1.5928,381.4169],[14.9369,-1.5922,378.5956],[14.9603,-1.5842,383.0936],[14.9678,-1.5867,370.4908],[15.0036,-1.5617,375.5783],[15.0206,-1.5303,369.4975],[15.03,-1.5194,364.3656],[15.0383,-1.5142,359.0001],[15.0553,-1.4967,404.8362],[15.0589,-1.4792,400.5955],[15.0639,-1.4706,413.3859],[15.0853,-1.4578,372.7966],[15.0956,-1.4478,365.7963],[15.1031,-1.4006,356.7343],[15.1061,-1.3894,349.0043],[15.1064,-1.3772,361.0067],[15.1111,-1.3683,360.1906],[15.1267,-1.3494,364.7455],[15.1314,-1.3406,351.3086],[15.1344,-1.3294,355.1953],[15.1397,-1.2933,345.9111],[15.1439,-1.2836,346.0621],[15.1544,-1.2667,363.8388],[15.1594,-1.2442,359.7564],[15.1639,-1.2344,357.8764],[15.1744,-1.2244,341.5001],[15.18,-1.2161,348.3029],[15.1869,-1.2097,354.3455],[15.2024,-1.1999,354.598],[15.1686,-1.1504,369.8709],[15.1225,-1.1095,429.9075],[15.1012,-1.1009,439.1545],[15.087,-1.0985,461.8308],[15.0687,-1.0899,462.3056],[15.0581,-1.0803,444.5458],[15.0474,-1.0472,396.054],[15.0393,-1.0686,434.8377],[15.0237,-1.0805,421.3376],[14.9761,-1.0978,394.1527],[14.9252,-1.1108,506.7636],[14.8304,-1.116,450.5113],[14.7959,-1.1132,465.934],[14.7753,-1.1187,490.4987],[14.7489,-1.1229,522.4796],[14.6749,-1.1063,508.7822],[14.6587,-1.1324,497.2704],[14.6366,-1.1453,545.5372],[14.4637,-1.1785,592.4019],[14.4707,-1.2079,545.8119],[14.4807,-1.2373,607.5266],[14.4856,-1.2601,615.7789],[14.483,-1.2835,582.0848],[14.4728,-1.3036,587.1156],[14.4596,-1.3236,585.1006],[14.4531,-1.3409,611.2489],[14.4523,-1.365,577.5532],[14.4573,-1.376,571.1848],[14.4677,-1.3866,555.2102],[14.4956,-1.4069,619.5399],[14.5009,-1.4147,582.7831],[14.5017,-1.4253,556.4824],[14.4985,-1.4329,558.9415],[14.4933,-1.4393,549.9801],[14.4719,-1.4537,568.9531],[14.4662,-1.4595,575.9421],[14.4626,-1.4698,586.8796],[14.4642,-1.4772,609.5961],[14.4822,-1.5077,588.4326],[14.4857,-1.5205,539.0378],[14.4853,-1.5336,613.9196],[14.4801,-1.5447,641.7209],[14.4737,-1.5525,606.2401],[14.4502,-1.5662,670.5163],[14.3843,-1.5971,604.6918],[14.377,-1.6017,594.169],[14.3745,-1.61,664.3055],[14.3769,-1.6208,631.5667],[14.3812,-1.6299,597.2078],[14.3918,-1.6446,613.2485],[14.4024,-1.6547,547.222],[14.4138,-1.6609,532.3429],[14.4214,-1.6629,540.5785],[14.4388,-1.6741,558.3569],[14.4475,-1.6832,635.7917],[14.4512,-1.6924,622.3387],[14.4488,-1.6986,587.5508],[14.442,-1.7073,609.8239],[14.4267,-1.7197,626.3903],[14.4208,-1.7287,629.8751],[14.4168,-1.7533,615.4595],[14.4138,-1.8039,608.2834],[14.405,-1.8281,618.9911],[14.4019,-1.8437,623.933],[14.4031,-1.8587,609.6161],[14.4006,-1.872,613.1747],[14.3986,-1.8757,619.9339],[14.3869,-1.8852,648.1928],[14.3764,-1.8917,664.5138]]]]}}