{"type":"Feature","properties":{"GID_2":"COG.8.4_1","GID_0":"COG","country":"RepublicoftheCongo","GID_1":"COG.8_1","province":"Niari","NL_NAME_1":"NA","county":"Louvakou(Loubomo)","VARNAME_2":"Louvakou","NL_NAME_2":"NA","TYPE_2":"District","ENGTYPE_2":"District","CC_2":"NA","HASC_2":"CG.NI.LO","name":"Louvakou(Loubomo).county"},
"geometry":{"type": "MultiPolygon","coordinates": [[[[12.7775,-4.3814,645.9629],[12.7877,-4.361,441.7714],[12.7876,-4.3368,412.162],[12.8216,-4.3182,376.5289],[12.9038,-4.3245,448.4673],[12.9364,-4.3291,416.6459],[12.965,-4.3291,363.3534],[12.98,-4.3385,353.0497],[13.011,-4.3356,340.9265],[12.9942,-4.3325,384.589],[12.9886,-4.325,363.424],[12.9764,-4.3028,360.9317],[12.9583,-4.2506,314.0119],[12.9456,-4.2256,301.6169],[12.9014,-4.1542,240.1912],[12.8839,-4.1308,246.7652],[12.8642,-4.0908,356.3882],[12.8586,-4.0831,370.411],[12.8303,-4.0531,371.6511],[12.785,-4.0206,336.1241],[12.7775,-4.0136,305.9359],[12.7239,-3.9519,193.933],[12.7142,-3.9369,187.5327],[12.6989,-3.9053,266.3732],[12.6889,-3.8894,221.9297],[12.6667,-3.86,204.4716],[12.6589,-3.8525,220.5107],[12.6356,-3.8361,230.3266],[12.5978,-3.8144,356.3195],[12.5947,-3.8075,337.7852],[12.5958,-3.8003,248.1624],[12.6036,-3.7978,205.3435],[12.6119,-3.7914,182.1765],[12.6219,-3.7761,160.6482],[12.6292,-3.7714,157.2346],[12.6436,-3.7683,153.8508],[12.6511,-3.7614,140.6058],[12.6475,-3.7539,143.8649],[12.635,-3.7392,139.0886],[12.6319,-3.7311,135.5243],[12.6306,-3.7158,133.618],[12.6261,-3.7081,134.3799],[12.6272,-3.7003,135.2329],[12.6417,-3.6919,124.4142],[12.6436,-3.6847,125.7689],[12.6406,-3.6772,132.815],[12.6303,-3.6628,129.0351],[12.6281,-3.6556,115.7424],[12.6172,-3.6047,113.2396],[12.6161,-3.5892,110.8107],[12.6175,-3.5742,108.2066],[12.6281,-3.5517,154.1355],[12.6414,-3.5381,151.5458],[12.6546,-3.5282,118.5491],[12.6305,-3.5135,158.8404],[12.6142,-3.4993,157.9713],[12.5889,-3.4959,102.8072],[12.5481,-3.4833,79.4921],[12.5289,-3.4844,69.3157],[12.5042,-3.5005,69.4207],[12.512,-3.5096,76.801],[12.5229,-3.5286,80.9773],[12.5077,-3.5446,83.5431],[12.4715,-3.5651,66.0086],[12.4014,-3.5761,119.2178],[12.3485,-3.5725,78.9039],[12.3341,-3.5997,69.4457],[12.3349,-3.6279,136.8732],[12.3274,-3.6671,132.7067],[12.3163,-3.6843,203.9063],[12.3015,-3.7193,227.493],[12.2819,-3.744,138.7217],[12.2548,-3.7703,70.0763],[12.225,-3.795,288.6944],[12.1825,-3.8659,271.8908],[12.1711,-3.894,143.1447],[12.18,-3.9067,128.8675],[12.1881,-3.9119,166.9344],[12.1953,-3.9144,207.5469],[12.2025,-3.9147,260.4308],[12.2103,-3.9181,263.8946],[12.2114,-3.925,131.9309],[12.2103,-3.9489,108.2239],[12.2178,-3.9517,45.8753],[12.2333,-3.9494,189.1011],[12.2481,-3.9511,146.9857],[12.2631,-3.9631,142.9221],[12.2719,-3.9661,216.9818],[12.2875,-3.9658,145.6877],[12.3197,-3.9775,117.7962],[12.3272,-3.9783,164.9316],[12.3439,-3.9767,175.7456],[12.3511,-3.9789,176.529],[12.3583,-3.9836,213.5457],[12.3825,-3.9908,318.1681],[12.39,-3.9964,259.6448],[12.3919,-4.0033,228.5059],[12.3875,-4.0178,213.4235],[12.3908,-4.0258,230.9544],[12.3983,-4.0297,330.0266],[12.4058,-4.0314,226.5481],[12.4289,-4.0311,232.2028],[12.4367,-4.0339,190.062],[12.4456,-4.0414,222.2104],[12.5036,-4.1108,279.5821],[12.5181,-4.1247,333.5444],[12.5231,-4.1325,300.6233],[12.5381,-4.1458,304.7579],[12.5431,-4.1611,373.3865],[12.5494,-4.1681,330.7091],[12.5564,-4.1722,331.8137],[12.5561,-4.1797,400.415],[12.5475,-4.2175,431.1711],[12.545,-4.2475,590.4329],[12.5475,-4.2569,747.8307],[12.5547,-4.2722,621.4667],[12.5858,-4.3172,558.7972],[12.5928,-4.3244,486.1328],[12.6081,-4.3314,480.6048],[12.6236,-4.3333,620.1127],[12.6878,-4.3294,598.1348],[12.7019,-4.3311,580.689],[12.7256,-4.3408,619.7247],[12.7422,-4.3531,603.1743],[12.7648,-4.3745,551.8866],[12.7775,-4.3814,645.9629]]]]}}