{"type":"Feature","properties":{"GID_2":"COG.1.3_1","GID_0":"COG","country":"RepublicoftheCongo","GID_1":"COG.1_1","province":"Bouenza","NL_NAME_1":"NA","county":"Madingou","VARNAME_2":"NA","NL_NAME_2":"NA","TYPE_2":"District","ENGTYPE_2":"District","CC_2":"NA","HASC_2":"CG.BO.MD","name":"Madingou.county"},
"geometry":{"type": "MultiPolygon","coordinates": [[[[13.6806,-4.3523,336.5394],[13.7312,-4.3323,672.1865],[13.78,-4.3221,590.6035],[13.8223,-4.3178,421.5061],[13.8755,-4.3148,197.5677],[13.8611,-4.307,204.027],[13.8437,-4.2917,233.0214],[13.8223,-4.2674,190.179],[13.7846,-4.2326,189.3678],[13.7527,-4.206,197.5319],[13.7209,-4.1753,176.0631],[13.7017,-4.1467,159.0937],[13.6704,-4.1082,217.1208],[13.6448,-4.0796,252.0295],[13.6268,-4.0662,236.8377],[13.6135,-4.0469,303.3582],[13.5771,-4.0312,251.8331],[13.5447,-4.0144,292.2537],[13.5252,-4.0124,343.3406],[13.5171,-4.003,232.0417],[13.5169,-4.0144,230.5278],[13.515,-4.0225,202.7366],[13.5008,-4.0369,191.3722],[13.4858,-4.0439,192.371],[13.4561,-4.0519,203.6567],[13.4411,-4.0542,186.6207],[13.4264,-4.0472,195.3842],[13.4,-4.0447,185.5372],[13.4261,-4.0721,251.9892],[13.4334,-4.098,293.1115],[13.4397,-4.1087,233.1871],[13.4375,-4.161,213.2072],[13.4415,-4.1985,191.3228],[13.4533,-4.255,344.8489],[13.4542,-4.2763,400.6515],[13.4669,-4.2988,444.3966],[13.4832,-4.3163,285.5623],[13.5092,-4.3072,317.4794],[13.5475,-4.2901,341.9239],[13.5698,-4.2919,345.9437],[13.6066,-4.289,337.948],[13.6514,-4.3265,276.6091],[13.6666,-4.3423,327.248],[13.6806,-4.3523,336.5394]]]]}}