{"type": "Feature","bbox": [14.6265,-4.6312,15.0849,-4.0298],"geometry": {"type": "MultiPolygon","coordinates": [[[[15.0849,-4.5121,320.5925],[15.0594,-4.4907,380.9177],[15.0461,-4.4672,392.5835],[15.0314,-4.4516,371.6697],[14.9884,-4.3945,393.9583],[14.9749,-4.3681,384.4829],[14.9935,-4.3388,382.9081],[14.9997,-4.312,392.6746],[15.0137,-4.2798,374.1605],[15.0446,-4.2329,320.0559],[15.0227,-4.2069,370.4061],[15.0286,-4.1895,479.989],[15.027,-4.1639,325.5768],[15.0097,-4.1543,459.2699],[15.0093,-4.1297,412.74],[14.9964,-4.1021,348.519],[14.999,-4.0762,468.618],[15.0028,-4.0586,459.959],[14.9933,-4.0441,612.2507],[14.975,-4.0358,604.553],[14.9526,-4.0316,482.4261],[14.921,-4.0298,385.3658],[14.9048,-4.0502,333.4174],[14.8786,-4.0503,334.5413],[14.8547,-4.0622,378.3387],[14.7635,-4.0814,462.5295],[14.7372,-4.0722,457.4937],[14.7079,-4.0835,463.9828],[14.6733,-4.0703,447.7546],[14.6487,-4.0851,432.407],[14.6351,-4.1114,432.0294],[14.6311,-4.1539,448.3619],[14.6417,-4.1806,442.491],[14.6265,-4.2443,435.8141],[14.6332,-4.285,445.9083],[14.6305,-4.2914,467.4499],[14.6423,-4.3251,459.8348],[14.6531,-4.337,444.4791],[14.6609,-4.3521,470.8702],[14.6595,-4.379,461.9282],[14.6714,-4.395,423.0773],[14.6911,-4.4153,407.4276],[14.7097,-4.4259,405.2803],[14.7335,-4.4332,455.7943],[14.7599,-4.4315,440.6939],[14.7855,-4.4367,398.0247],[14.8184,-4.452,413.2608],[14.8394,-4.4599,468.8719],[14.877,-4.522,429.031],[14.8934,-4.5775,385.2271],[14.9107,-4.5995,385.1549],[14.9393,-4.6172,379.0658],[14.967,-4.6312,344.8139],[14.9955,-4.6034,359.6095],[15.024,-4.5639,334.9659],[15.041,-4.5452,309.6393],[15.0525,-4.54,315.8555],[15.061,-4.5331,375.6546],[15.0628,-4.5293,309.7531],[15.0714,-4.5227,365.8943],[15.0757,-4.5173,327.7541],[15.0849,-4.5121,320.5925]]]]}
,"properties": {"GID_2": "COG.11.3_1","GID_0": "COG","country": "RepublicoftheCongo","GID_1": "COG.11_1","province": "Pool","NL_NAME_1": "NA","county": "Kinkala","VARNAME_2": "NA","NL_NAME_2": "NA","TYPE_2": "District","ENGTYPE_2": "District","CC_2": "NA","HASC_2": "CG.PO.KK","name": "Kinkala.county","area_km2": 2042.384,"hist_schema_id": "Elevation0-9000","hist_area_km2": {"225": 12.364,"250": 5.495,"275": 6.827,"300": 21.374,"325": 79.44,"350": 160.039,"375": 264.216,"400": 311.444,"425": 335.612,"450": 360.743,"475": 187.728,"500": 107.681,"525": 82.394,"550": 52.413,"575": 29.812,"600": 18.268,"625": 5.709,"650": 0.825}}}