{"type": "Feature","bbox": [12.5947,-4.8194,14.3739,-3.45],"geometry": {"type": "MultiPolygon","coordinates": [[[[13.7485,-4.4501,760.1401],[13.756,-4.4457,762.115],[13.7624,-4.4448,753.0631],[13.7633,-4.4423,753.9276],[13.7816,-4.4252,773.9963],[13.8077,-4.4221,803.3314],[13.8192,-4.4225,743.7685],[13.8288,-4.4278,742.4517],[13.8528,-4.4482,704.2799],[13.8551,-4.4539,696.6059],[13.8673,-4.4672,659.0922],[13.8694,-4.478,658.9495],[13.8768,-4.4946,673.5231],[13.8835,-4.5012,684.5748],[13.8957,-4.5081,659.9046],[13.9005,-4.5084,652.0789],[13.9086,-4.4667,652.0588],[13.9117,-4.4583,634.8077],[13.9178,-4.4503,611.4878],[13.9253,-4.4439,577.4415],[13.9333,-4.4136,276.5637],[13.9469,-4.3908,219.8831],[13.9492,-4.375,250.2701],[13.9461,-4.3508,230.7071],[13.9508,-4.3361,244.5797],[13.9533,-4.3131,203.8169],[13.9614,-4.2836,211.4752],[13.9706,-4.2722,222.71],[13.9839,-4.2647,197.5876],[14.0214,-4.2542,209.1576],[14.0394,-4.2467,218.51],[14.0433,-4.2439,179.8648],[14.0492,-4.2356,195.6982],[14.055,-4.2206,228.5831],[14.0586,-4.2164,219.072],[14.0817,-4.1983,212.4501],[14.0908,-4.1867,216.0079],[14.095,-4.1839,231.4838],[14.1231,-4.1781,233.4423],[14.1344,-4.1811,231.6774],[14.1453,-4.18,182.0673],[14.1475,-4.1753,199.4589],[14.1464,-4.1697,203.0564],[14.1475,-4.1642,203.1088],[14.1506,-4.1603,202.774],[14.1594,-4.1553,237.8676],[14.1644,-4.1467,195.4206],[14.1633,-4.1342,216.9143],[14.1578,-4.1258,227.1229],[14.1539,-4.1228,248.0853],[14.1528,-4.105,206.7895],[14.1467,-4.0972,281.4025],[14.1475,-4.0911,251.9677],[14.1561,-4.0719,242.2374],[14.1589,-4.0681,221.7075],[14.1747,-4.0633,203.1177],[14.1783,-4.06,211.5784],[14.1797,-4.0478,262.8713],[14.2019,-4.0425,239.4739],[14.2119,-4.0317,217.6776],[14.2203,-4.0261,218.2169],[14.2267,-4.0186,215.9498],[14.2275,-4.0058,268.0931],[14.2297,-4.0008,211.0488],[14.2367,-3.9942,251.9108],[14.2408,-3.9917,220.2074],[14.2469,-3.9908,238.5199],[14.2642,-4.0014,215.0712],[14.2675,-4.005,243.1105],[14.2778,-4.0083,219.6369],[14.2833,-4.0072,242.9008],[14.2925,-4.0025,252.7044],[14.3042,-4.0047,255.1],[14.3131,-4.0097,246.7789],[14.3192,-4.0106,209.9024],[14.3239,-4.0086,214.8997],[14.3264,-4.0039,240.0484],[14.3278,-3.9917,205.5898],[14.3319,-3.9889,249.0072],[14.3381,-3.9881,213.9222],[14.3453,-3.9814,251.0744],[14.3475,-3.9692,235.2249],[14.3508,-3.9656,258.8056],[14.355,-3.9628,237.6578],[14.3711,-3.9583,217.5184],[14.3739,-3.9542,255.4976],[14.3725,-3.9486,230.254],[14.3625,-3.9314,263.3837],[14.3636,-3.9197,269.1605],[14.3608,-3.91,292.4264],[14.3581,-3.9058,226.4144],[14.3497,-3.9003,232.528],[14.3453,-3.8842,300.3156],[14.3428,-3.8803,241.0022],[14.3339,-3.8753,331.4119],[14.3206,-3.8742,219.0821],[14.3064,-3.8611,380.4054],[14.2961,-3.8575,251.5902],[14.29,-3.85,281.6051],[14.2878,-3.845,246.6855],[14.2925,-3.8283,336.2808],[14.2911,-3.8175,392.7458],[14.2886,-3.8131,310.0678],[14.2803,-3.8078,374.7756],[14.2742,-3.8,400.1163],[14.2706,-3.7764,361.8277],[14.2672,-3.7661,363.1179],[14.2556,-3.7572,350.2434],[14.2414,-3.7506,429.6587],[14.2364,-3.7417,471.1044],[14.2364,-3.7347,442.2051],[14.2319,-3.7189,440.7487],[14.2206,-3.7028,451.4156],[14.2056,-3.69,463.367],[14.2036,-3.6853,425.522],[14.2036,-3.6797,448.0927],[14.2081,-3.6772,447.7788],[14.2208,-3.6767,446.4308],[14.2333,-3.6783,437.4937],[14.2458,-3.6772,445.4512],[14.2556,-3.6731,440.4668],[14.2578,-3.6681,445.6045],[14.2572,-3.6553,454.7579],[14.2775,-3.6478,453.4543],[14.2947,-3.6378,488.8661],[14.3086,-3.6347,439.0131],[14.3033,-3.6211,468.6555],[14.2894,-3.6089,444.2653],[14.2869,-3.5861,454.0262],[14.2831,-3.5783,459.3449],[14.2864,-3.5572,464.9207],[14.2803,-3.55,466.5135],[14.2725,-3.545,534.4453],[14.2683,-3.5375,477.2501],[14.2644,-3.5222,519.1248],[14.2594,-3.5147,513.5256],[14.2522,-3.515,524.3745],[14.2464,-3.5078,509.5121],[14.2389,-3.4933,511.2114],[14.2314,-3.4903,507.4777],[14.2072,-3.4931,555.022],[14.1989,-3.4897,501.8893],[14.1847,-3.4803,530.3317],[14.1617,-3.4711,507.9686],[14.1517,-3.4558,506.2418],[14.1447,-3.45,530.1913],[14.1372,-3.4531,539.6205],[14.1344,-3.4603,501.8505],[14.1322,-3.4767,518.1265],[14.1036,-3.4939,538.1945],[14.0961,-3.5006,573.3257],[14.0486,-3.5556,577.0068],[14.0419,-3.5703,582.1919],[14.0344,-3.5731,590.3192],[13.9958,-3.5781,606.6416],[13.9653,-3.5786,642.7712],[13.9578,-3.5767,585.9261],[13.9431,-3.5633,543.826],[13.9361,-3.5603,589.6874],[13.9242,-3.5586,550.9883],[13.8623,-3.5371,464.722],[13.8514,-3.5439,480.59],[13.8381,-3.5653,488.028],[13.8267,-3.5883,480.7748],[13.8169,-3.5992,478.8051],[13.8064,-3.6025,463.9648],[13.7933,-3.6017,459.2635],[13.7883,-3.6033,452.2341],[13.785,-3.6069,472.0271],[13.7778,-3.6206,467.5232],[13.7747,-3.6314,463.8543],[13.7789,-3.64,449.5172],[13.7808,-3.6517,452.7388],[13.77,-3.6686,457.9132],[13.7667,-3.6722,464.5657],[13.7619,-3.6739,464.4774],[13.7397,-3.6792,479.0271],[13.7319,-3.685,478.4966],[13.7256,-3.6925,477.4918],[13.7178,-3.7056,469.5312],[13.7169,-3.7117,483.023],[13.7222,-3.7269,451.6932],[13.7219,-3.7339,466.8389],[13.7194,-3.7381,450.5749],[13.7131,-3.7386,452.1717],[13.7036,-3.7342,461.5563],[13.6931,-3.7375,462.9938],[13.6669,-3.7303,440.2287],[13.6475,-3.7314,468.7837],[13.6436,-3.7339,464.4109],[13.6514,-3.7467,471.7076],[13.65,-3.7506,438.6005],[13.6356,-3.7564,475.9929],[13.6244,-3.7661,476.5676],[13.6194,-3.7681,466.9118],[13.6133,-3.7672,462.159],[13.5947,-3.7578,446.1765],[13.5886,-3.7572,445.0855],[13.5822,-3.7578,443.4788],[13.5697,-3.7658,467.9235],[13.5678,-3.7706,455.0143],[13.5692,-3.7961,477.4827],[13.5747,-3.7975,467.2487],[13.5867,-3.7956,459.4286],[13.5914,-3.7978,483.0863],[13.5861,-3.8119,486.7347],[13.5869,-3.8169,469.8545],[13.5908,-3.8197,462.5574],[13.6025,-3.8219,456.4594],[13.5961,-3.8411,481.498],[13.5908,-3.8489,494.1943],[13.5831,-3.8561,468.6374],[13.5675,-3.8628,493.0424],[13.5667,-3.8703,465.7482],[13.5694,-3.8847,490.9637],[13.5694,-3.9006,486.2854],[13.5639,-3.9081,377.8882],[13.5336,-3.9303,330.6751],[13.5267,-3.9378,295.9107],[13.5225,-3.9458,278.7513],[13.5203,-3.96,277.9983],[13.5217,-3.9831,250.0392],[13.5175,-3.9989,224.1281],[13.5169,-4.0144,230.5278],[13.515,-4.0225,202.7366],[13.5008,-4.0369,191.3722],[13.4858,-4.0439,192.371],[13.4561,-4.0519,203.6567],[13.4411,-4.0542,186.6207],[13.4264,-4.0472,195.3842],[13.3881,-4.0439,177.5645],[13.3806,-4.0411,169.3727],[13.3736,-4.0339,172.0466],[13.3697,-4.0267,169.0383],[13.3622,-4.0017,175.4048],[13.3531,-3.9781,304.1673],[13.3517,-3.9703,214.1544],[13.3528,-3.9625,209.8831],[13.3622,-3.9475,219.9144],[13.3578,-3.94,323.608],[13.3506,-3.9328,317.1384],[13.3481,-3.925,429.5569],[13.3406,-3.9208,426.7503],[13.3406,-3.9283,302.9729],[13.3353,-3.9356,261.4033],[13.3275,-3.9325,253.258],[13.3125,-3.9222,248.536],[13.3047,-3.9219,272.8253],[13.2903,-3.9297,264.7648],[13.2739,-3.9317,314.509],[13.245,-3.9111,374.7178],[13.23,-3.9053,292.6442],[13.2231,-3.9044,288.8962],[13.215,-3.9056,281.9465],[13.2067,-3.9092,289.3034],[13.1769,-3.9289,280.165],[13.1617,-3.9314,217.6884],[13.1378,-3.9203,253.6536],[13.1289,-3.9194,324.8833],[13.0911,-3.9231,288.5468],[13.0756,-3.9225,224.4345],[13.0528,-3.9297,313.4147],[13.0456,-3.9306,237.4247],[13.0306,-3.9292,160.3838],[13.0219,-3.925,160.0625],[13.0175,-3.9172,155.5094],[13.0125,-3.9031,260.0652],[12.9983,-3.9008,145.2158],[12.9906,-3.8969,159.2575],[12.9875,-3.8814,167.084],[12.9842,-3.8728,156.9489],[12.9769,-3.8692,167.8187],[12.9689,-3.8689,218.1097],[12.9614,-3.8708,241.5434],[12.9531,-3.87,156.1187],[12.9447,-3.8633,189.762],[12.9192,-3.8339,195.935],[12.9119,-3.8322,118.2716],[12.9047,-3.8339,125.6386],[12.8978,-3.8381,177.3602],[12.8942,-3.8364,190.1031],[12.8914,-3.8253,208.0304],[12.8928,-3.8131,146.9388],[12.8917,-3.8003,162.6807],[12.8956,-3.7833,106.0801],[12.8936,-3.7786,124.071],[12.8819,-3.7761,175.3091],[12.8792,-3.7722,181.2418],[12.8761,-3.7617,131.9352],[12.8858,-3.7508,190.4652],[12.8869,-3.7322,108.576],[12.8744,-3.7319,205.9523],[12.8711,-3.7286,131.4527],[12.8692,-3.7167,144.4567],[12.8714,-3.705,116.9898],[12.8697,-3.7003,105.2697],[12.8656,-3.6975,111.6978],[12.8625,-3.6731,132.7574],[12.855,-3.6669,155.7117],[12.84,-3.6611,119.4851],[12.8364,-3.6578,120.8012],[12.8367,-3.6453,115.9673],[12.8336,-3.6417,113.1815],[12.8239,-3.6375,106.4261],[12.8136,-3.6269,236.1107],[12.8119,-3.6153,122.3521],[12.8144,-3.5981,119.7341],[12.8025,-3.5983,126.5171],[12.7978,-3.5964,321.7768],[12.7958,-3.5917,239.9471],[12.7986,-3.5875,136.3841],[12.8078,-3.5828,84.3344],[12.8083,-3.5781,118.7356],[12.805,-3.5744,123.2408],[12.7947,-3.5708,106.3266],[12.775,-3.5561,196.1333],[12.7694,-3.5561,223.7032],[12.7556,-3.5628,217.1196],[12.7233,-3.5639,106.8283],[12.7178,-3.5628,93.5592],[12.7139,-3.5528,188.2393],[12.7139,-3.5472,123.5018],[12.7158,-3.5425,99.2665],[12.7203,-3.54,101.1024],[12.7269,-3.54,81.8817],[12.7306,-3.5367,94.8284],[12.7258,-3.5275,124.6473],[12.7156,-3.5239,272.2592],[12.6956,-3.5244,277.4747],[12.6872,-3.5364,88.9093],[12.6808,-3.5372,141.5232],[12.6614,-3.5367,110.9737],[12.6569,-3.5347,98.9384],[12.6546,-3.5282,118.5491],[12.6414,-3.5381,151.5458],[12.6281,-3.5517,154.1355],[12.6175,-3.5742,108.2066],[12.6161,-3.5892,110.8107],[12.6172,-3.6047,113.2396],[12.6303,-3.6628,129.0351],[12.6406,-3.6772,132.815],[12.6436,-3.6847,125.7689],[12.6417,-3.6919,124.4142],[12.6272,-3.7003,135.2329],[12.6261,-3.7081,134.3799],[12.6306,-3.7158,133.618],[12.6319,-3.7311,135.5243],[12.635,-3.7392,139.0886],[12.6475,-3.7539,143.8649],[12.6511,-3.7614,140.6058],[12.6436,-3.7683,153.8508],[12.6292,-3.7714,157.2346],[12.6219,-3.7761,160.6482],[12.6119,-3.7914,182.1765],[12.6036,-3.7978,205.3435],[12.5958,-3.8003,248.1624],[12.5947,-3.8075,337.7852],[12.5978,-3.8144,356.3195],[12.6356,-3.8361,230.3266],[12.6589,-3.8525,220.5107],[12.6667,-3.86,204.4716],[12.6889,-3.8894,221.9297],[12.6989,-3.9053,266.3732],[12.7142,-3.9369,187.5327],[12.7239,-3.9519,193.933],[12.7775,-4.0136,305.9359],[12.785,-4.0206,336.1241],[12.8303,-4.0531,371.6511],[12.8586,-4.0831,370.411],[12.8642,-4.0908,356.3882],[12.8839,-4.1308,246.7652],[12.9014,-4.1542,240.1912],[12.9456,-4.2256,301.6169],[12.9583,-4.2506,314.0119],[12.9764,-4.3028,360.9317],[12.9942,-4.3325,384.589],[13.0022,-4.335,354.9797],[13.025,-4.3367,378.5108],[13.0328,-4.3394,374.8182],[13.04,-4.3467,410.3053],[13.0458,-4.3681,363.1476],[13.0494,-4.3753,395.2875],[13.0567,-4.3781,428.7411],[13.0644,-4.3786,426.2784],[13.0806,-4.3753,350.5375],[13.0967,-4.3817,337.3541],[13.1197,-4.375,267.5641],[13.1269,-4.3772,279.8134],[13.1333,-4.3844,284.9297],[13.1411,-4.3883,286.0681],[13.17,-4.3844,196.9663],[13.1931,-4.3978,263.8124],[13.2003,-4.395,201.1958],[13.2078,-4.3947,212.6038],[13.2236,-4.4047,171.4246],[13.2311,-4.4047,172.707],[13.2469,-4.4,177.0362],[13.2542,-4.4006,176.2504],[13.2611,-4.4039,197.6432],[13.2681,-4.4122,177.9566],[13.2869,-4.4503,208.4503],[13.3147,-4.4892,255.9409],[13.3219,-4.4939,255.9515],[13.3253,-4.5025,257.9156],[13.3242,-4.5172,273.2639],[13.3289,-4.525,279.7173],[13.3442,-4.5328,224.6077],[13.3469,-4.5408,219.9691],[13.3472,-4.5483,250.6802],[13.3517,-4.5556,247.0821],[13.3589,-4.5625,229.0847],[13.3628,-4.5697,255.4617],[13.3706,-4.5728,262.8611],[13.3775,-4.5781,281.0061],[13.3822,-4.5861,297.8755],[13.3814,-4.6083,298.7867],[13.3828,-4.6164,288.581],[13.3861,-4.6247,290.611],[13.3922,-4.6322,261.6846],[13.3994,-4.635,269.4592],[13.4158,-4.6356,306.9434],[13.4239,-4.6378,283.1208],[13.4461,-4.6556,313.8242],[13.475,-4.6736,355.2615],[13.4983,-4.6906,327.3767],[13.5356,-4.7078,310.6123],[13.5658,-4.7275,339.693],[13.5706,-4.7353,367.5467],[13.575,-4.7497,560.0909],[13.5775,-4.7722,436.0464],[13.5786,-4.8179,454.0107],[13.5823,-4.8194,451.968],[13.5944,-4.8138,466.4856],[13.6013,-4.8025,469.5427],[13.6074,-4.781,459.4141],[13.6307,-4.7423,388.1031],[13.6352,-4.7395,355.1968],[13.6497,-4.7406,372.7781],[13.6582,-4.7491,345.7039],[13.6634,-4.7513,364.2537],[13.6732,-4.7626,420.2077],[13.6785,-4.764,463.7148],[13.6856,-4.7686,414.3356],[13.6902,-4.7683,380.559],[13.6924,-4.7593,350.0608],[13.6923,-4.7484,346.8961],[13.6895,-4.7401,344.5793],[13.6784,-4.7269,329.1177],[13.6807,-4.7195,327.5753],[13.689,-4.7191,310.2427],[13.7099,-4.7246,306.3517],[13.7169,-4.725,309.7079],[13.7225,-4.7205,324.2235],[13.7263,-4.7112,309.7727],[13.7292,-4.7091,317.1834],[13.7315,-4.7033,332.2585],[13.7321,-4.6955,363.6711],[13.7308,-4.6858,314.4442],[13.7233,-4.6788,327.3037],[13.7132,-4.6734,429.2388],[13.7114,-4.6691,376.3275],[13.7107,-4.6555,304.3963],[13.7163,-4.6509,312.2671],[13.7302,-4.6005,545.3362],[13.7354,-4.5931,526.4903],[13.7482,-4.5673,501.9583],[13.7502,-4.5578,493.5737],[13.7483,-4.5503,526.6455],[13.7506,-4.5382999999999996,504.7459],[13.7501,-4.5321,534.397],[13.7462,-4.524,530.2416],[13.7386,-4.5155,586.3308],[13.7305,-4.4939,733.5428],[13.7304,-4.4693,727.4899],[13.7359,-4.4578,745.7922],[13.7485,-4.4501,760.1401]]]]}
,"properties": {"GID_1": "COG.1_1","GID_0": "COG","country": "RepublicoftheCongo","province": "Bouenza","VARNAME_1": "NA","NL_NAME_1": "NA","TYPE_1": "Région","ENGTYPE_1": "Region","CC_1": "NA","HASC_1": "CG.BO","ISO_1": "CG-11","name": "Bouenza.province","area_km2": 12573.587,"hist_schema_id": "Elevation0-9000","hist_area_km2": {"75": 7.385,"100": 88.156,"125": 484.901,"150": 940.548,"175": 1204.208,"200": 1084.377,"225": 794.635,"250": 584.596,"275": 640.407,"300": 659.012,"325": 666.752,"350": 582.43,"375": 481.478,"400": 385.802,"425": 528.564,"450": 786.245,"475": 719.279,"500": 390.46,"525": 270.135,"550": 318.969,"575": 331.415,"600": 245.321,"625": 169.564,"650": 82.851,"675": 42.598,"700": 21.14,"725": 20.78,"750": 20.843,"775": 15.051,"800": 5.094,"825": 0.592}}}