{"type":"Feature","properties":{"ISO3166-1-Alpha-3":"COG","country":"Republic of the Congo","fill":"#F0F","id":"2626","name":"Bouenza"},
"geometry":{"type": "Polygon","coordinates": [[[14.2248,-3.67843,444.1819],[14.23947,-3.67647,450.8065],[14.24898,-3.66903,450.8102],[14.26293,-3.65239,437.3229],[14.27058,-3.64918,444.3878],[14.27802,-3.64712,463.2344],[14.30334,-3.63358,455.8985],[14.30748,-3.63234,442.5869],[14.305,-3.62696,442.0407],[14.30045,-3.61962,463.1234],[14.29291,-3.61001,446.0399],[14.28929,-3.60154,441.5854],[14.28433,-3.57859,452.7793],[14.28464,-3.56423,490.7816],[14.28309,-3.55668,454.7472],[14.27833,-3.54862,463.34],[14.2712,-3.5388,481.142],[14.26231,-3.52247,510.2228],[14.25704,-3.51503,512.0673],[14.24939,-3.50842,519.5092],[14.24309,-3.50025,521.7415],[14.22862,-3.49364,527.8881],[14.20723,-3.48961,511.859],[14.16919,-3.47421,523.3629],[14.16237,-3.46956,512.4409],[14.15049,-3.45808,509.7899],[14.14408,-3.45581,528.8808],[14.13726,-3.46108,505.7303],[14.12992,-3.47524,519.4749],[14.12434,-3.48061,531.0336],[14.10418,-3.49395,538.1945],[14.09633,-3.50035,573.3257],[14.0401,-3.56857,583.7908],[14.03246,-3.57229,606.8318],[14.02315,-3.57477,593.9707],[13.98068,-3.57849,618.2435],[13.97179,-3.57735,624.0276],[13.96145,-3.57436,627.7627],[13.94574,-3.56671,562.5606],[13.93355,-3.56299,580.4994],[13.90544,-3.56051,616.6116],[13.89593,-3.55865,528.1265],[13.86027,-3.53839,478.6485],[13.82224,-3.58955,463.9733],[13.80498,-3.60236,463.9648],[13.79774,-3.60381,448.7538],[13.78854,-3.60722,461.3049],[13.78358,-3.61146,457.4481],[13.78007,-3.6159,461.5593],[13.7779,-3.62076,467.5232],[13.77635,-3.62551,449.3734],[13.77583,-3.63079,465.6267],[13.77676,-3.63544,459.8052],[13.77738,-3.64195,453.1965],[13.77666,-3.6498,454.3727],[13.77201,-3.66252,486.9951],[13.7687,-3.6683,455.2308],[13.76529,-3.67192,464.5657],[13.75382,-3.67605,447.8017],[13.74524,-3.68029,453.8972],[13.73129,-3.69001,531.3792],[13.72467,-3.69714,490.4323],[13.71919,-3.7051,464.4576],[13.71816,-3.71119,487.4796],[13.71857,-3.72442,482.8561],[13.71723,-3.73311,445.7755],[13.71299,-3.736,451.0604],[13.70834,-3.73641,456.6323],[13.70328,-3.73548,466.9526],[13.69315,-3.73641,462.9938],[13.68819,-3.736,445.0209],[13.67279,-3.73114,451.6151],[13.66586,-3.73073,442.0884],[13.65842,-3.73155,454.026],[13.64953,-3.73435,460.618],[13.64798,-3.73838,483.7821],[13.64798,-3.7485,451.0132],[13.64364,-3.75274,479.1996],[13.627,-3.76308,477.2035],[13.62008,-3.76576,478.6509],[13.61357,-3.76618,479.3294],[13.60871,-3.76463,484.3096],[13.60427,-3.76235,462.4692],[13.59755,-3.76101,445.202],[13.59,-3.7606,439.3764],[13.57677,-3.76401,428.9692],[13.57181,-3.76587,456.3244],[13.56871,-3.76814,459.1342],[13.56809,-3.77021,455.0143],[13.56789,-3.77248,451.744],[13.56933,-3.78902,469.2889],[13.57119,-3.79388,472.2396],[13.57553,-3.79605,465.1732],[13.5806,-3.79667,478.2922],[13.58577,-3.79646,445.1252],[13.58949,-3.79718,462.4489],[13.59073,-3.79811,462.9244],[13.59093,-3.79966,449.8682],[13.58763,-3.81186,467.5414],[13.58835,-3.8161,481.7963],[13.59186,-3.81889,466.0175],[13.60003,-3.8222,473.9392],[13.60023,-3.82561,467.1062],[13.59775,-3.83181,468.6877],[13.59,-3.84504,488.0213],[13.58173,-3.85444,497.3773],[13.57212,-3.86292,470.0067],[13.56882,-3.87015,462.1899],[13.5682,-3.87739,482.5656],[13.5684,-3.88565,490.9637],[13.56696,-3.89444,499.2209],[13.56034,-3.90694,378.1247],[13.53378,-3.93361,333.099],[13.52572,-3.94384,290.456],[13.52117,-3.95283,298.8777],[13.52055,-3.96038,278.8274],[13.52117,-3.97578,241.6319],[13.52076,-3.98332,250.0392],[13.5128,-4.02063,194.7493],[13.50784,-4.0288,205.2608],[13.50246,-4.0349,193.2282],[13.49843,-4.03779,190.3841],[13.48582,-4.04347,192.371],[13.47104,-4.04812,192.0743],[13.45399,-4.05154,219.4905],[13.44304,-4.05216,187.1254],[13.41069,-4.04564,174.8565],[13.39539,-4.0444,179.446],[13.38795,-4.04265,170.5996],[13.38092,-4.03934,164.3764],[13.37472,-4.03335,166.9114],[13.37038,-4.02611,178.3112],[13.35374,-3.97805,252.7433],[13.35301,-3.9703,214.1544],[13.35425,-3.96265,206.1619],[13.35684,-3.95511,218.765],[13.3586,-3.94756,257.2598],[13.35622,-3.94012,323.608],[13.35126,-3.93299,307.2366],[13.34681,-3.92803,348.8058],[13.34041,-3.92627,340.0427],[13.33441,-3.93082,316.0449],[13.32728,-3.92999,259.3632],[13.30826,-3.92617,249.0918],[13.28346,-3.92999,291.2934],[13.27416,-3.92979,330.6573],[13.26692,-3.92648,345.569],[13.2448,-3.9118,360.621],[13.23302,-3.91087,316.7964],[13.21783,-3.91273,285.2155],[13.17359,-3.92782,234.6655],[13.1615,-3.92979,229.4878],[13.13742,-3.92141,268.2665],[13.12926,-3.92007,311.6998],[13.1215,-3.91976,246.5117],[13.06952,-3.92462,224.2319],[13.05133,-3.92803,301.6536],[13.04006,-3.92865,207.8429],[13.03045,-3.92762,170.5491],[13.02342,-3.92338,160.6786],[13.01856,-3.91707,154.3835],[13.01505,-3.91067,224.8148],[13.01102,-3.90508,191.4698],[13.00585,-3.9024,178.2537],[13.00079,-3.90085,154.4353],[12.99676,-3.89909,156.8583],[12.9919,-3.89516,157.0569],[12.9888,-3.88855,152.5531],[12.98477,-3.88162,148.8695],[12.97815,-3.87522,191.4518],[12.95449,-3.86788,157.7862],[12.94539,-3.86261,188.964],[12.9426,-3.85992,133.5239],[12.93082,-3.85641,137.3913],[12.89981,-3.83222,192.0932],[12.8901,-3.81083,137.3763],[12.8901,-3.77331,102.4995],[12.87914,-3.76804,128.4922],[12.8748,-3.76287,131.9352],[12.87956,-3.75553,167.0847],[12.88348,-3.75088,209.1273],[12.8901,-3.73166,151.7341],[12.87749,-3.72835,133.562],[12.86953,-3.71853,159.5752],[12.85444,-3.67306,175.3463],[12.85,-3.66603,109.8598],[12.84173,-3.65662,109.9103],[12.83935,-3.65197,93.3557],[12.83801,-3.64091,149.6483],[12.83553,-3.63544,132.8391],[12.83129,-3.63358,103.287],[12.81827,-3.63203,101.1738],[12.81444,-3.62924,202.1812],[12.81176,-3.61446,102.4804],[12.81238,-3.60216,117.5094],[12.80897,-3.59306,97.315],[12.79388,-3.58769,113.124],[12.80762,-3.58087,102.4246],[12.79594,-3.56226,101.7609],[12.77941,-3.55772,133.823],[12.73931,-3.55978,147.004],[12.71812,-3.54986,165.1455],[12.7236,-3.52454,165.4948],[12.70117,-3.51937,264.8778],[12.69218,-3.52154,169.9342],[12.67223,-3.53084,107.4086],[12.66014,-3.53312,99.3271],[12.65693,-3.52816,99.5051],[12.6311,-3.54986,160.8626],[12.62241,-3.56195,132.1432],[12.61983,-3.56857,109.8987],[12.61797,-3.57642,105.6687],[12.61673,-3.58738,111.5597],[12.61735,-3.60474,113.2396],[12.6282,-3.65559,115.7424],[12.63957,-3.68246,124.7634],[12.63843,-3.69094,123.7079],[12.63006,-3.70737,137.3963],[12.63078,-3.7237,133.332],[12.63285,-3.73135,135.8759],[12.64484,-3.75874,142.729],[12.64184,-3.76566,149.236],[12.63626,-3.77,152.8586],[12.62923,-3.773,159.6414],[12.62262,-3.77755,165.0827],[12.61642,-3.78551,174.1268],[12.61063,-3.79512,191.5414],[12.60464,-3.80928,251.6914],[12.60722,-3.81713,317.1829],[12.61301,-3.82323,259.6951],[12.64298,-3.84152,221.6694],[12.65859,-3.8533,222.4369],[12.66603,-3.86023,206.0746],[12.68856,-3.88979,231.4048],[12.72453,-3.95221,195.1352],[12.77806,-4.0134,296.1498],[12.78509,-4.01981,336.1241],[12.83005,-4.05371,371.6511],[12.85165,-4.07572,398.9004],[12.86426,-4.09298,332.6745],[12.88328,-4.12946,256.1613],[12.9178,-4.18031,247.1377],[12.9888,-4.31953,358.8084],[12.99903,-4.33338,356.6548],[13.00337,-4.33483,354.9797],[13.00957,-4.33545,338.7532],[13.01825,-4.33968,359.0941],[13.029,-4.34692,366.78],[13.04471,-4.36573,350.4388],[13.05505,-4.37358,394.4418],[13.06425,-4.37761,423.1082],[13.08016,-4.3771,327.287],[13.09639,-4.37989,329.0756],[13.10393,-4.37947,285.8359],[13.11189,-4.37772,304.9615],[13.11933,-4.3772,272.4331],[13.12657,-4.37916,300.3379],[13.13339,-4.3834,284.9297],[13.14093,-4.3865,278.8925],[13.14807,-4.38754,233.8958],[13.16264,-4.38619,240.1845],[13.17008,-4.3865,205.2302],[13.18527,-4.39312,226.4238],[13.19271,-4.39549,234.9464],[13.20036,-4.3958,201.1958],[13.20791,-4.39684,210.1681],[13.22331,-4.40263,174.8333],[13.24005,-4.40356,174.021],[13.25462,-4.41193,182.5374],[13.27602,-4.43146,223.2973],[13.3186,-4.49089,238.1369],[13.32728,-4.50856,248.6008],[13.33255,-4.52303,235.1549],[13.34258,-4.53595,237.1914],[13.35239,-4.55331,242.5264],[13.36325,-4.56685,239.1883],[13.37369,-4.57739,275.8806],[13.37937,-4.58587,292.0939],[13.38144,-4.59341,293.1774],[13.3833,-4.61078,300.1346],[13.38702,-4.62194,271.9811],[13.3927,-4.62948,262.1037],[13.39973,-4.63362,253.1178],[13.41554,-4.63662,276.5027],[13.4235,-4.6393,253.7819],[13.49626,-4.68912,299.2921],[13.53533,-4.70814,327.5567],[13.55228,-4.71878,336.8464],[13.56251,-4.72695,353.0726],[13.56871,-4.7348,372.4981],[13.57243,-4.74235,396.2203],[13.5744,-4.74979,560.0909],[13.57894,-4.77914,511.0781],[13.57977,-4.78265,440.2417],[13.57986,-4.78303,445.8376],[13.5914,-4.7794,472.3792],[13.6131,-4.73919,354.0194],[13.63398,-4.72565,350.6346],[13.64369,-4.72627,331.9437],[13.66653,-4.73268,341.5641],[13.67532,-4.73175,323.9814],[13.68059,-4.72472,327.6823],[13.6778,-4.70633,379.2141],[13.68193,-4.69537,323.2548],[13.6901,-4.69113,318.5315],[13.69837,-4.69351,311.2159],[13.70586,-4.69434,312.5818],[13.71248,-4.68566,308.947],[13.69909,-4.64266,340.8635],[13.70261,-4.62075,382.879],[13.71816,-4.58034,433.913],[13.72178,-4.56101,548.6714],[13.71103,-4.46448,761.0085],[13.71496,-4.45301,627.7575],[13.72653,-4.4467,730.3309],[13.78999,-4.42459,760.316],[13.81045,-4.42665,783.8653],[13.83288,-4.44123,714.6417],[13.84208,-4.45342,728.3964],[13.85614,-4.47967,675.3378],[13.86709,-4.48929,666.9006],[13.87629,-4.49166,671.213],[13.9044,-4.4898,655.7123],[13.90544,-4.4901,655.0443],[13.90544,-4.49006,655.0443],[13.90544,-4.48944,662.3651],[13.91298,-4.46071,637.1346],[13.92342,-4.44366,577.7244],[13.92683,-4.43621,527.0826],[13.93086,-4.42154,465.813],[13.93386,-4.41379,276.5637],[13.94564,-4.39074,211.4381],[13.94781,-4.38071,277.117],[13.95349,-4.31322,203.8169],[13.96207,-4.28367,211.4752],[13.96424,-4.28015,223.4471],[13.969,-4.27447,198.7381],[13.97479,-4.26961,182.759],[13.98957,-4.26682,217.0763],[14.02553,-4.24915,213.0341],[14.04837,-4.23199,216.7127],[14.07824,-4.19902,214.5399],[14.08868,-4.19096,214.0768],[14.10212,-4.18558,243.4684],[14.1355,-4.17732,206.4753],[14.15142,-4.17049,184.8787],[14.14387,-4.16305,261.7865],[14.16072,-4.15137,224.0821],[14.16165,-4.13463,200.3872],[14.14387,-4.09484,248.8981],[14.15576,-4.07541,225.0875],[14.16878,-4.06239,218.129],[14.21973,-4.02694,234.2069],[14.22645,-4.0197,220.5988],[14.22965,-4.01123,234.9801],[14.23451,-3.99076,262.5795],[14.23947,-3.9856,254.2455],[14.24815,-3.98746,251.5781],[14.2805,-4.00668,227.6457],[14.32205,-4.00668,212.465],[14.32691,-4.00182,222.4771],[14.34252,-3.97867,253.1402],[14.35698,-3.96162,224.4005],[14.36515,-3.95542,254.699],[14.37735,-3.95139,241.3926],[14.36453,-3.92979,215.0269],[14.35523,-3.90229,272.8032],[14.34396,-3.87883,293.4984],[14.32515,-3.86891,342.4849],[14.30603,-3.86416,287.6396],[14.29694,-3.85196,412.1223],[14.29425,-3.83553,440.153],[14.29415,-3.81765,297.1075],[14.26107,-3.76411,408.0422],[14.23947,-3.7391,414.3352],[14.21281,-3.69073,451.0568],[14.21053,-3.67533,438.1281],[14.21477,-3.67471,431.8713],[14.2248,-3.67843,444.1819]]]}}