{"type":"Feature","properties":{"GID_2":"COG.11.2_1","GID_0":"COG","country":"RepublicoftheCongo","GID_1":"COG.11_1","province":"Pool","NL_NAME_1":"NA","county":"Kindamba","VARNAME_2":"NA","NL_NAME_2":"NA","TYPE_2":"District","ENGTYPE_2":"District","CC_2":"NA","HASC_2":"CG.PO.KD","name":"Kindamba.county"},
"geometry":{"type": "MultiPolygon","coordinates": [[[[14.3729,-3.95,229.9391],[14.3853,-3.9533,221.438],[14.4127,-3.9697,290.2249],[14.4276,-3.9764,252.0013],[14.4525,-3.9702,298.0563],[14.4618,-3.9827,306.1337],[14.4964,-3.966,405.7466],[14.5188,-3.9587,359.5131],[14.5598,-3.951,594.6858],[14.5825,-3.9622,661.0066],[14.6437,-4.0065,460.7262],[14.6692,-4.0038,492.4622],[14.7073,-4.0101,517.2924],[14.7718,-4.0159,444.8502],[14.8175,-4.0112,484.8315],[14.8402,-3.989,355.6533],[14.821,-3.937,340.0721],[14.8176,-3.9147,353.6867],[14.8095,-3.8964,354.1932],[14.7929,-3.8759,375.1043],[14.7909,-3.8483,532.6094],[14.8054,-3.8304,689.5943],[14.8159,-3.7978,540.9464],[14.8274,-3.7691,402.9583],[14.8076,-3.7402,523.295],[14.7955,-3.7265,496.3124],[14.7696,-3.703,399.2256],[14.6922,-3.6404,557.1711],[14.6603,-3.6178,466.9908],[14.6496,-3.5925,462.0976],[14.6651,-3.5691,456.7281],[14.7123,-3.5328,464.0767],[14.7299,-3.5063,469.6095],[14.7354,-3.4823,423.8327],[14.7321,-3.4685,469.5189],[14.7312,-3.4269,482.9118],[14.7332,-3.4006,512.535],[14.7414,-3.3496,490.9051],[14.7453,-3.3125,625.1725],[14.7472,-3.2579,508.7543],[14.7384,-3.2188,525.2061],[14.7171,-3.1901,704.6973],[14.6841,-3.1629,654.4337],[14.6668,-3.1299,657.9757],[14.6841,-3.0996,761.2494],[14.7442,-3.0217,610.864],[14.769,-2.9769,570.946],[14.8203,-2.8708,744.078],[14.8602,-2.7535,625.0709],[14.8768,-2.7152,388.0737],[14.8664,-2.7192,380.5864],[14.8542,-2.7275,384.0948],[14.8331,-2.7478,387.0698],[14.8089,-2.7583,450.4073],[14.8019,-2.765,435.9104],[14.7992,-2.7692,426.6434],[14.8,-2.7956,423.2021],[14.7956,-2.8119,425.7618],[14.7906,-2.8208,430.8469],[14.7642,-2.8422,427.8848],[14.7544,-2.8464,431.3599],[14.7325,-2.8514,438.6163],[14.7225,-2.8692,430.4517],[14.7133,-2.8808,445.5639],[14.6883,-2.9039,451.4895],[14.6675,-2.9169,451.1071],[14.6564,-2.9267,453.1482],[14.6533,-2.9308,450.6989],[14.6483,-2.9464,448.5751],[14.645,-2.95,450.176],[14.6233,-2.9639,461.0174],[14.5961,-2.9917,464.3771],[14.5753,-3.0036,512.6782],[14.5717,-3.0072,465.7096],[14.5603,-3.0303,472.0346],[14.5519,-3.0428,475.907],[14.5372,-3.0556,482.8792],[14.5217,-3.0814,479.2539],[14.5175,-3.0839,480.7993],[14.5064,-3.0853,538.0991],[14.4975,-3.0803,553.8788],[14.4908,-3.0733,597.4146],[14.4722,-3.0711,579.6306],[14.4675,-3.0686,513.5119],[14.4567,-3.0592,504.1594],[14.4467,-3.0419,557.6257],[14.4342,-3.0333,556.4539],[14.4281,-3.0325,568.3068],[14.4169,-3.035,549.6476],[14.3969,-3.0353,597.4232],[14.375,-3.0406,555.7967],[14.3611,-3.0336,606.5281],[14.3539,-3.0203,595.0522],[14.3258,-3.0203,684.2861],[14.3058,-3.0239,643.4246],[14.2856,-3.02,585.4724],[14.2758,-3.0108,568.8849],[14.2645,-2.9842,555.5438],[14.2607,-2.9819,548.4058],[14.2511,-2.9906,536.6707],[14.2317,-2.9986,531.338],[14.2158,-3.0031,534.366],[14.2017,-3.0103,540.7492],[14.1858,-3.0217,529.1589],[14.1747,-3.0314,537.8223],[14.1619,-3.0531,525.0911],[14.1444,-3.1189,506.8647],[14.1372,-3.1322,523.493],[14.1272,-3.1569,527.6308],[14.1264,-3.1703,528.3854],[14.1283,-3.1819,512.8246],[14.1247,-3.1853,512.3972],[14.1142,-3.1883,518.1925],[14.1108,-3.1919,499.2432],[14.1078,-3.2097,498.6071],[14.1036,-3.2192,528.3658],[14.0964,-3.2267,513.2546],[14.0833,-3.2342,509.4801],[14.0839,-3.2389,505.8105],[14.0894,-3.2472,538.9363],[14.0878,-3.2528,535.5119],[14.0656,-3.2578,532.7755],[14.0614,-3.2606,533.4382],[14.05,-3.2769,510.3332],[14.0481,-3.2886,499.8056],[14.045,-3.2928,529.2142],[14.0311,-3.2992,533.0706],[14.0236,-3.3056,535.1503],[14.0206,-3.3094,536.3203],[14.01,-3.3333,515.6724],[13.9906,-3.3467,488.7177],[13.9883,-3.3514,506.829],[13.9778,-3.3617,494.4808],[13.9742,-3.3719,498.0936],[13.9708,-3.3756,517.0276],[13.9478,-3.3872,548.918],[13.9344,-3.4017,533.1326],[13.9233,-3.4111,529.6673],[13.9203,-3.415,548.1492],[13.9197,-3.4214,486.3931],[13.9225,-3.4253,480.3605],[13.9222,-3.4325,488.1552],[13.9175,-3.4411,547.7579],[13.9111,-3.4486,565.8737],[13.9081,-3.4597,537.4502],[13.9017,-3.4739,555.4548],[13.8944,-3.4878,507.4212],[13.8814,-3.495,528.3164],[13.8775,-3.4983,475.3246],[13.8756,-3.5031,489.5008],[13.8803,-3.5192,488.5602],[13.8794,-3.5239,490.8246],[13.8731,-3.5314,475.4883],[13.8623,-3.5371,464.722],[13.9242,-3.5586,550.9883],[13.9361,-3.5603,589.6874],[13.9431,-3.5633,543.826],[13.9578,-3.5767,585.9261],[13.9736,-3.5792,623.6408],[14.0269,-3.575,597.9667],[14.0419,-3.5703,582.1919],[14.0486,-3.5556,577.0068],[14.0961,-3.5006,573.3257],[14.1036,-3.4939,538.1945],[14.1322,-3.4767,518.1265],[14.1344,-3.4603,501.8505],[14.1372,-3.4531,539.6205],[14.1447,-3.45,530.1913],[14.1517,-3.4558,506.2418],[14.1617,-3.4711,507.9686],[14.1847,-3.4803,530.3317],[14.1989,-3.4897,501.8893],[14.2072,-3.4931,555.022],[14.2314,-3.4903,507.4777],[14.2389,-3.4933,511.2114],[14.2464,-3.5078,509.5121],[14.2522,-3.515,524.3745],[14.2594,-3.5147,513.5256],[14.2644,-3.5222,519.1248],[14.2683,-3.5375,477.2501],[14.2725,-3.545,534.4453],[14.2803,-3.55,466.5135],[14.2864,-3.5572,464.9207],[14.2831,-3.5783,459.3449],[14.2869,-3.5861,454.0262],[14.2894,-3.6089,444.2653],[14.3033,-3.6211,468.6555],[14.3086,-3.6347,439.0131],[14.2947,-3.6378,488.8661],[14.2775,-3.6478,453.4543],[14.2572,-3.6553,454.7579],[14.2578,-3.6681,445.6045],[14.2556,-3.6731,440.4668],[14.2458,-3.6772,445.4512],[14.2333,-3.6783,437.4937],[14.2208,-3.6767,446.4308],[14.2081,-3.6772,447.7788],[14.2036,-3.6797,448.0927],[14.2036,-3.6853,425.522],[14.2056,-3.69,463.367],[14.2206,-3.7028,451.4156],[14.2319,-3.7189,440.7487],[14.2364,-3.7347,442.2051],[14.2364,-3.7417,471.1044],[14.2414,-3.7506,429.6587],[14.2556,-3.7572,350.2434],[14.2672,-3.7661,363.1179],[14.2706,-3.7764,361.8277],[14.2742,-3.8,400.1163],[14.2803,-3.8078,374.7756],[14.2886,-3.8131,310.0678],[14.2911,-3.8175,392.7458],[14.2925,-3.8283,336.2808],[14.2878,-3.845,246.6855],[14.29,-3.85,281.6051],[14.2961,-3.8575,251.5902],[14.3064,-3.8611,380.4054],[14.3206,-3.8742,219.0821],[14.3339,-3.8753,331.4119],[14.3428,-3.8803,241.0022],[14.3453,-3.8842,300.3156],[14.3497,-3.9003,232.528],[14.3581,-3.9058,226.4144],[14.3608,-3.91,292.4264],[14.3636,-3.9197,269.1605],[14.3625,-3.9314,263.3837],[14.3729,-3.95,229.9391]]]]}}