{"type": "Feature","id": "2880","bbox": [13.12962,0.04206,17.04953,2.72649],"geometry": {"type": "Polygon","coordinates": [[[16.57256,2.49918,451.3329],[16.5676,2.49923,486.6042],[16.5646,2.50011,493.4216],[16.56264,2.50259,497.4334],[16.55974,2.50806,487.6974],[16.55912,2.53473,499.4558],[16.55685,2.54341,514.9808],[16.55199,2.55251,516.7206],[16.51572,2.59281,477.5688],[16.50755,2.59984,462.9314],[16.50083,2.60429,440.8428],[16.49649,2.6063,475.9745],[16.4906,2.61157,479.0602],[16.48502,2.62036,475.7463],[16.48192,2.63777,545.9996],[16.48316,2.64883,538.1789],[16.48698,2.65731,527.1311],[16.48905,2.66568,504.1107],[16.48729,2.6755,497.2272],[16.48068,2.68986,526.9425],[16.46797,2.70754,536.6776],[16.4412,2.71994,503.4859],[16.42749,2.72649,512.2299],[16.41371,2.6972,461.651],[16.37112,2.60692,468.7549],[16.32565,2.51049,409.3571],[16.29351,2.44207,380.103],[16.24803,2.34559,403.1049],[16.19666,2.23645,359.9626],[16.20235,2.23201,384.9321],[16.20772,2.22307,396.6467],[16.19946,2.21217,377.1368],[16.15925,2.18209,361.4321],[16.14065,2.19982,368.8068],[16.12039,2.20333,352.5012],[16.10437,2.19356,397.7538],[16.09776,2.17155,371.4071],[16.08577,2.14917,358.4559],[16.08349,2.13775,355.4183],[16.08556,2.12491,356.5994],[16.0898,2.11615,367.7529],[16.09248,2.1069,362.5151],[16.09031,2.09274,345.44],[16.08814,2.09176,337.0],[16.08411,2.0916,347.5115],[16.07967,2.09026,359.05],[16.07667,2.08592,361.9046],[16.07554,2.07995,349.4466],[16.07554,2.07546,337.0],[16.07616,2.07282,361.1686],[16.07667,2.07225,361.1686],[16.07812,2.06344,349.3794],[16.08153,2.05564,356.9889],[16.08174,2.04683,336.0],[16.06644,2.02548,350.0401],[16.06375,2.01587,341.6959],[16.06489,1.97895,352.3865],[16.06871,1.9736,351.5539],[16.07491,1.9706,354.3584],[16.08349,1.96301,353.3387],[16.10137,1.9328,383.5387],[16.13507,1.84531,381.0647],[16.15904,1.7348,349.3483],[16.15584,1.71907,345.1434],[16.14509,1.71432,339.4769],[16.12359,1.7216,348.9489],[16.11481,1.71907,354.2002],[16.06985,1.65455,352.5159],[16.03047,1.7054,356.5305],[16.022,1.72279,346.9786],[16.022,1.73305,346.4294],[16.02489,1.74248,330.0],[16.02634,1.7523,358.2259],[16.022,1.7638,343.4914],[16.01383,1.77131,356.2474],[16.00277,1.77591,374.3155],[15.99079,1.77617,359.1582],[15.98045,1.77059,351.9088],[15.96319,1.77736,374.0347],[15.94376,1.78162,334.4908],[15.92898,1.78896,368.5429],[15.92588,1.80475,405.6168],[15.91523,1.79896,359.8412],[15.9018,1.79374,356.0759],[15.88991,1.79328,338.4818],[15.88495,1.80165,363.6725],[15.88237,1.81671,382.8971],[15.87565,1.82377,365.6005],[15.86594,1.82847,357.3345],[15.84206,1.84415,361.4217],[15.8154,1.85343,344.1834],[15.80289,1.85997,345.7488],[15.76465,1.90872,346.5925],[15.75741,1.91299,338.4066],[15.73406,1.91671,334.5],[15.72155,1.92162,334.5],[15.71111,1.92738,360.0821],[15.70677,1.93198,355.1881],[15.61179,1.94254,357.8951],[15.52663,1.96781,421.14],[15.48291,1.97585,365.3056],[15.43919,1.96983,357.998],[15.38814,1.93955,363.9638],[15.36798,1.93285,365.6122],[15.34917,1.92329,365.884],[15.33739,1.92146,347.7156],[15.3378,1.92376,355.6405],[15.31434,1.93425,345.9669],[15.30948,1.93508,337.0],[15.30163,1.94358,349.9388],[15.30018,1.94766,355.9709],[15.30194,1.95332,362.1796],[15.30328,1.96642,359.3238],[15.30111,1.97376,350.9974],[15.29543,1.98153,337.5],[15.28757,1.98779,359.7332],[15.25357,2.00032,361.8122],[15.24809,2.00334,365.2753],[15.24416,2.01006,347.1826],[15.23869,2.0253,362.3611],[15.23373,2.0313,353.9109],[15.21264,2.03962,341.3934],[15.19704,2.03497,355.4635],[15.1836,2.02933,362.4019],[15.15166,2.04099,347.3989],[15.13854,2.01151,364.963],[15.12386,2.01701,367.7176],[15.11776,2.01701,360.6192],[15.10764,2.00084,366.4383],[15.09162,1.98443,368.7777],[15.07487,1.97936,370.2452],[15.06309,1.99717,375.4012],[15.04366,1.99086,365.6568],[15.02826,1.99531,363.6768],[14.98072,2.03311,372.3547],[14.971,2.03445,352.2418],[14.96304,2.01042,363.6872],[14.95385,2.00582,370.2349],[14.93214,2.00334,368.1819],[14.89245,2.00639,370.3801],[14.89659,2.03094,352.306],[14.90734,2.05889,371.3748],[14.8878,2.07225,377.5796],[14.8846,2.0821,365.5485],[14.87147,2.10166,377.8412],[14.857,2.11594,458.6743],[14.85018,2.10979,368.0168],[14.85018,2.09737,378.9228],[14.84822,2.0852,352.0784],[14.84119,2.07592,385.7527],[14.82631,2.07225,380.0335],[14.76481,2.06546,399.1468],[14.76161,2.07018,373.8407],[14.76254,2.09253,374.5086],[14.7614,2.09959,371.937],[14.75634,2.09959,365.746],[14.74755,2.09719,365.1036],[14.73712,2.09607,365.8576],[14.7273,2.09959,410.6028],[14.7335,2.10202,382.0585],[14.74786,2.11321,368.8189],[14.72089,2.1276,363.6149],[14.71365,2.12398,379.8226],[14.72048,2.09959,389.3658],[14.7057,2.10553,384.8983],[14.68596,2.12587,395.8564],[14.672,2.13434,384.5938],[14.64606,2.13336,366.3788],[14.63635,2.13832,380.7713],[14.64482,2.15418,346.0],[14.62095,2.16483,433.593],[14.58787,2.20173,413.2787],[14.56214,2.20881,364.5479],[14.55707,2.2024,540.9762],[14.54777,2.19367,512.4442],[14.54798,2.18436,570.6686],[14.55025,2.17517,439.0493],[14.54705,2.16654,406.4105],[14.53806,2.16338,420.21],[14.4592,2.14654,634.6081],[14.43874,2.13398,566.5715],[14.43295,2.13212,486.4025],[14.41869,2.13527,664.8817],[14.39936,2.15315,524.2175],[14.38365,2.16209,689.6143],[14.32029,2.17067,735.5878],[14.27627,2.15356,657.9979],[14.26696,2.15243,670.7828],[14.16175,2.15341,716.6619],[14.00279,2.1548,643.4462],[13.82399,2.15641,539.3591],[13.66227,2.15776,585.3034],[13.62034,2.15811,563.2268],[13.46655,2.15951,577.0739],[13.29457,2.16106,524.4713],[13.29488,2.10109,506.6252],[13.29136,2.06894,507.5166],[13.28113,2.04497,513.6094],[13.24548,2.0253,540.5178],[13.23948,2.02073,516.0905],[13.22129,2.00084,515.1222],[13.21602,1.99717,515.4573],[13.20692,1.99357,512.4608],[13.20661,1.98515,516.8522],[13.2123,1.96642,503.2744],[13.21023,1.95632,503.7506],[13.20506,1.94934,501.2148],[13.19845,1.94311,514.447],[13.19173,1.93508,500.1046],[13.18491,1.92345,517.0212],[13.17819,1.90779,500.7622],[13.16631,1.90438,501.7392],[13.16217,1.89983,500.6287],[13.17509,1.88211,506.974],[13.18315,1.86405,496.6341],[13.18832,1.85658,496.9756],[13.19246,1.84475,503.3544],[13.19101,1.82873,492.6578],[13.18067,1.79201,508.7726],[13.17302,1.77695,507.5694],[13.16279,1.76364,506.7244],[13.15018,1.7563,493.6882],[13.15752,1.73915,492.6861],[13.15463,1.72165,495.829],[13.14781,1.70287,495.5006],[13.14398,1.68181,493.8269],[13.14998,1.63628,492.0984],[13.14677,1.61225,484.6871],[13.12962,1.59246,505.4143],[13.14595,1.56342,495.0397],[13.16445,1.53784,501.7442],[13.17127,1.54526,514.4647],[13.18264,1.53655,494.3557],[13.18966,1.52474,495.0977],[13.1909,1.51107,486.9452],[13.18491,1.49689,492.0764],[13.20548,1.48637,478.1262],[13.22346,1.438,489.9952],[13.23948,1.42798,503.4936],[13.23845,1.41963,485.459],[13.23979,1.37235,504.9944],[13.23917,1.36418,500.3405],[13.23958,1.35651,498.1131],[13.24289,1.34979,489.2558],[13.25126,1.33765,486.5872],[13.24909,1.33237,501.0796],[13.24299,1.32886,490.8531],[13.23359,1.30881,498.2711],[13.21933,1.2992,497.8808],[13.20238,1.29341,494.5305],[13.18832,1.29145,481.9727],[13.18036,1.28483,499.8431],[13.17664,1.27088,490.9306],[13.1692,1.25858,501.0779],[13.15018,1.25662,510.3381],[13.16031,1.24773,480.957],[13.1723,1.24287,521.9651],[13.18181,1.23646,500.39],[13.18489,1.22262,488.2448],[13.18491,1.22251,488.2448],[13.19545,1.22112,475.0803],[13.21581,1.22437,482.9983],[13.25023,1.22179,487.2912],[13.2709,1.22602,487.7672],[13.28919,1.23398,481.9019],[13.3078,1.25672,505.1254],[13.32599,1.2593,489.8935],[13.34294,1.26385,479.1379],[13.34934,1.28158,515.8827],[13.35741,1.28907,506.976],[13.37694,1.29444,497.7924],[13.39875,1.29692,492.8192],[13.41394,1.29553,490.9668],[13.44887,1.28308,490.6897],[13.47978,1.27713,500.372],[13.50996,1.27729,487.0361],[13.54344,1.28349,482.9531],[13.55636,1.29279,491.8452],[13.5792,1.32349,492.8712],[13.61507,1.33744,500.8137],[13.62809,1.34814,499.6657],[13.64225,1.35739,491.7744],[13.66209,1.35919,489.3073],[13.6715,1.35878,491.6375],[13.68069,1.3594,489.4688],[13.69909,1.36279,492.8315],[13.70555,1.36599,498.1961],[13.71754,1.37537,496.7367],[13.72436,1.37795,495.4175],[13.72943,1.37692,494.7904],[13.7411,1.37131,496.4569],[13.7441,1.37028,496.5005],[13.75485,1.37434,502.1079],[13.75816,1.37651,499.2197],[13.77035,1.40043,502.2737],[13.77976,1.42627,497.5565],[13.78058,1.43102,527.6606],[13.79474,1.43444,500.2635],[13.98357,1.41684,483.5037],[14.00083,1.41302,507.5067],[14.01902,1.40214,510.5101],[14.0338,1.38764,514.6736],[14.04951,1.3764,506.0286],[14.0707,1.37511,497.0927],[14.10646,1.38893,498.5939],[14.12444,1.39359,495.6031],[14.14449,1.39162,499.2186],[14.18387,1.38085,508.2672],[14.19255,1.37496,511.8043],[14.19896,1.36832,515.3775],[14.2065,1.36284,511.6619],[14.21839,1.36056,508.9343],[14.21994,1.35502,517.1442],[14.23596,1.36333,498.8221],[14.25218,1.36839,508.9315],[14.2712,1.37113,507.9565],[14.30913,1.37997,513.7189],[14.31502,1.38069,517.5082],[14.32143,1.38074,521.0989],[14.36567,1.37718,524.9885],[14.37807,1.37826,533.6338],[14.39636,1.38162,535.251],[14.40504,1.38477,538.0453],[14.41052,1.38601,538.7796],[14.41683,1.38648,535.1097],[14.4346,1.38317,604.9719],[14.44587,1.38203,793.5424],[14.49413,1.39108,788.2349],[14.49971,1.38979,789.7521],[14.50457,1.38643,785.4971],[14.51026,1.37702,782.2061],[14.51201,1.36834,808.965],[14.51294,1.35175,786.728],[14.5146,1.3439,781.3184],[14.51987,1.32814,792.5435],[14.52845,1.26468,722.4857],[14.53103,1.25724,681.8586],[14.53537,1.25067,704.7359],[14.56503,1.22985,645.4208],[14.58663,1.22039,680.6828],[14.69505,1.18752,531.6117],[14.74911,1.18003,530.8479],[14.75727,1.18194,528.222],[14.76471,1.18256,522.7672],[14.77298,1.18189,504.9121],[14.78259,1.17915,531.6295],[14.79499,1.17409,530.4252],[14.81721,1.15848,499.8373],[14.82466,1.14928,491.6346],[14.83634,1.12903,467.5836],[14.84481,1.12066,431.7337],[14.85587,1.11383,429.7892],[14.91168,1.08583,428.8804],[14.94971,1.0604,408.051],[14.97607,1.05156,408.7836],[15.00201,1.04655,418.0033],[15.02805,1.04526,394.4005],[15.0602,1.04707,388.2482],[15.06764,1.04614,401.1525],[15.07467,1.04345,397.2526],[15.08614,1.02857,392.8388],[15.08955,1.02526,390.4406],[15.09647,1.02144,396.6139],[15.12459,1.0095,420.1481],[15.13316,1.00485,418.0107],[15.13813,1.00128,431.8284],[15.13916,0.99989,440.4379],[15.15177,0.97245,456.9094],[15.15404,0.96315,438.7928],[15.15404,0.96025,434.1534],[15.15342,0.95539,422.0827],[15.15187,0.95074,391.926],[15.14939,0.94651,392.3251],[15.14536,0.94356,403.4728],[15.1403,0.94201,408.4357],[15.12831,0.94046,392.132],[15.11776,0.93736,387.0319],[15.11342,0.93478,394.1267],[15.1096,0.93183,391.0865],[15.10681,0.92801,446.1834],[15.10288,0.92082,415.0314],[15.10082,0.9186,403.0479],[15.09771,0.91622,432.7578],[15.09358,0.91488,451.1211],[15.09048,0.91307,445.3254],[15.08831,0.91111,452.2571],[15.08314,0.90217,445.5353],[15.08035,0.89917,435.1589],[15.07312,0.89452,434.412],[15.07105,0.89183,437.6546],[15.07002,0.88847,420.0424],[15.07012,0.8831,393.7791],[15.07291,0.8662,402.2943],[15.07601,0.85571,387.0365],[15.07818,0.85106,383.2425],[15.09151,0.83034,378.9219],[15.09399,0.82119,412.6341],[15.0942,0.81266,421.5954],[15.085,0.76026,409.8693],[15.08552,0.68714,397.3025],[15.08862,0.66993,422.9052],[15.10175,0.6288,372.0095],[15.10268,0.62322,384.1955],[15.10257,0.61743,380.2653],[15.10113,0.61242,380.9679],[15.088,0.5919,370.5148],[15.08655,0.58859,359.8045],[15.08583,0.58632,371.6149],[15.08531,0.58384,369.1888],[15.08459,0.57371,382.2867],[15.085,0.56131,397.0598],[15.08831,0.53723,407.3817],[15.08955,0.5318,424.7263],[15.09151,0.527,433.2356],[15.09575,0.5225,449.7968],[15.10195,0.51847,479.7212],[15.15425,0.50012,406.3564],[15.159,0.49785,397.9525],[15.16262,0.49449,381.7237],[15.16934,0.49015,414.8436],[15.1712,0.48545,391.3358],[15.17151,0.48075,411.5121],[15.17399,0.47604,402.3499],[15.17957,0.47253,390.0887],[15.19538,0.46736,368.4016],[15.2051,0.46126,363.5892],[15.20417,0.45548,367.5199],[15.20437,0.45041,366.8909],[15.20665,0.44679,368.1985],[15.21151,0.4438,352.1289],[15.22019,0.44473,360.6694],[15.25212,0.43574,356.1053],[15.2576,0.4331,360.9574],[15.26163,0.42953,359.9868],[15.26391,0.42504,356.641],[15.26504,0.4193,360.9069],[15.26546,0.41295,362.3738],[15.26659,0.40788,358.563],[15.26907,0.40551,354.5866],[15.27403,0.40855,356.2244],[15.27682,0.41207,363.6472],[15.27931,0.41357,360.3117],[15.28292,0.41357,356.5236],[15.2853,0.41145,357.0622],[15.28675,0.41016,352.7539],[15.28819,0.40628,365.854],[15.28799,0.40297,356.3184],[15.28613,0.39439,362.5515],[15.28613,0.38928,356.333],[15.2885,0.38561,349.9837],[15.29253,0.38427,354.0585],[15.30091,0.38773,363.2686],[15.30504,0.38861,363.5307],[15.33594,0.38029,390.2956],[15.35444,0.37812,369.6641],[15.36106,0.37801,366.8937],[15.36778,0.37863,368.572],[15.37646,0.38272,376.0883],[15.38183,0.38613,382.3065],[15.38824,0.38866,383.2895],[15.39506,0.38985,366.6631],[15.40746,0.38726,376.9735],[15.42235,0.38241,389.5369],[15.42937,0.38075,392.0863],[15.44012,0.37925,362.5173],[15.45294,0.37569,363.2446],[15.45759,0.37367,348.8884],[15.46224,0.37212,351.4042],[15.46617,0.36938,352.2355],[15.46999,0.36721,359.0286],[15.47516,0.36654,356.4338],[15.48053,0.3667,347.2606],[15.49077,0.36814,352.4943],[15.5012,0.36556,350.7973],[15.50772,0.36267,351.5598],[15.5166,0.35646,345.8531],[15.52136,0.3545,347.633],[15.52715,0.35357,354.0962],[15.53335,0.3545,355.4265],[15.53955,0.35801,357.4233],[15.55319,0.3746,335.8967],[15.5566,0.3777,347.4203],[15.5689,0.38587,365.8122],[15.5721,0.38943,374.7789],[15.57458,0.39388,348.1116],[15.57675,0.39874,353.9647],[15.58141,0.4145,393.1076],[15.58533,0.42323,377.3172],[15.58719,0.42561,373.1128],[15.58905,0.42736,365.2476],[15.59122,0.42845,361.2384],[15.59464,0.42969,358.6577],[15.59898,0.43067,362.8164],[15.61096,0.43243,399.9356],[15.61634,0.43429,417.869],[15.61841,0.43568,426.6909],[15.62378,0.44059,430.8243],[15.62843,0.44307,427.232],[15.63453,0.44504,419.3696],[15.64321,0.44638,386.991],[15.64941,0.44809,364.9535],[15.65448,0.45041,359.5221],[15.66243,0.45522,379.6765],[15.66636,0.45615,410.4252],[15.69675,0.45847,377.5411],[15.69871,0.4593,383.0103],[15.70574,0.46312,355.6753],[15.70956,0.46457,355.3974],[15.71483,0.46571,349.728],[15.7262,0.46617,357.6375],[15.73395,0.46529,379.2572],[15.74109,0.46152,386.4161],[15.74439,0.45703,392.7784],[15.74656,0.45165,371.7781],[15.74915,0.44752,368.5991],[15.7537,0.44499,347.8097],[15.76031,0.44473,339.2492],[15.77013,0.44752,355.6246],[15.77633,0.45031,384.8839],[15.78491,0.45522,400.2073],[15.78842,0.45584,388.2316],[15.79338,0.45548,392.1468],[15.81777,0.44969,396.4518],[15.84248,0.44928,362.8242],[15.87534,0.44349,368.3153],[15.88154,0.43997,388.3548],[15.88506,0.43667,390.2104],[15.88919,0.43388,402.1968],[15.89363,0.4316,407.8714],[15.89798,0.42907,407.5891],[15.90449,0.42209,398.9383],[15.90821,0.41899,375.1979],[15.91658,0.41357,359.7651],[15.92113,0.41124,342.8407],[15.94128,0.40385,338.9628],[15.95048,0.39946,337.5211],[15.95399,0.3961,337.751],[15.95709,0.39233,341.4833],[15.95885,0.38726,343.7462],[15.95926,0.36866,331.8544],[15.9604,0.36287,333.7029],[15.96257,0.35832,333.1096],[15.96536,0.3544,334.7676],[15.96919,0.35125,331.4504],[15.97322,0.34856,339.0793],[15.98004,0.34628,334.9802],[16.00412,0.34148,334.8875],[16.04567,0.32866,349.5048],[16.05032,0.32649,364.903],[16.05466,0.32401,372.1541],[16.06851,0.31052,324.7997],[16.0805,0.30184,332.7573],[16.08639,0.29394,334.3159],[16.10447,0.2573,332.958],[16.1053,0.25249,321.9817],[16.10385,0.1973,324.8657],[16.10416,0.19415,330.2098],[16.1054,0.18976,327.9815],[16.10747,0.18547,324.1898],[16.11037,0.18211,329.5806],[16.11398,0.17942,333.3142],[16.12111,0.17518,325.2401],[16.1236,0.17322,326.8503],[16.12639,0.16971,326.7123],[16.12825,0.16521,328.9543],[16.13031,0.15549,329.7027],[16.13042,0.14686,314.6065],[16.12825,0.12392,322.5732],[16.12969,0.12134,325.5059],[16.1329,0.11886,321.648],[16.14189,0.11731,325.2372],[16.14799,0.11524,322.3776],[16.16731,0.10614,328.5287],[16.17279,0.10459,307.5],[16.17982,0.1048,316.1561],[16.18829,0.10656,319.1519],[16.20679,0.11565,313.6638],[16.21269,0.11772,311.1264],[16.21827,0.11855,319.8068],[16.22757,0.1171,310.6104],[16.23284,0.11431,318.7738],[16.24059,0.10728,326.9184],[16.24452,0.10428,331.1011],[16.24865,0.1017,326.0978],[16.26312,0.0955,325.3752],[16.26715,0.09271,318.6117],[16.27056,0.0893,325.0797],[16.27842,0.07669,322.6261],[16.28162,0.07297,312.7565],[16.28503,0.07018,326.2178],[16.29123,0.06883,315.6862],[16.32141,0.07131,308.074],[16.32627,0.071,321.7912],[16.32761,0.06945,327.1779],[16.32854,0.06749,323.5414],[16.32999,0.06346,318.7639],[16.33102,0.0585,318.7392],[16.33288,0.05354,327.1094],[16.33526,0.04889,325.913],[16.33836,0.04517,312.0471],[16.34146,0.04206,329.4073],[17.04953,0.39408,336.5254],[16.715699999999998,0.82615,335.1505],[16.7064,0.84269,334.9858],[16.69927,0.85886,334.4514],[16.694,0.88661,360.1897],[16.69307,0.98681,373.3235],[16.69607,0.99953,340.861],[16.70103,1.00717,346.6828],[16.71322,1.02128,341.516],[16.72087,1.02805,364.6347],[16.72873,1.03317,370.1502],[16.7525,1.04459,347.6443],[16.76697,1.05327,349.9832],[16.77348,1.05932,350.8739],[16.77823,1.06645,334.8282],[16.78154,1.07389,333.8608],[16.78278,1.08148,334.1948],[16.78288,1.13378,347.1573],[16.78671,1.1483,359.1299],[16.79146,1.15977,337.9218],[16.79673,1.16763,337.274],[16.79849,1.18163,347.64],[16.79601,1.20044,364.2684],[16.7741,1.28767,336.7818],[16.76614,1.30018,340.1717],[16.7587,1.30891,362.2086],[16.75157,1.31589,356.1107],[16.74619,1.32318,363.0709],[16.73885,1.33883,338.6744],[16.71746,1.39919,391.7625],[16.71508,1.41263,374.3287],[16.71622,1.42803,365.8843],[16.71818,1.43826,378.6802],[16.71849,1.44725,401.525],[16.71632,1.45428,397.6636],[16.70237,1.46668,394.6037],[16.69855,1.47443,400.2312],[16.70051,1.48441,377.2225],[16.70392,1.49216,382.1043],[16.70785,1.49805,370.8581],[16.72532,1.51846,421.3602],[16.72955,1.5259,403.7655],[16.73162,1.53365,422.4509],[16.73131,1.5429,411.0578],[16.71911,1.62698,408.4632],[16.70878,1.65199,395.5985],[16.70599,1.66191,376.9863],[16.70816,1.67328,384.2766],[16.71787,1.69054,380.8516],[16.75622,1.79648,401.3681],[16.75797,1.80568,411.2381],[16.75735,1.81911,415.695],[16.74971,1.83865,379.3951],[16.73689,1.88898,414.0065],[16.73575,1.89771,406.2776],[16.73596,1.9064,390.537],[16.73854,1.92619,404.8353],[16.73575,1.96774,398.7815],[16.72935,1.99078,406.7397],[16.7219,2.05259,393.7794],[16.72283,2.06871,421.5581],[16.72532,2.08499,446.0288],[16.7278,2.093,436.4504],[16.73172,2.09982,421.439],[16.73782,2.10509,437.4072],[16.75146,2.1114,421.9997],[16.75715,2.11558,453.1857],[16.75994,2.12194,432.2389],[16.76108,2.12917,429.9373],[16.75735,2.14886,421.3478],[16.74754,2.1638,409.7713],[16.7373,2.1946,451.7933],[16.73441,2.24219,455.9665],[16.74289,2.30663,453.0475],[16.73978,2.33826,448.018],[16.74092,2.36234,494.6833],[16.73906,2.37381,498.5712],[16.7341,2.38797,492.086],[16.68521,2.47494,535.1216],[16.67932,2.48254,530.371],[16.6724,2.48962,523.0601],[16.65442,2.49907,517.8685],[16.61959,2.5122,514.241],[16.61111,2.51147,512.5865],[16.60326,2.5093,502.7728],[16.57938,2.50031,479.7065],[16.57256,2.49918,451.3329]]]}
,"properties": {"ISO3166-1-Alpha-3": "COG","country": "Republic of the Congo","fill": "#000","name": "Sangha","area_km2": 57825.28,"hist_schema_id": "Elevation0-9000","hist_area_km2": {"300": 83.56,"325": 5282.61,"350": 7125.41,"375": 6497.17,"400": 5857.42,"425": 5030.81,"450": 4467.63,"475": 3466.84,"500": 5853.49,"525": 6222.8,"550": 2916.48,"575": 1404.03,"600": 929.44,"625": 771.21,"650": 637.85,"675": 398.11,"700": 292.87,"725": 226.01,"750": 179.29,"775": 125.11,"800": 43.28,"825": 4.87,"850": 3.48,"875": 2.33,"900": 1.65,"925": 0.83}}}