{"type": "Feature","bbox": [13.1309,0.0383,17.0497,2.716],"geometry": {"type": "MultiPolygon","coordinates": [[[[15.4185,1.9483,356.5891],[15.415,1.9435,360.9629],[15.3949,1.9378,339.2829],[15.3728,1.9272,359.4358],[15.3524,1.9128,363.781],[15.3462,1.9118,358.357],[15.3439,1.913,343.3674],[15.3351,1.927,336.9902],[15.3371,1.94,351.2698],[15.3357,1.9416,344.5052],[15.3335,1.9417,350.5437],[15.3259,1.933,342.3922],[15.3188,1.9315,340.6339],[15.3105,1.9342,337.0],[15.3049,1.9381,337.0],[15.3091,1.9661,368.8007],[15.2923,1.9893,364.2393],[15.2852,1.9942,351.339],[15.2713,1.9982,338.0],[15.2569,2.0082,365.3321],[15.2401,2.0111,360.9124],[15.2405,2.0137,357.5614],[15.2489,2.0188,350.5822],[15.2485,2.0278,362.2539],[15.2471,2.0293,342.2852],[15.2385,2.0324,338.0],[15.2218,2.0329,346.688],[15.2072,2.0389,338.0],[15.2011,2.0384,340.8904],[15.1948,2.0353,341.2638],[15.1837,2.0194,369.0907],[15.1791,2.0147,363.9804],[15.1773,2.0147,380.7499],[15.1717,2.0186,342.6577],[15.1644,2.0306,348.1659],[15.1622,2.0417,343.1769],[15.1527,2.0406,349.2363],[15.1508,2.039,352.7619],[15.1471,2.0119,368.4254],[15.1433,2.0084,363.027],[15.1368,2.0062,358.7678],[15.1278,2.0106,343.3357],[15.1212,2.0107,364.3392],[15.1164,2.005,365.8777],[15.113,1.983,488.1262],[15.1085,1.9808,375.8643],[15.0909,1.9806,359.6115],[15.0849,1.9826,366.2203],[15.0774,1.9825,372.7515],[15.0741,1.9857,358.4179],[15.0763,1.9944,430.0453],[15.0723,2.0003,361.9019],[15.0693,2.0008,362.9174],[15.0662,2.0001,373.5428],[15.0624,1.9961,370.6936],[15.0508,1.9785,392.4325],[15.0484,1.977,388.548],[15.0433,1.9784,367.7899],[15.0402,1.98,344.7263],[15.0367,1.9859,358.6552],[15.033,1.9997,370.965],[14.9998,2.0166,340.0],[14.9931,2.0279,344.3179],[14.9835,2.0353,366.1956],[14.9804,2.0342,362.8973],[14.9766,2.0287,374.667],[14.9716,2.0101,356.0429],[14.9539,2.0037,343.3475],[14.918,2.0015,365.4424],[14.9081,2.0061,361.9635],[14.8951,2.016,361.9391],[14.8919,2.0217,363.8936],[14.8945,2.0273,364.2927],[14.9013,2.0309,365.4991],[14.9101,2.0392,380.3962],[14.9124,2.0477,359.2383],[14.9158,2.0535,364.8195],[14.9136,2.0627,407.8552],[14.9126,2.064,362.4391],[14.8951,2.0636,369.9594],[14.8929,2.0666,341.1005],[14.8819,2.0715,356.9427],[14.8798,2.0745,364.5947],[14.8784,2.0876,351.8621],[14.8788,2.1032,370.2568],[14.8748,2.1108,386.4855],[14.8691,2.111,353.8915],[14.8594,2.1068,373.6085],[14.86,2.1003,377.5411],[14.8666,2.0863,381.9803],[14.8624,2.0812,390.3428],[14.8519,2.0846,360.5219],[14.8437,2.0854,367.5079],[14.8396,2.0835,372.6484],[14.8295,2.0683,388.2722],[14.8091,2.0598,355.5965],[14.8074,2.06,354.3349],[14.7959,2.0739,390.8924],[14.7929,2.0744,352.8378],[14.7764,2.0636,408.1858],[14.7702,2.0636,370.3177],[14.7644,2.0692,368.8218],[14.7644,2.0724,363.1248],[14.7714,2.0781,403.5993],[14.7744,2.0842,438.9206],[14.7738,2.0904,431.4736],[14.7709,2.0968,350.1583],[14.7677,2.0991,374.2225],[14.7617,2.0994,371.937],[14.7481,2.0907,363.9383],[14.7412,2.0894,383.3687],[14.7383,2.0914,372.6968],[14.7382,2.0959,365.8576],[14.7423,2.0984,367.9285],[14.7478,2.0971,365.1036],[14.7517,2.0983,368.5783],[14.7532,2.1029,394.1149],[14.7525,2.1084,382.2919],[14.7417,2.1129,371.3331],[14.7245,2.1264,358.371],[14.7199,2.124,371.7194],[14.7184,2.118,371.1111],[14.7268,2.1083,422.6228],[14.7268,2.1056,417.6736],[14.721,2.1057,359.8162],[14.7119,2.1104,369.2993],[14.6989,2.1125,369.5894],[14.698,2.1213,390.9287],[14.6863,2.1339,361.2054],[14.6832,2.1352,365.8459],[14.6605,2.1302,397.303],[14.6529,2.1299,358.8325],[14.6481,2.1315,351.779],[14.6421,2.1397,364.7054],[14.643,2.1444,360.3443],[14.6471,2.1463,409.2032],[14.6481,2.1486,394.8277],[14.6451,2.1556,356.4295],[14.6414,2.1584,376.0222],[14.6283,2.1588,355.6709],[14.6203,2.1703,418.0293],[14.6183,2.1769,383.6135],[14.614,2.1817,381.964],[14.6104,2.193,378.6931],[14.5978,2.2031,380.6587],[14.5954,2.2036,384.9138],[14.5938,2.2027,358.8489],[14.5914,2.1933,425.6407],[14.5837,2.1863,371.785],[14.5823,2.1777,457.4978],[14.5802,2.1748,429.2815],[14.5739,2.1785,389.565],[14.5692,2.1787,390.789],[14.5474,2.1702,406.5504],[14.5404,2.1702,399.6879],[14.5347,2.1665,403.1173],[14.5324,2.1686,398.7646],[14.5296,2.1661,401.946],[14.5302,2.1627,412.6817],[14.5202,2.165,422.9359],[14.4978,2.1629,478.5876],[14.4834,2.1561,491.6663],[14.4812,2.1538,548.8983],[14.482,2.1456,518.4157],[14.4804,2.1438,585.8763],[14.4692,2.148,528.2932],[14.4645,2.1467,570.2245],[14.4635,2.1439,549.9615],[14.4663,2.1307,649.4335],[14.4628,2.1261,551.251],[14.4589,2.1252,506.3892],[14.4494,2.1275,679.4149],[14.4435,2.1332,682.2599],[14.4432,2.1365,604.6014],[14.4469,2.1455,609.8099],[14.4429,2.1572,614.1472],[14.434,2.1669,604.8932],[14.4245,2.1687,540.5167],[14.4217,2.1747,568.8779],[14.4122,2.1813,581.0004],[14.4021,2.1781,517.7979],[14.3835,2.1856,564.9304],[14.3724,2.1821,544.6053],[14.3629,2.1877,566.9048],[14.3559,2.1854,530.1683],[14.3462,2.1756,639.8385],[14.3287,2.1727,636.6758],[14.3039,2.1626,661.4258],[14.2915,2.1719,619.9576],[14.2528,2.1725,642.4905],[14.176,2.1711,718.6547],[14.158,2.1724,673.0189],[13.9279,2.1728,581.7864],[13.299,2.171,516.8276],[13.2981,2.1618,532.1624],[13.296,2.1595,523.0413],[13.2917,2.159,521.0277],[13.2912,2.1565,510.0796],[13.294,2.1542,520.1399],[13.299,2.1429,525.1691],[13.2972,2.1392,521.6646],[13.2919,2.139,507.1171],[13.2873,2.1333,503.6917],[13.2944,2.1289,511.8965],[13.2949,2.1257,514.9964],[13.2914,2.122,502.1313],[13.291,2.1183,497.7369],[13.2937,2.1082,513.3464],[13.2983,2.1082,507.7703],[13.2978,2.1008,506.7293],[13.2994,2.0981,501.4644],[13.296,2.0939,506.2069],[13.2974,2.0916,507.561],[13.2944,2.0886,505.1149],[13.2935,2.0841,497.0886],[13.2953,2.0751,502.5475],[13.2935,2.0682,501.0028],[13.2955,2.0647,509.5825],[13.2944,2.0613,501.7426],[13.29,2.0572,505.6424],[13.2898,2.0503,512.5434],[13.2868,2.0509,510.9362],[13.2832,2.0546,513.7927],[13.2813,2.0542,499.2406],[13.2811,2.051,506.2579],[13.2886,2.0434,504.0265],[13.2866,2.0392,501.095],[13.2779,2.0351,504.6458],[13.2738,2.025,509.3215],[13.269,2.0257,500.2633],[13.263,2.0234,499.7467],[13.2541,2.0248,503.7774],[13.2509,2.0195,506.9146],[13.2463,2.0204,500.53],[13.2374,2.011,501.3787],[13.2399,2.0073,496.6042],[13.236,2.005,499.4702],[13.2351,1.9983,539.3027],[13.2296,1.9963,521.9297],[13.2248,1.9912,504.5292],[13.2186,1.9878,498.9881],[13.2177,1.9829,512.163],[13.2097,1.9818,504.7665],[13.2072,1.9751,501.9108],[13.2088,1.9655,497.4476],[13.2168,1.9498,516.6891],[13.2166,1.9464,499.7599],[13.2074,1.9388,514.0049],[13.2042,1.9381,496.2426],[13.2012,1.9338,489.2833],[13.1939,1.9319,500.9773],[13.1909,1.9289,499.2735],[13.1877,1.9218,512.0219],[13.1838,1.9179,502.7049],[13.1829,1.9147,496.4839],[13.1848,1.9105,496.9313],[13.1813,1.9071,508.4373],[13.1726,1.9009,490.9499],[13.1676,1.9027,506.9154],[13.1619,1.9014,503.8974],[13.1582,1.8933,497.4888],[13.1607,1.8867,503.3908],[13.1575,1.8818,500.2505],[13.1596,1.8756,497.7527],[13.1717,1.8694,502.446],[13.1708,1.8614,506.2633],[13.1728,1.8584,506.3799],[13.1872,1.8579,494.3186],[13.192,1.8538,499.1312],[13.1939,1.8492,505.1169],[13.1936,1.8349,496.1089],[13.1959,1.8298,497.2928],[13.1904,1.8232,492.103],[13.1923,1.8171,497.0011],[13.1955,1.8165,501.252],[13.2014,1.8068,494.7108],[13.1986,1.7963,498.5243],[13.1957,1.7914,506.3924],[13.1884,1.7885,500.799],[13.1863,1.7933,493.2253],[13.1831,1.794,490.6805],[13.1817,1.7912,491.4531],[13.1824,1.7834,500.3868],[13.1792,1.7735,500.7403],[13.1824,1.7692,494.6515],[13.1824,1.757,501.4525],[13.1803,1.754,491.5155],[13.1751,1.751,495.2932],[13.1714,1.7457,489.3207],[13.1591,1.7418,496.674],[13.1566,1.7329,497.6832],[13.1588,1.7257,492.8055],[13.1577,1.7232,485.559],[13.1527,1.7214,489.041],[13.1451,1.7085,497.112],[13.1371,1.7018,490.0542],[13.1387,1.6972,492.369],[13.1364,1.6919,494.9749],[13.1398,1.6841,491.949],[13.1394,1.677,486.3473],[13.143,1.6726,491.8613],[13.1401,1.6634,493.56],[13.1423,1.6581,499.9728],[13.1401,1.6529,490.4457],[13.1453,1.6407,495.5294],[13.1503,1.6411,495.1554],[13.1508,1.6349,498.6747],[13.1471,1.6338,493.7552],[13.1462,1.6313,493.0847],[13.1492,1.629,510.7652],[13.151,1.6248,494.357],[13.1492,1.6175,490.4459],[13.1451,1.6158,498.3444],[13.1432,1.6106,480.4014],[13.1455,1.6069,495.2011],[13.1421,1.5982,494.5089],[13.146,1.5924,491.1569],[13.1455,1.5894,506.8923],[13.1414,1.591,488.1299],[13.1366,1.5897,484.9332],[13.1323,1.591,498.3615],[13.1309,1.5869,494.3845],[13.1332,1.5832,492.2661],[13.1382,1.5816,508.6404],[13.1407,1.5775,505.6557],[13.1412,1.5701,507.8016],[13.1396,1.5634,492.9382],[13.1373,1.5614,490.2059],[13.139099999999999,1.5591,485.0042],[13.1446,1.56,507.1888],[13.1453,1.5552,499.4544],[13.1482,1.551,496.8072],[13.1537,1.5515,497.3758],[13.1544,1.5496,494.6469],[13.1521,1.5434,503.3735],[13.1592,1.5303,506.2968],[13.1638,1.5255,488.5452],[13.1693,1.5299,496.4532],[13.1729,1.5296,494.8162],[13.1729,1.5322,485.7209],[13.1754,1.5351,488.0803],[13.1786,1.5358,504.9669],[13.1839,1.5276,494.2152],[13.1901,1.5241,495.0977],[13.1916,1.5154,496.6016],[13.1946,1.5154,499.3129],[13.1983,1.5121,500.2868],[13.1953,1.5089,493.976],[13.1928,1.4984,486.2809],[13.1983,1.5004,491.1838],[13.1992,1.4981,492.1888],[13.1939,1.4896,485.5656],[13.1948,1.4876,490.8077],[13.2001,1.4873,492.1884],[13.206,1.4901,500.186],[13.2081,1.4811,492.3484],[13.2138,1.482,495.3138],[13.2179,1.4793,494.1592],[13.2207,1.474,489.639],[13.2202,1.4708,487.8981],[13.2163,1.4657,478.1422],[13.2179,1.4629,489.1759],[13.2227,1.462,481.0309],[13.2232,1.4602,482.8259],[13.2211,1.4565,479.7556],[13.2234,1.4514,485.9433],[13.2213,1.448,485.1936],[13.2216,1.4439,487.1126],[13.2266,1.4393,487.9641],[13.2289,1.4434,480.5342],[13.2341,1.4383,486.969],[13.2389,1.4278,503.4936],[13.2366,1.422,489.5578],[13.2375,1.4186,489.5213],[13.2419,1.4158,517.5955],[13.2437,1.4112,488.7258],[13.249,1.4112,496.2989],[13.2526,1.4055,479.092],[13.2492,1.3965,489.5349],[13.2494,1.3917,483.9101],[13.2563,1.3923,489.9099],[13.2572,1.3889,502.7213],[13.2464,1.3675,497.9185],[13.2473,1.3645,493.1249],[13.254,1.3588,501.9229],[13.2542,1.3565,494.8321],[13.2448,1.3489,490.5164],[13.2439,1.3448,487.6811],[13.2455,1.3402,487.8229],[13.2503,1.3367,484.7449],[13.2542,1.3381,482.8708],[13.2576,1.3418,505.8526],[13.2617,1.342,538.3045],[13.264,1.3365,500.6934],[13.2574,1.316,508.7414],[13.24,1.305,492.4468],[13.2313,1.3037,480.26369999999997],[13.229,1.3004,488.2872],[13.2297,1.2901,482.1301],[13.224,1.285,478.2693],[13.2203,1.2853,484.5005],[13.2139,1.2913,488.4429],[13.1977,1.2869,488.9595],[13.1945,1.2892,488.07],[13.1929,1.2938,505.5128],[13.1888,1.2924,502.1138],[13.1849,1.2869,489.1028],[13.1829,1.28,479.5125],[13.1831,1.2681,510.1439],[13.1783,1.2642,482.9766],[13.1771,1.2598,486.6921],[13.1806,1.2511,488.7078],[13.179,1.2474,485.394],[13.1755,1.2469,479.9946],[13.1712,1.2513,490.8793],[13.168,1.2506,487.5551],[13.1563,1.2396,494.5308],[13.1563,1.2343,475.8634],[13.1678,1.2332,501.1685],[13.1817,1.2285,489.1882],[13.1895,1.2246,498.2397],[13.1956,1.218,475.0953],[13.2182,1.2269,493.5583],[13.2265,1.2253,478.3583],[13.2365,1.226,493.6769],[13.2429,1.2239,489.9414],[13.2555,1.2283,475.7806],[13.258,1.2239,487.6065],[13.261,1.2232,487.669],[13.2653,1.2278,476.1451],[13.2712,1.2276,477.9036],[13.2747,1.2248,478.246],[13.2781,1.2248,484.9901],[13.2875,1.2296,483.1079],[13.2932,1.2275,481.7437],[13.2996,1.2298,485.0221],[13.3057,1.2213,482.7802],[13.3094,1.2211,484.8443],[13.3133,1.2252,485.2254],[13.3147,1.2395,483.9238],[13.3236,1.2358,482.3134],[13.3249,1.2381,481.0835],[13.3254,1.2431,495.6588],[13.322,1.2491,480.2307],[13.322,1.2622,482.538],[13.335,1.2629,488.6542],[13.34,1.2581,483.9467],[13.343,1.2576,489.4861],[13.3467,1.2585,488.543],[13.3519,1.2661,487.8586],[13.3725,1.2654,483.9401],[13.3745,1.2677,485.9425],[13.3732,1.2704,494.4008],[13.3663,1.2757,492.2744],[13.3661,1.2792,491.1437],[13.375,1.2909,501.5911],[13.3778,1.2911,498.1214],[13.3841,1.2867,490.6081],[13.3976,1.2824,493.7647],[13.4001,1.2837,487.4514],[13.4022,1.2902,475.0381],[13.4097,1.2911,488.6159],[13.4139,1.2975,484.4782],[13.4223,1.2952,491.7317],[13.4315,1.2996,494.2514],[13.4367,1.3002,487.8461],[13.4385,1.2929,480.0211],[13.4426,1.2947,481.5276],[13.4463,1.294,485.1284],[13.4577,1.286,491.7575],[13.4751,1.28,488.881],[13.4774,1.2745,488.0803],[13.4822,1.2738,483.0432],[13.4886,1.2701,492.7133],[13.4947,1.2692,489.44],[13.4961,1.2754,487.3662],[13.5009,1.2751,475.3377],[13.5103,1.2666,489.6175],[13.5144,1.2659,484.603],[13.5153,1.2673,483.8237],[13.5116,1.2717,481.9965],[13.513,1.2737,482.782],[13.5244,1.276,482.9269],[13.5411,1.284,487.9614],[13.5475,1.2829,493.8889],[13.5521,1.2783,483.1281],[13.5566,1.2787,484.679],[13.5761,1.2904,497.6138],[13.5777,1.2985,492.9431],[13.5884,1.3044,489.1339],[13.5905,1.3074,490.751],[13.5907,1.3168,491.2312],[13.6042,1.3205,480.0209],[13.6083,1.3295,491.9186],[13.6294,1.3304,484.4401],[13.6344,1.3292,488.7533],[13.6326,1.3411,485.0797],[13.6335,1.3441,501.4694],[13.6392,1.345,482.9272],[13.6477,1.3494,497.6809],[13.6547,1.3455,484.1827],[13.665,1.3526,490.5912],[13.6787,1.354,489.1796],[13.6833,1.3494,492.2267],[13.6876,1.3484,481.9031],[13.6899,1.3549,491.1664],[13.694,1.3498,496.9667],[13.7078,1.3509,485.7515],[13.7098,1.3546,493.7684],[13.7254,1.3617,492.4703],[13.7274,1.3684,487.6887],[13.7313,1.37,495.1566],[13.7391,1.3704,489.9984],[13.7443,1.3681,494.5199],[13.7452,1.3663,496.8259],[13.7418,1.3624,489.0339],[13.7425,1.3605,491.0606],[13.7509,1.361,498.9684],[13.7544,1.3591,495.9333],[13.7592,1.3529,484.053],[13.7624,1.3525,493.7874],[13.7653,1.3587,494.0495],[13.7681,1.3607,486.9758],[13.7786,1.3614,491.4954],[13.7855,1.3662,490.3917],[13.7889,1.371,484.5763],[13.7891,1.38,491.8769],[13.7837,1.391,490.5406],[13.7857,1.397,483.3651],[13.791,1.3942,486.3243],[13.7942,1.3956,492.8972],[13.7972,1.3988,487.2374],[13.7967,1.4041,493.3577],[13.7997,1.408,485.2789],[13.8072,1.4075,491.4204],[13.8104,1.4119,491.5533],[13.8077,1.4172,482.7349],[13.8084,1.4236,487.6818],[13.8024,1.4204,489.302],[13.8008,1.4225,496.718],[13.802,1.4303,489.2174],[13.8059,1.437,484.9425],[13.8102,1.4377,495.3084],[13.8127,1.4356,503.4428],[13.8139,1.4287,487.4783],[13.8171,1.4278,486.9691],[13.8246,1.4307,493.2283],[13.8342,1.4277,492.2313],[13.8399,1.4286,485.4568],[13.8507,1.4339,492.0163],[13.8564,1.4337,491.0273],[13.8619,1.4259,481.2924],[13.8664,1.4254,488.3069],[13.8758,1.4295,478.0],[13.892,1.4327,481.9721],[13.8968,1.4322,484.0482],[13.9263,1.4172,487.8141],[13.9489,1.4177,481.8034],[13.9665,1.4222,486.1466],[13.972,1.422,490.6169],[13.9777,1.4178,492.0226],[13.9834,1.4162,483.5037],[13.9994,1.4201,495.6994],[14.0045,1.432,495.1314],[14.0093,1.4341,489.3093],[14.0116,1.4382,497.2194],[14.0246,1.4313,491.648],[14.0285,1.4276,487.9196],[14.0303,1.4214,491.512],[14.0287,1.4136,492.4795],[14.0303,1.4104,495.2869],[14.0426,1.3987,491.1417],[14.0499,1.3975,489.6684],[14.0586,1.3851,491.4812],[14.0665,1.3807,493.1083],[14.1031,1.3756,490.833],[14.1093,1.3801,494.4897],[14.1189,1.3918,500.3019],[14.1253,1.3925,495.6031],[14.1296,1.3948,498.6525],[14.1445,1.395,497.9608],[14.16,1.3915,496.4531],[14.1703,1.3913,504.4082],[14.1753,1.395,496.9942],[14.1872,1.3956,496.3503],[14.1911,1.3933,497.4634],[14.1979,1.3825,497.9919],[14.2055,1.3747,496.8369],[14.2169,1.37,500.5822],[14.2253,1.371,495.3592],[14.2301,1.3696,497.326],[14.2359,1.3635,498.8221],[14.2525,1.3692,509.6227],[14.2711,1.3708,507.9565],[14.3086,1.3806,513.2089],[14.3217,1.3811,521.0989],[14.3522,1.3769,525.9008],[14.3722,1.3772,528.264],[14.3897,1.3797,531.8099],[14.4161,1.3875,539.8351],[14.4308,1.3819,539.0584],[14.4444,1.3817,793.5424],[14.4731,1.3886,773.5042],[14.5033,1.3914,779.7272],[14.5103,1.3844,802.542],[14.5136,1.3758,785.309],[14.5122,1.3517,791.7048],[14.5139,1.3439,788.3201],[14.5211,1.3281,780.7328],[14.5217,1.3128,781.7248],[14.53,1.2567,686.1951],[14.5342,1.2494,689.833],[14.5497,1.2419,679.5348],[14.5728,1.2236,641.3107],[14.5967,1.2133,547.6805],[14.6317,1.2025,549.1196],[14.6719,1.1925,492.8769],[14.7192,1.1744,489.2939],[14.7339,1.1739,502.838],[14.7489,1.1806,544.3306],[14.765,1.1833,522.7672],[14.78,1.1814,491.4271],[14.795,1.1764,538.9149],[14.8108,1.1639,500.267],[14.8183,1.16,512.9532],[14.8303,1.1436,475.6257],[14.8356,1.1281,471.7923],[14.8422,1.1203,416.0927],[14.8503,1.115,466.7048],[14.8717,1.1106,441.2492],[14.8869,1.0992,426.4312],[14.9031,1.0975,409.8326],[14.9342,1.0697,403.0606],[14.95,1.06,408.051],[14.9664,1.0525,458.2383],[14.9964,1.045,418.0072],[15.0122,1.0436,403.7029],[15.0453,1.0469,390.287],[15.0753,1.0467,391.875],[15.0758,1.0522,389.728],[15.0781,1.0406,391.0156],[15.0825,1.0317,391.6339],[15.0892,1.0247,390.4406],[15.0981,1.02,388.3348],[15.1167,1.0175,446.652],[15.1336,1.0072,439.8043],[15.1394,0.9997,440.4379],[15.1503,0.9775,458.2514],[15.1547,0.9617,437.7786],[15.1503,0.9456,393.6713],[15.1408,0.9414,408.4357],[15.1278,0.9408,392.132],[15.1175,0.9378,387.0319],[15.1092,0.9322,385.4181],[15.1022,0.9186,403.0479],[15.0986,0.9153,432.2126],[15.0925,0.9147,448.2354],[15.0883,0.9122,454.4651],[15.0814,0.8986,425.498],[15.0719,0.8944,447.2379],[15.0694,0.8897,421.9396],[15.0694,0.8828,394.5459],[15.0739,0.8606,390.6034],[15.0781,0.8506,386.4509],[15.0919,0.8308,384.5793],[15.0947,0.8197,424.8622],[15.0908,0.7889,419.7291],[15.0847,0.7606,404.7807],[15.0853,0.6867,395.1641],[15.0883,0.6694,412.3185],[15.1022,0.6292,372.0095],[15.1033,0.6167,375.895],[15.1019,0.6114,389.8389],[15.0872,0.5917,370.5148],[15.0842,0.5669,396.2708],[15.0892,0.5314,424.7263],[15.0936,0.5225,450.4422],[15.0972,0.5189,475.3529],[15.1039,0.5189,473.335],[15.115,0.5161,421.5222],[15.1183,0.5125,404.7052],[15.1272,0.5075,411.8483],[15.1464,0.5086,386.6203],[15.1553,0.5036,387.4246],[15.1597,0.4947,398.3501],[15.1653,0.4947,373.2362],[15.1694,0.4975,394.1849],[15.1733,0.4972,371.7621],[15.1742,0.4911,379.4714],[15.1706,0.4742,407.6401],[15.1956,0.4719,366.6168],[15.2006,0.4697,363.898],[15.2039,0.4664,365.9029],[15.2058,0.4614,362.9017],[15.2036,0.4567,367.2655],[15.2036,0.4497,379.8472],[15.2081,0.4408,354.8207],[15.2131,0.4417,352.8642],[15.22,0.4483,362.7334],[15.2256,0.4469,356.009],[15.2364,0.4383,362.9919],[15.2547,0.4361,360.3265],[15.2622,0.43,359.9868],[15.2647,0.4258,350.6087],[15.2653,0.4058,355.9705],[15.2672,0.4011,359.2673],[15.2711,0.3997,363.1528],[15.2764,0.4086,361.2376],[15.2775,0.4139,358.126],[15.2825,0.4161,356.8374],[15.2867,0.4144,362.0165],[15.2892,0.4103,360.8477],[15.2892,0.4047,362.1639],[15.2847,0.3886,360.0128],[15.2867,0.3839,359.7943],[15.2917,0.3817,362.3145],[15.3039,0.3897,364.9032],[15.3108,0.3894,400.8093],[15.3169,0.3889,396.0927],[15.325,0.3831,354.2058],[15.3353,0.3797,374.2918],[15.3489,0.3794,374.527],[15.3661,0.3758,354.698],[15.3756,0.3797,371.7336],[15.3903,0.3928,404.4129],[15.4119,0.3867,378.8224],[15.4264,0.3803,375.3806],[15.4386,0.3817,355.5083],[15.4575,0.3733,348.8884],[15.4631,0.3731,353.6011],[15.47,0.3661,355.9975],[15.4758,0.3656,353.1879],[15.4906,0.3714,349.9474],[15.5022,0.3692,350.2214],[15.5122,0.3589,354.3398],[15.5208,0.3539,347.633],[15.5264,0.3525,356.3705],[15.5333,0.3525,354.8674],[15.5381,0.3544,354.9139],[15.5528,0.3747,335.8967],[15.5728,0.3889,374.7789],[15.5769,0.3983,353.9647],[15.5811,0.4147,393.1076],[15.5856,0.4242,378.1537],[15.5889,0.4278,365.2476],[15.5992,0.4308,362.8164],[15.6117,0.4319,405.9922],[15.6206,0.4367,428.0436],[15.6233,0.4408,432.2177],[15.6275,0.4433,429.7733],[15.6325,0.4456,426.7191],[15.6508,0.4472,366.7184],[15.6625,0.4558,384.5817],[15.6686,0.4567,421.2882],[15.6797,0.455,377.1744],[15.6967,0.4583,377.5411],[15.7097,0.4656,353.6341],[15.7153,0.4656,349.728],[15.72,0.4636,348.7228],[15.7353,0.4675,386.5457],[15.7433,0.4619,380.6617],[15.7458,0.4508,371.7781],[15.7519,0.4431,347.0304],[15.7642,0.4431,348.3284],[15.7906,0.4578,391.5873],[15.8014,0.455,390.6581],[15.8072,0.4472,389.4691],[15.8444,0.4517,361.6274],[15.8783,0.4436,360.1603],[15.8844,0.4361,380.5114],[15.8986,0.4297,407.5891],[15.9042,0.4214,394.0486],[15.9164,0.4133,359.7651],[15.9511,0.3997,340.073],[15.9578,0.3931,341.4833],[15.96,0.3881,343.7462],[15.9594,0.3622,333.7029],[15.965,0.3536,339.5032],[15.9731,0.3481,339.0793],[15.9833,0.3447,337.8378],[15.9886,0.3444,335.8636],[15.9983,0.3486,333.6486],[16.0039,0.3483,334.8054],[16.0139,0.3381,333.6403],[16.0461,0.3289,366.6901],[16.0553,0.3247,372.1541],[16.0683,0.31,323.3568],[16.0811,0.3025,331.7918],[16.1053,0.2578,334.7368],[16.1036,0.2344,335.9885],[16.1039,0.1953,330.2098],[16.1067,0.1844,332.049],[16.1233,0.1742,326.8313],[16.1269,0.1706,325.5446],[16.1286,0.1656,328.137],[16.1306,0.1472,313.5845],[16.1283,0.1214,324.3398],[16.1256,0.1181,319.8341],[16.1447,0.1178,322.8514],[16.1672,0.1058,328.5287],[16.1781,0.1028,318.2355],[16.185,0.1028,319.3781],[16.1903,0.1039,323.2371],[16.2061,0.1156,313.6638],[16.2153,0.1203,311.1458],[16.2208,0.1217,311.217],[16.2267,0.1206,322.4602],[16.2308,0.1181,329.0437],[16.2403,0.1069,321.5786],[16.2483,0.1011,326.0978],[16.2636,0.0958,319.5904],[16.2675,0.0931,320.0403],[16.2711,0.0894,325.0797],[16.2811,0.0722,312.7565],[16.2853,0.0694,326.2178],[16.2897,0.0675,309.8158],[16.3106,0.0742,322.9972],[16.3275,0.0711,328.1626],[16.3344,0.0483,329.7234],[16.3411,0.0408,329.4073],[16.3461,0.0383,316.289],[16.4856,0.11,322.1676],[16.7019,0.2167,328.7303],[16.7378,0.2361,328.2575],[16.7424,0.2344,329.3973],[16.77,0.2525,324.3318],[16.8067,0.2717,324.8333],[16.8811,0.3069,321.8],[16.95,0.3442,328.2522],[17.0283,0.3819,332.5035],[17.0497,0.3942,336.5254],[17.0228,0.4244,333.6163],[16.9731,0.4906,329.6104],[16.9417,0.5272,327.0671],[16.9006,0.5797,326.1859],[16.7614,0.7647,331.3314],[16.7325,0.7994,331.1597],[16.7283,0.8097,332.7646],[16.7153,0.8261,335.1505],[16.7061,0.8428,334.9858],[16.6933,0.875,334.5334],[16.6903,0.8914,362.2548],[16.6931,0.9467,346.7402],[16.6931,0.9689,376.699],[16.6906,0.9842,370.5925],[16.6919,0.9917,347.2696],[16.7056,1.0136,344.1363],[16.7211,1.0292,360.9689],[16.7672,1.0522,349.9832],[16.7747,1.0586,346.2669],[16.7797,1.0667,334.8282],[16.7825,1.0739,332.8152],[16.7836,1.0897,334.4774],[16.7814,1.1053,332.83],[16.7739,1.1294,333.98],[16.7806,1.1442,335.343],[16.8025,1.1756,336.096],[16.8025,1.1839,364.6257],[16.7964,1.2081,365.5045],[16.7897,1.2233,343.8427],[16.7786,1.2622,358.6582],[16.7764,1.2783,351.6805],[16.7778,1.2931,337.0084],[16.7731,1.3003,337.8887],[16.7583,1.3086,359.7202],[16.7508,1.3153,359.6278],[16.7453,1.3231,363.0709],[16.7331,1.355,351.3487],[16.7297,1.3708,379.6332],[16.7303,1.3778,394.1622],[16.7269,1.385,396.4703],[16.7153,1.4006,392.0168],[16.7119,1.4183,366.9595],[16.7189,1.44,379.3291],[16.7211,1.4547,399.7195],[16.7147,1.4619,403.18],[16.7003,1.4647,402.4456],[16.6947,1.4719,399.1906],[16.6997,1.4864,372.4868],[16.7131,1.5044,372.6141],[16.7264,1.5183,420.8061],[16.7311,1.5258,391.683],[16.7331,1.5336,419.8614],[16.7261,1.5733,369.4326],[16.7186,1.5989,389.9803],[16.7167,1.6139,405.7044],[16.7183,1.6214,420.5502],[16.7233,1.6286,396.0409],[16.7214,1.6358,388.43],[16.7125,1.6444,399.2875],[16.7031,1.66,378.713],[16.7031,1.6681,387.3007],[16.7064,1.6753,377.0047],[16.7197,1.6903,374.3691],[16.7231,1.7058,374.2579],[16.7328,1.7364,386.517],[16.7444,1.7644,371.665],[16.7494,1.7808,382.0271],[16.7636,1.8128,406.8817],[16.7617,1.8208,409.4787],[16.7483,1.8344,382.6859],[16.735,1.8978,406.2776],[16.7344,1.9069,392.6341],[16.7417,1.9222,386.2411],[16.7347,1.9378,392.5766],[16.7375,1.96,388.1555],[16.7369,1.9675,390.5522],[16.7289,1.9914,406.7397],[16.7217,2.0519,396.7808],[16.7236,2.0772,426.3898],[16.7303,2.1008,412.778],[16.7375,2.1064,428.3885],[16.7597,2.1139,450.7225],[16.7614,2.1217,430.9758],[16.7608,2.1364,437.2362],[16.7639,2.145,417.6982],[16.7603,2.1522,419.3133],[16.7453,2.1603,406.7338],[16.7386,2.1747,409.7037],[16.7378,2.1819,435.8035],[16.7344,2.2275,437.3016],[16.7344,2.25,477.2703],[16.7439,2.3056,453.0475],[16.7392,2.3394,461.0282],[16.7431,2.3786,488.7077],[16.7406,2.3858,479.4599],[16.7119,2.4228,470.4421],[16.6978,2.4531,516.4971],[16.6775,2.4894,521.387],[16.67,2.495,522.4125],[16.6325,2.5067,502.3494],[16.6256,2.5136,521.6506],[16.6178,2.5161,503.6905],[16.5964,2.5056,500.8416],[16.5736,2.4986,455.6957],[16.5656,2.4989,493.4216],[16.5583,2.5044,501.9],[16.5569,2.5128,475.1772],[16.5597,2.5272,484.3884],[16.5592,2.5428,513.4008],[16.5578,2.5506,500.1274],[16.5533,2.5578,488.5542],[16.5369,2.5664,521.4327],[16.5319,2.5736,508.5947],[16.5261,2.5881,491.5025],[16.52,2.5956,444.1131],[16.4911,2.6081,485.5403],[16.4836,2.6131,501.9884],[16.4786,2.6294,514.6531],[16.4789,2.6439,542.8034],[16.4811,2.6519,543.6254],[16.4883,2.6567,525.9391],[16.4925,2.6639,507.9224],[16.4881,2.6789,501.3329],[16.4786,2.6939,520.0599],[16.4719,2.7083,521.1765],[16.4644,2.7131,520.8831],[16.4528,2.716,547.4196],[16.4249,2.6618,453.4302],[16.4175,2.6508,477.4363],[16.3423,2.5037,416.9065],[16.3319,2.4874,446.3937],[16.2991,2.423,417.3993],[16.2904,2.4025,378.8806],[16.287,2.3991,409.347],[16.2746,2.374,400.5987],[16.2709,2.3699,402.4169],[16.2654,2.3568,398.8439],[16.2131,2.2577,395.7214],[16.2088,2.2467,378.0798],[16.1952,2.2235,365.0289],[16.192,2.2205,342.0],[16.1893,2.2248,342.0],[16.191,2.2199,342.0],[16.1888,2.2104,342.0],[16.1778,2.1978,341.5],[16.1622,2.1946,341.0],[16.1541,2.1853,354.7348],[16.1513,2.1795,340.5],[16.1457,2.1766,340.5],[16.1402,2.1772,340.5],[16.1383,2.1794,340.5],[16.1363,2.1932,342.8733],[16.132,2.1971,340.0],[16.106,2.2007,339.5],[16.0891,2.2006,339.0],[16.0837,2.1936,355.7302],[16.0795,2.1316,338.0],[16.0889,2.1002,340.0964],[16.0894,2.093,345.44],[16.0834,2.08,346.7642],[16.0807,2.0777,350.7552],[16.0657,2.0732,336.5],[16.0634,2.0692,346.7802],[16.0649,2.0645,339.736],[16.07,2.0584,336.5],[16.0822,2.0516,336.0],[16.0836,2.0457,338.3195],[16.0795,2.0333,335.5],[16.0536,2.0084,335.0],[16.053,2.0025,335.0],[16.0579,1.983,353.534],[16.0508,1.9746,348.2234],[16.0525,1.9708,334.375],[16.0597,1.9656,352.9139],[16.0623,1.9606,340.0216],[16.0738,1.9511,342.1421],[16.0837,1.9206,356.18],[16.085,1.8995,340.9647],[16.0881,1.891,332.0],[16.0934,1.8873,340.4188],[16.1081,1.8917,332.0],[16.1103,1.891,340.4745],[16.1114,1.8885,355.3388],[16.1114,1.884,360.6014],[16.1062,1.8724,340.075],[16.1107,1.8571,331.5],[16.1115,1.8476,346.8653],[16.1237,1.8188,331.125],[16.1314,1.8096,331.0],[16.1378,1.7974,331.0],[16.1396,1.7883,340.3309],[16.1391,1.7773,331.0],[16.1426,1.765,345.8001],[16.1422,1.7606,330.5],[16.1345,1.744,338.4483],[16.1392,1.7247,335.1806],[16.1474,1.7122,330.5],[16.1491,1.6993,330.0],[16.1483,1.6912,330.0],[16.1415,1.6845,345.3951],[16.1377,1.6837,354.8876],[16.1349,1.6848,342.5968],[16.1242,1.6977,345.0308],[16.1152,1.6995,352.9883],[16.0839,1.6879,331.086],[16.0601,1.6523,329.9965],[16.0508,1.6581,333.2047],[16.0296,1.6586,336.793],[16.0233,1.6676,328.5],[16.0193,1.6804,329.0],[16.0239,1.7038,338.5072],[16.0232,1.7092,333.3234],[16.0148,1.7156,329.5],[16.0145,1.7176,329.5],[16.0207,1.7367,330.0],[16.0322,1.7555,330.5],[16.0316,1.7607,340.6739],[16.0271,1.7663,348.1277],[15.9614,1.766,333.0],[15.9377,1.7796,344.4099],[15.9202,1.7807,348.5376],[15.9144,1.7824,352.7408],[15.9123,1.7876,344.5575],[15.9134,1.7958,334.6657],[15.9114,1.7971,340.6453],[15.9011,1.7974,336.7071],[15.8938,1.7953,342.5858],[15.8835,1.7873,337.86],[15.8821,1.7993,361.9942],[15.8679,1.8317,340.8235],[15.8463,1.8331,342.4117],[15.8431,1.8347,355.238],[15.8297,1.8511,348.0611],[15.8177,1.8523,347.094],[15.8059,1.859,357.5372],[15.7922,1.8725,366.4091],[15.7851,1.8898,341.8487],[15.7729,1.8997,334.5],[15.7639,1.9103,334.5],[15.748,1.9195,334.5],[15.7278,1.9128,346.7552],[15.7181,1.9236,338.5139],[15.7074,1.9257,334.5],[15.6865,1.9343,353.2888],[15.6804,1.9337,361.4546],[15.6727,1.9281,349.5621],[15.6673,1.9278,344.802],[15.6443,1.9353,335.0],[15.6175,1.9398,343.0134],[15.6001,1.9458,338.7991],[15.5948,1.9512,358.7085],[15.589,1.9534,339.3476],[15.586,1.9535,346.0977],[15.5744,1.9484,372.5744],[15.5642,1.9482,360.9424],[15.5564,1.9524,335.0],[15.5498,1.9601,335.0],[15.545,1.9631,361.1729],[15.5398,1.9623,364.2745],[15.5319,1.9555,386.6381],[15.515,1.9681,339.9183],[15.4862,1.9826,341.5577],[15.4758,1.9721,347.8061],[15.4539,1.968,355.0846],[15.4281,1.9585,356.7922],[15.4229,1.9551,339.7367],[15.4185,1.9483,356.5891]]]]}
,"properties": {"GID_1": "COG.12_1","GID_0": "COG","country": "RepublicoftheCongo","province": "Sangha","VARNAME_1": "NA","NL_NAME_1": "NA","TYPE_1": "Région","ENGTYPE_1": "Region","CC_1": "NA","HASC_1": "CG.SA","ISO_1": "CG-13","name": "Sangha.province","area_km2": 57961.38,"hist_schema_id": "Elevation0-9000","hist_area_km2": {"300": 83.7,"325": 5287.96,"350": 7128.1,"375": 6501.15,"400": 5838.29,"425": 5011.39,"450": 4438.38,"475": 3445.4,"500": 5859.39,"525": 6233.4,"550": 2984.4,"575": 1452.36,"600": 948.91,"625": 779.98,"650": 649.99,"675": 411.61,"700": 305.94,"725": 238.05,"750": 181.35,"775": 125.23,"800": 42.56,"825": 4.85,"850": 3.48,"875": 2.33,"900": 1.65,"925": 0.83}}}