{"type":"Feature","properties":{"GID_2":"COG.9.4_1","GID_0":"COG","country":"RepublicoftheCongo","GID_1":"COG.9_1","province":"Plateaux","NL_NAME_1":"NA","county":"Lékana","VARNAME_2":"NA","NL_NAME_2":"NA","TYPE_2":"District","ENGTYPE_2":"District","CC_2":"NA","HASC_2":"CG.PL.LE","name":"Lékana.county"},
"geometry":{"type": "MultiPolygon","coordinates": [[[[14.1113,-2.4614,665.656],[14.1122,-2.5011,729.804],[14.1192,-2.5233,770.1757],[14.1267,-2.5303,742.2584],[14.1414,-2.5331,690.1649],[14.1489,-2.5361,770.9886],[14.1558,-2.5428,739.3035],[14.1567,-2.5503,661.7715],[14.1553,-2.5575,641.1432],[14.1517,-2.565,642.6008],[14.1444,-2.5697,628.5143],[14.1289,-2.5678,706.0731],[14.1217,-2.5692,750.3431],[14.1183,-2.5778,701.4572],[14.1244,-2.5856,651.5995],[14.1314,-2.5911,634.5768],[14.1544,-2.6064,669.6628],[14.1617,-2.6086,690.5183],[14.1633,-2.6014,739.9846],[14.1672,-2.5942,744.3593],[14.1747,-2.5906,675.3677],[14.1822,-2.5917,718.5358],[14.1894,-2.5964,754.4794],[14.1939,-2.6036,726.3461],[14.1933,-2.6117,692.2338],[14.1878,-2.6192,645.6671],[14.1797,-2.625,598.4104],[14.1653,-2.6314,672.9282],[14.1533,-2.6464,637.0535],[14.1378,-2.6542,690.6202],[14.1314,-2.6614,698.5203],[14.1403,-2.6758,712.0787],[14.1469,-2.6833,715.0068],[14.1792,-2.6819,800.1043],[14.1939,-2.6894,703.1211],[14.1994,-2.6964,685.0739],[14.2069,-2.6986,685.1203],[14.2144,-2.6964,616.3824],[14.2331,-2.6836,728.7812],[14.2403,-2.6817,675.3784],[14.2478,-2.6808,718.6751],[14.2547,-2.6842,750.8873],[14.2592,-2.6914,740.9785],[14.2667,-2.6981,721.4758],[14.2739,-2.6958,778.9311],[14.2817,-2.6892,779.0428],[14.2903,-2.6844,756.671],[14.2983,-2.6844,737.679],[14.305,-2.6928,780.4338],[14.3044,-2.7017,794.603],[14.3031,-2.7094,718.1373],[14.2992,-2.7181,699.2463],[14.2853,-2.7406,724.5544],[14.2786,-2.7564,768.5085],[14.2778,-2.7639,684.379],[14.285,-2.77,706.1108],[14.2917,-2.7631,651.6769],[14.2981,-2.7486,753.4531],[14.3053,-2.7483,612.1214],[14.3718,-2.757,709.9711],[14.3879,-2.7492,760.3516],[14.4187,-2.7804,730.4031],[14.4393,-2.7875,616.8528],[14.4522,-2.7734,516.0662],[14.445,-2.6541,758.3875],[14.4646,-2.5864,531.8127],[14.4946,-2.5448,646.3091],[14.5362,-2.5052,751.6201],[14.5744,-2.4526,613.5568],[14.6295,-2.3979,743.1849],[14.646,-2.3691,585.6013],[14.6732,-2.3385,768.855],[14.6983,-2.314,627.3587],[14.7333,-2.2837,555.9473],[14.7616,-2.256,493.9215],[14.7853,-2.2292,600.3313],[14.8179,-2.18,651.0309],[14.8254,-2.1433,580.8687],[14.8223,-2.1024,647.5643],[14.8135,-2.0747,561.4713],[14.7903,-2.0419,594.9606],[14.7685,-2.0216,407.6036],[14.7199,-1.9987,610.6619],[14.6953,-1.9836,646.4766],[14.6767,-1.9756,635.9606],[14.6534,-1.9527,654.7653],[14.6451,-1.9133,505.064],[14.6308,-1.8711,458.8206],[14.6094,-1.8989,467.3413],[14.6,-1.9156,452.9164],[14.5883,-1.9306,454.1959],[14.5728,-1.9456,516.9269],[14.55,-1.9625,465.0279],[14.5358,-1.9706,485.5962],[14.5283,-1.9694,543.039],[14.52,-1.9706,588.2154],[14.5128,-1.9764,546.7079],[14.5025,-1.9997,513.4562],[14.4886,-2.0156,519.9825],[14.4806,-2.0189,561.8773],[14.4653,-2.0203,566.857],[14.4358,-2.0264,448.7832],[14.4108,-2.0242,457.9433],[14.3881,-2.0189,468.9679],[14.3806,-2.0139,467.6885],[14.3764,-2.0064,464.7643],[14.3719,-1.9819,616.6896],[14.3717,-1.9667,570.4481],[14.3722,-1.9356,587.0164],[14.3764,-1.8917,664.5138],[14.3133,-1.9308,685.1879],[14.3024,-1.9412,588.6482],[14.2942,-1.946,617.3446],[14.2573,-1.9832,708.2122],[14.2505,-1.9973,704.5486],[14.2474,-2.0187,729.0212],[14.247,-2.0334,768.6945],[14.2554,-2.0879,634.5214],[14.2532,-2.1056,730.0887],[14.2446,-2.1146,490.6978],[14.2332,-2.1204,614.8654],[14.2252,-2.1271,714.1528],[14.2159,-2.1494,789.141],[14.2109,-2.1575,764.9917],[14.1972,-2.1654,662.7612],[14.1742,-2.1717,546.5654],[14.1641,-2.177,615.3112],[14.158,-2.1876,640.8698],[14.1564,-2.1943,657.688],[14.1645,-2.209,624.8746],[14.2169,-2.2849,679.8566],[14.2213,-2.2966,793.9987],[14.2202,-2.3037,697.713],[14.2136,-2.3141,671.1931],[14.179,-2.3421,515.0688],[14.166,-2.3601,614.1141],[14.1197,-2.4488,636.8327],[14.1113,-2.4614,665.656]]]]}}