{"type":"Feature","properties":{"GID_2":"COG.1.1_1","GID_0":"COG","country":"RepublicoftheCongo","GID_1":"COG.1_1","province":"Bouenza","NL_NAME_1":"NA","county":"Boko-Songho","VARNAME_2":"NA","NL_NAME_2":"NA","TYPE_2":"District","ENGTYPE_2":"District","CC_2":"NA","HASC_2":"CG.BO.BS","name":"Boko-Songho.county"},
"geometry":{"type": "MultiPolygon","coordinates": [[[[13.756,-4.4457,762.115],[13.7538,-4.4307,654.7781],[13.7399,-4.4177,498.0161],[13.7197,-4.3851,557.8698],[13.682,-4.3533,343.6556],[13.6666,-4.3423,327.248],[13.6514,-4.3265,276.6091],[13.6066,-4.289,337.948],[13.5698,-4.2919,345.9437],[13.5475,-4.2901,341.9239],[13.5092,-4.3072,317.4794],[13.4363,-4.3322,291.516],[13.3876,-4.3595,207.1447],[13.3582,-4.3665,196.622],[13.2682,-4.4124,177.9566],[13.2869,-4.4503,208.4503],[13.3147,-4.4892,255.9409],[13.3219,-4.4939,255.9515],[13.3253,-4.5025,257.9156],[13.3242,-4.5172,273.2639],[13.3289,-4.525,279.7173],[13.3442,-4.5328,224.6077],[13.3469,-4.5408,219.9691],[13.3472,-4.5483,250.6802],[13.3517,-4.5556,247.0821],[13.3589,-4.5625,229.0847],[13.3628,-4.5697,255.4617],[13.3706,-4.5728,262.8611],[13.3775,-4.5781,281.0061],[13.3822,-4.5861,297.8755],[13.3814,-4.6083,298.7867],[13.3828,-4.6164,288.581],[13.3861,-4.6247,290.611],[13.3922,-4.6322,261.6846],[13.3994,-4.635,269.4592],[13.4158,-4.6356,306.9434],[13.4239,-4.6378,283.1208],[13.4461,-4.6556,313.8242],[13.475,-4.6736,355.2615],[13.4983,-4.6906,327.3767],[13.5356,-4.7078,310.6123],[13.5658,-4.7275,339.693],[13.5706,-4.7353,367.5467],[13.575,-4.7497,560.0909],[13.5775,-4.7722,436.0464],[13.5786,-4.8179,454.0107],[13.5823,-4.8194,451.968],[13.5944,-4.8138,466.4856],[13.6013,-4.8025,469.5427],[13.6074,-4.781,459.4141],[13.6307,-4.7423,388.1031],[13.6352,-4.7395,355.1968],[13.6497,-4.7406,372.7781],[13.6582,-4.7491,345.7039],[13.6634,-4.7513,364.2537],[13.6732,-4.7626,420.2077],[13.6785,-4.764,463.7148],[13.6856,-4.7686,414.3356],[13.6902,-4.7683,380.559],[13.6924,-4.7593,350.0608],[13.6923,-4.7484,346.8961],[13.6895,-4.7401,344.5793],[13.6784,-4.7269,329.1177],[13.6807,-4.7195,327.5753],[13.689,-4.7191,310.2427],[13.7099,-4.7246,306.3517],[13.7169,-4.725,309.7079],[13.7225,-4.7205,324.2235],[13.7263,-4.7112,309.7727],[13.7292,-4.7091,317.1834],[13.7315,-4.7033,332.2585],[13.7321,-4.6955,363.6711],[13.7308,-4.6858,314.4442],[13.7233,-4.6788,327.3037],[13.7132,-4.6734,429.2388],[13.7114,-4.6691,376.3275],[13.7107,-4.6555,304.3963],[13.7163,-4.6509,312.2671],[13.7302,-4.6005,545.3362],[13.7354,-4.5931,526.4903],[13.7482,-4.5673,501.9583],[13.7502,-4.5578,493.5737],[13.7483,-4.5503,526.6455],[13.7506,-4.5382999999999996,504.7459],[13.7501,-4.5321,534.397],[13.7462,-4.524,530.2416],[13.7386,-4.5155,586.3308],[13.7305,-4.4939,733.5428],[13.7304,-4.4693,727.4899],[13.7359,-4.4578,745.7922],[13.756,-4.4457,762.115]]]]}}