{"type": "Feature","bbox": [14.5003,0.0383,17.0497,2.716],"geometry": {"type": "MultiPolygon","coordinates": [[[[15.4177,1.9469,360.4041],[15.4227,1.9518,364.5688],[15.4344,1.9572,364.8903],[15.4271,1.9201,392.5173],[15.4072,1.8455,412.4614],[15.3928,1.7603,644.2861],[15.3898,1.7138,645.793],[15.3699,1.6715,644.9167],[15.3604,1.6061,601.8293],[15.4097,1.5646,565.9197],[15.4395,1.5447,546.1787],[15.4992,1.5248,519.6957],[15.5514,1.5124,466.5799],[15.6036,1.4801,450.1766],[15.6407,1.4452,481.4894],[15.4918,1.4502,489.891],[15.4246,1.4403,575.4919],[15.35,1.4477,608.3699],[15.2158,1.4378,510.5065],[15.1362,1.4378,453.7497],[15.0716,1.4502,425.8719],[14.9945,1.4403,437.2083],[14.9373,1.4452,464.6489],[14.7782,1.4428,525.4061],[14.721,1.4378,522.0637],[14.6613,1.4428,553.7324],[14.5718,1.4278,653.1659],[14.5003,1.3914,771.5701],[14.5033,1.3914,779.7272],[14.5103,1.3844,802.542],[14.5136,1.3758,785.309],[14.5122,1.3517,791.7048],[14.5139,1.3439,788.3201],[14.5211,1.3281,780.7328],[14.5217,1.3128,781.7248],[14.53,1.2567,686.1951],[14.5342,1.2494,689.833],[14.5497,1.2419,679.5348],[14.5728,1.2236,641.3107],[14.5967,1.2133,547.6805],[14.6317,1.2025,549.1196],[14.6719,1.1925,492.8769],[14.7192,1.1744,489.2939],[14.7339,1.1739,502.838],[14.7489,1.1806,544.3306],[14.765,1.1833,522.7672],[14.78,1.1814,491.4271],[14.795,1.1764,538.9149],[14.8108,1.1639,500.267],[14.8183,1.16,512.9532],[14.8303,1.1436,475.6257],[14.8356,1.1281,471.7923],[14.8422,1.1203,416.0927],[14.8503,1.115,466.7048],[14.8717,1.1106,441.2492],[14.8869,1.0992,426.4312],[14.9031,1.0975,409.8326],[14.9342,1.0697,403.0606],[14.95,1.06,408.051],[14.9664,1.0525,458.2383],[14.9964,1.045,418.0072],[15.0122,1.0436,403.7029],[15.0453,1.0469,390.287],[15.0753,1.0467,391.875],[15.0758,1.0522,389.728],[15.0781,1.0406,391.0156],[15.0825,1.0317,391.6339],[15.0892,1.0247,390.4406],[15.0981,1.02,388.3348],[15.1167,1.0175,446.652],[15.1336,1.0072,439.8043],[15.1394,0.9997,440.4379],[15.1503,0.9775,458.2514],[15.1547,0.9617,437.7786],[15.1503,0.9456,393.6713],[15.1408,0.9414,408.4357],[15.1278,0.9408,392.132],[15.1175,0.9378,387.0319],[15.1092,0.9322,385.4181],[15.1022,0.9186,403.0479],[15.0986,0.9153,432.2126],[15.0925,0.9147,448.2354],[15.0883,0.9122,454.4651],[15.0814,0.8986,425.498],[15.0719,0.8944,447.2379],[15.0694,0.8897,421.9396],[15.0694,0.8828,394.5459],[15.0739,0.8606,390.6034],[15.0781,0.8506,386.4509],[15.0919,0.8308,384.5793],[15.0947,0.8197,424.8622],[15.0908,0.7889,419.7291],[15.0847,0.7606,404.7807],[15.0853,0.6867,395.1641],[15.0883,0.6694,412.3185],[15.1022,0.6292,372.0095],[15.1033,0.6167,375.895],[15.1019,0.6114,389.8389],[15.0872,0.5917,370.5148],[15.0842,0.5669,396.2708],[15.0892,0.5314,424.7263],[15.0936,0.5225,450.4422],[15.0972,0.5189,475.3529],[15.1039,0.5189,473.335],[15.115,0.5161,421.5222],[15.1183,0.5125,404.7052],[15.1272,0.5075,411.8483],[15.1464,0.5086,386.6203],[15.1553,0.5036,387.4246],[15.1597,0.4947,398.3501],[15.1653,0.4947,373.2362],[15.1694,0.4975,394.1849],[15.1733,0.4972,371.7621],[15.1742,0.4911,379.4714],[15.1706,0.4742,407.6401],[15.1956,0.4719,366.6168],[15.2006,0.4697,363.898],[15.2039,0.4664,365.9029],[15.2058,0.4614,362.9017],[15.2036,0.4567,367.2655],[15.2036,0.4497,379.8472],[15.2081,0.4408,354.8207],[15.2131,0.4417,352.8642],[15.22,0.4483,362.7334],[15.2256,0.4469,356.009],[15.2364,0.4383,362.9919],[15.2547,0.4361,360.3265],[15.2622,0.43,359.9868],[15.2647,0.4258,350.6087],[15.2653,0.4058,355.9705],[15.2672,0.4011,359.2673],[15.2711,0.3997,363.1528],[15.2764,0.4086,361.2376],[15.2775,0.4139,358.126],[15.2825,0.4161,356.8374],[15.2867,0.4144,362.0165],[15.2892,0.4103,360.8477],[15.2892,0.4047,362.1639],[15.2847,0.3886,360.0128],[15.2867,0.3839,359.7943],[15.2917,0.3817,362.3145],[15.3039,0.3897,364.9032],[15.3108,0.3894,400.8093],[15.3169,0.3889,396.0927],[15.325,0.3831,354.2058],[15.3353,0.3797,374.2918],[15.3489,0.3794,374.527],[15.3661,0.3758,354.698],[15.3756,0.3797,371.7336],[15.3903,0.3928,404.4129],[15.4119,0.3867,378.8224],[15.4264,0.3803,375.3806],[15.4386,0.3817,355.5083],[15.4575,0.3733,348.8884],[15.4631,0.3731,353.6011],[15.47,0.3661,355.9975],[15.4758,0.3656,353.1879],[15.4906,0.3714,349.9474],[15.5022,0.3692,350.2214],[15.5122,0.3589,354.3398],[15.5208,0.3539,347.633],[15.5264,0.3525,356.3705],[15.5333,0.3525,354.8674],[15.5381,0.3544,354.9139],[15.5528,0.3747,335.8967],[15.5728,0.3889,374.7789],[15.5769,0.3983,353.9647],[15.5811,0.4147,393.1076],[15.5856,0.4242,378.1537],[15.5889,0.4278,365.2476],[15.5992,0.4308,362.8164],[15.6117,0.4319,405.9922],[15.6206,0.4367,428.0436],[15.6233,0.4408,432.2177],[15.6275,0.4433,429.7733],[15.6325,0.4456,426.7191],[15.6508,0.4472,366.7184],[15.6625,0.4558,384.5817],[15.6686,0.4567,421.2882],[15.6797,0.455,377.1744],[15.6967,0.4583,377.5411],[15.7097,0.4656,353.6341],[15.7153,0.4656,349.728],[15.72,0.4636,348.7228],[15.7353,0.4675,386.5457],[15.7433,0.4619,380.6617],[15.7458,0.4508,371.7781],[15.7519,0.4431,347.0304],[15.7642,0.4431,348.3284],[15.7906,0.4578,391.5873],[15.8014,0.455,390.6581],[15.8072,0.4472,389.4691],[15.8444,0.4517,361.6274],[15.8783,0.4436,360.1603],[15.8844,0.4361,380.5114],[15.8986,0.4297,407.5891],[15.9042,0.4214,394.0486],[15.9164,0.4133,359.7651],[15.9511,0.3997,340.073],[15.9578,0.3931,341.4833],[15.96,0.3881,343.7462],[15.9594,0.3622,333.7029],[15.965,0.3536,339.5032],[15.9731,0.3481,339.0793],[15.9833,0.3447,337.8378],[15.9886,0.3444,335.8636],[15.9983,0.3486,333.6486],[16.0039,0.3483,334.8054],[16.0139,0.3381,333.6403],[16.0461,0.3289,366.6901],[16.0553,0.3247,372.1541],[16.0683,0.31,323.3568],[16.0811,0.3025,331.7918],[16.1053,0.2578,334.7368],[16.1036,0.2344,335.9885],[16.1039,0.1953,330.2098],[16.1067,0.1844,332.049],[16.1233,0.1742,326.8313],[16.1269,0.1706,325.5446],[16.1286,0.1656,328.137],[16.1306,0.1472,313.5845],[16.1283,0.1214,324.3398],[16.1256,0.1181,319.8341],[16.1447,0.1178,322.8514],[16.1672,0.1058,328.5287],[16.1781,0.1028,318.2355],[16.185,0.1028,319.3781],[16.1903,0.1039,323.2371],[16.2061,0.1156,313.6638],[16.2153,0.1203,311.1458],[16.2208,0.1217,311.217],[16.2267,0.1206,322.4602],[16.2308,0.1181,329.0437],[16.2403,0.1069,321.5786],[16.2483,0.1011,326.0978],[16.2636,0.0958,319.5904],[16.2675,0.0931,320.0403],[16.2711,0.0894,325.0797],[16.2811,0.0722,312.7565],[16.2853,0.0694,326.2178],[16.2897,0.0675,309.8158],[16.3106,0.0742,322.9972],[16.3275,0.0711,328.1626],[16.3344,0.0483,329.7234],[16.3411,0.0408,329.4073],[16.3461,0.0383,316.289],[16.4856,0.11,322.1676],[16.7019,0.2167,328.7303],[16.7378,0.2361,328.2575],[16.7424,0.2344,329.3973],[16.77,0.2525,324.3318],[16.8067,0.2717,324.8333],[16.8811,0.3069,321.8],[16.95,0.3442,328.2522],[17.0283,0.3819,332.5035],[17.0497,0.3942,336.5254],[17.0228,0.4244,333.6163],[16.9731,0.4906,329.6104],[16.9417,0.5272,327.0671],[16.9006,0.5797,326.1859],[16.7614,0.7647,331.3314],[16.7325,0.7994,331.1597],[16.7283,0.8097,332.7646],[16.7153,0.8261,335.1505],[16.7061,0.8428,334.9858],[16.6933,0.875,334.5334],[16.6903,0.8914,362.2548],[16.6931,0.9467,346.7402],[16.6931,0.9689,376.699],[16.6906,0.9842,370.5925],[16.6919,0.9917,347.2696],[16.7056,1.0136,344.1363],[16.7211,1.0292,360.9689],[16.7672,1.0522,349.9832],[16.7747,1.0586,346.2669],[16.7797,1.0667,334.8282],[16.7825,1.0739,332.8152],[16.7836,1.0897,334.4774],[16.7814,1.1053,332.83],[16.7739,1.1294,333.98],[16.7806,1.1442,335.343],[16.8025,1.1756,336.096],[16.8025,1.1839,364.6257],[16.7964,1.2081,365.5045],[16.7897,1.2233,343.8427],[16.7786,1.2622,358.6582],[16.7764,1.2783,351.6805],[16.7778,1.2931,337.0084],[16.7731,1.3003,337.8887],[16.7583,1.3086,359.7202],[16.7508,1.3153,359.6278],[16.7453,1.3231,363.0709],[16.7331,1.355,351.3487],[16.7297,1.3708,379.6332],[16.7303,1.3778,394.1622],[16.7269,1.385,396.4703],[16.7153,1.4006,392.0168],[16.7119,1.4183,366.9595],[16.7189,1.44,379.3291],[16.7211,1.4547,399.7195],[16.7147,1.4619,403.18],[16.7003,1.4647,402.4456],[16.6947,1.4719,399.1906],[16.6997,1.4864,372.4868],[16.7131,1.5044,372.6141],[16.7264,1.5183,420.8061],[16.7311,1.5258,391.683],[16.7331,1.5336,419.8614],[16.7261,1.5733,369.4326],[16.7186,1.5989,389.9803],[16.7167,1.6139,405.7044],[16.7183,1.6214,420.5502],[16.7233,1.6286,396.0409],[16.7214,1.6358,388.43],[16.7125,1.6444,399.2875],[16.7031,1.66,378.713],[16.7031,1.6681,387.3007],[16.7064,1.6753,377.0047],[16.7197,1.6903,374.3691],[16.7231,1.7058,374.2579],[16.7328,1.7364,386.517],[16.7444,1.7644,371.665],[16.7494,1.7808,382.0271],[16.7636,1.8128,406.8817],[16.7617,1.8208,409.4787],[16.7483,1.8344,382.6859],[16.735,1.8978,406.2776],[16.7344,1.9069,392.6341],[16.7417,1.9222,386.2411],[16.7347,1.9378,392.5766],[16.7375,1.96,388.1555],[16.7369,1.9675,390.5522],[16.7289,1.9914,406.7397],[16.7217,2.0519,396.7808],[16.7236,2.0772,426.3898],[16.7303,2.1008,412.778],[16.7375,2.1064,428.3885],[16.7597,2.1139,450.7225],[16.7614,2.1217,430.9758],[16.7608,2.1364,437.2362],[16.7639,2.145,417.6982],[16.7603,2.1522,419.3133],[16.7453,2.1603,406.7338],[16.7386,2.1747,409.7037],[16.7378,2.1819,435.8035],[16.7344,2.2275,437.3016],[16.7344,2.25,477.2703],[16.7439,2.3056,453.0475],[16.7392,2.3394,461.0282],[16.7431,2.3786,488.7077],[16.7406,2.3858,479.4599],[16.7119,2.4228,470.4421],[16.6978,2.4531,516.4971],[16.6775,2.4894,521.387],[16.67,2.495,522.4125],[16.6325,2.5067,502.3494],[16.6256,2.5136,521.6506],[16.6178,2.5161,503.6905],[16.5964,2.5056,500.8416],[16.5736,2.4986,455.6957],[16.5656,2.4989,493.4216],[16.5583,2.5044,501.9],[16.5569,2.5128,475.1772],[16.5597,2.5272,484.3884],[16.5592,2.5428,513.4008],[16.5578,2.5506,500.1274],[16.5533,2.5578,488.5542],[16.5369,2.5664,521.4327],[16.5319,2.5736,508.5947],[16.5261,2.5881,491.5025],[16.52,2.5956,444.1131],[16.4911,2.6081,485.5403],[16.4836,2.6131,501.9884],[16.4786,2.6294,514.6531],[16.4789,2.6439,542.8034],[16.4811,2.6519,543.6254],[16.4883,2.6567,525.9391],[16.4925,2.6639,507.9224],[16.4881,2.6789,501.3329],[16.4786,2.6939,520.0599],[16.4719,2.7083,521.1765],[16.4644,2.7131,520.8831],[16.4528,2.716,547.4196],[16.4249,2.6618,453.4302],[16.4175,2.6508,477.4363],[16.3423,2.5037,416.9065],[16.3319,2.4874,446.3937],[16.2991,2.423,417.3993],[16.2904,2.4025,378.8806],[16.287,2.3991,409.347],[16.2746,2.374,400.5987],[16.2709,2.3699,402.4169],[16.2654,2.3568,398.8439],[16.2131,2.2577,395.7214],[16.2088,2.2467,378.0798],[16.1952,2.2235,365.0289],[16.192,2.2205,342.0],[16.1893,2.2248,342.0],[16.191,2.2199,342.0],[16.1888,2.2104,342.0],[16.1778,2.1978,341.5],[16.1622,2.1946,341.0],[16.1541,2.1853,354.7348],[16.1513,2.1795,340.5],[16.1457,2.1766,340.5],[16.1402,2.1772,340.5],[16.1383,2.1794,340.5],[16.1363,2.1932,342.8733],[16.132,2.1971,340.0],[16.106,2.2007,339.5],[16.0891,2.2006,339.0],[16.0837,2.1936,355.7302],[16.0795,2.1316,338.0],[16.0889,2.1002,340.0964],[16.0894,2.093,345.44],[16.0834,2.08,346.7642],[16.0807,2.0777,350.7552],[16.0657,2.0732,336.5],[16.0634,2.0692,346.7802],[16.0649,2.0645,339.736],[16.07,2.0584,336.5],[16.0822,2.0516,336.0],[16.0836,2.0457,338.3195],[16.0795,2.0333,335.5],[16.0536,2.0084,335.0],[16.053,2.0025,335.0],[16.0579,1.983,353.534],[16.0508,1.9746,348.2234],[16.0525,1.9708,334.375],[16.0597,1.9656,352.9139],[16.0623,1.9606,340.0216],[16.0738,1.9511,342.1421],[16.0837,1.9206,356.18],[16.085,1.8995,340.9647],[16.0881,1.891,332.0],[16.0934,1.8873,340.4188],[16.1081,1.8917,332.0],[16.1103,1.891,340.4745],[16.1114,1.8885,355.3388],[16.1114,1.884,360.6014],[16.1062,1.8724,340.075],[16.1107,1.8571,331.5],[16.1115,1.8476,346.8653],[16.1237,1.8188,331.125],[16.1314,1.8096,331.0],[16.1378,1.7974,331.0],[16.1396,1.7883,340.3309],[16.1391,1.7773,331.0],[16.1426,1.765,345.8001],[16.1422,1.7606,330.5],[16.1345,1.744,338.4483],[16.1392,1.7247,335.1806],[16.1474,1.7122,330.5],[16.1491,1.6993,330.0],[16.1483,1.6912,330.0],[16.1415,1.6845,345.3951],[16.1377,1.6837,354.8876],[16.1349,1.6848,342.5968],[16.1242,1.6977,345.0308],[16.1152,1.6995,352.9883],[16.0839,1.6879,331.086],[16.0601,1.6523,329.9965],[16.0508,1.6581,333.2047],[16.0296,1.6586,336.793],[16.0233,1.6676,328.5],[16.0193,1.6804,329.0],[16.0239,1.7038,338.5072],[16.0232,1.7092,333.3234],[16.0148,1.7156,329.5],[16.0145,1.7176,329.5],[16.0207,1.7367,330.0],[16.0322,1.7555,330.5],[16.0316,1.7607,340.6739],[16.0271,1.7663,348.1277],[15.9614,1.766,333.0],[15.9377,1.7796,344.4099],[15.9202,1.7807,348.5376],[15.9144,1.7824,352.7408],[15.9123,1.7876,344.5575],[15.9134,1.7958,334.6657],[15.9114,1.7971,340.6453],[15.9011,1.7974,336.7071],[15.8938,1.7953,342.5858],[15.8835,1.7873,337.86],[15.8821,1.7993,361.9942],[15.8679,1.8317,340.8235],[15.8463,1.8331,342.4117],[15.8431,1.8347,355.238],[15.8297,1.8511,348.0611],[15.8177,1.8523,347.094],[15.8059,1.859,357.5372],[15.7922,1.8725,366.4091],[15.7851,1.8898,341.8487],[15.7729,1.8997,334.5],[15.7639,1.9103,334.5],[15.748,1.9195,334.5],[15.7278,1.9128,346.7552],[15.7181,1.9236,338.5139],[15.7074,1.9257,334.5],[15.6865,1.9343,353.2888],[15.6804,1.9337,361.4546],[15.6727,1.9281,349.5621],[15.6673,1.9278,344.802],[15.6443,1.9353,335.0],[15.6175,1.9398,343.0134],[15.6001,1.9458,338.7991],[15.5948,1.9512,358.7085],[15.589,1.9534,339.3476],[15.586,1.9535,346.0977],[15.5744,1.9484,372.5744],[15.5642,1.9482,360.9424],[15.5564,1.9524,335.0],[15.5498,1.9601,335.0],[15.545,1.9631,361.1729],[15.5398,1.9623,364.2745],[15.5319,1.9555,386.6381],[15.515,1.9681,339.9183],[15.4862,1.9826,341.5577],[15.4758,1.9721,347.8061],[15.4539,1.968,355.0846],[15.4281,1.9585,356.7922],[15.4206,1.9526,338.8694],[15.4177,1.9469,360.4041]]]]}
,"properties": {"GID_2": "COG.12.1_1","GID_0": "COG","country": "RepublicoftheCongo","GID_1": "COG.12_1","province": "Sangha","NL_NAME_1": "NA","county": "Ouesso","VARNAME_2": "NA","NL_NAME_2": "NA","TYPE_2": "District","ENGTYPE_2": "District","CC_2": "NA","HASC_2": "NA","name": "Ouesso.county","area_km2": 37851.28,"hist_schema_id": "Elevation0-9000","hist_area_km2": {"300": 83.7,"325": 5286.79,"350": 7041.24,"375": 6069.51,"400": 5117.04,"425": 3917.83,"450": 3296.62,"475": 2507.55,"500": 1400.08,"525": 786.4,"550": 684.07,"575": 579.01,"600": 385.1,"625": 304.75,"650": 183.77,"675": 54.54,"700": 34.32,"725": 29.78,"750": 32.58,"775": 38.6,"800": 17.97}}}