{"type": "Feature","id": "3346","bbox": [14.10055,-3.08064,16.65597,-0.937],"geometry": {"type": "Polygon","coordinates": [[[15.93301,-1.15135,321.2988],[15.92536,-1.15125,320.0457],[15.9172,-1.14122,318.6832],[15.90304,-1.11983,321.0819],[15.89539,-1.11642,321.7758],[15.84909,-1.10298,330.4638],[15.84392,-1.0974,313.9874],[15.84041,-1.09058,326.0505],[15.83369,-1.08386,313.3334],[15.8124,-1.07466,328.8918],[15.76641,-1.06433,318.8513],[15.7476,-1.05678,320.2067],[15.73209,-1.03787,330.5745],[15.72827,-1.01472,319.3735],[15.72786,-0.99115,327.9673],[15.72269,-0.97131,316.4729],[15.70925,-0.95891,324.002],[15.6923,-0.95446,330.3968],[15.65303,-0.95095,320.9587],[15.59908,-0.937,336.6882],[15.58006,-0.93824,322.0775],[15.56425,-0.94361,337.357],[15.53459,-0.95849,342.4238],[15.51877,-0.96397,341.97],[15.5133,-0.96346,343.5444],[15.50286,-0.95787,342.6833],[15.49862,-0.95694,345.3928],[15.49159,-0.95942,347.0015],[15.47847,-0.96666,340.2367],[15.44291,-0.97803,344.3378],[15.427,-0.99105,353.6846],[15.39878,-1.03425,363.8123],[15.38442,-1.05079,350.4902],[15.36778,-1.06495,347.9855],[15.36302,-1.06598,350.6275],[15.35258,-1.06298,347.3903],[15.34855,-1.0636,344.6844],[15.34049,-1.07187,352.6377],[15.32881,-1.09068,354.3138],[15.32137,-1.09947,349.5279],[15.29894,-1.11383,354.6026],[15.24944,-1.13554,352.1803],[15.22856,-1.153,352.3669],[15.16303,-1.2393,353.7947],[15.14257,-1.2823,355.8375],[15.09069,-1.44456,354.4069],[15.02196,-1.53314,363.4154],[14.98434,-1.56869,376.2295],[14.96863,-1.57768,381.5069],[14.94134,-1.58926,379.0401],[14.92894,-1.59215,381.4169],[14.89018,-1.58926,383.6888],[14.88181,-1.59019,381.1468],[14.87365,-1.59205,381.8631],[14.82435,-1.61354,376.6284],[14.81132,-1.62212,389.7834],[14.76275,-1.66243,378.6968],[14.74952,-1.67752,384.0697],[14.74146,-1.68982,385.1481],[14.73794,-1.71318,408.2151],[14.73546,-1.72062,408.4218],[14.72213,-1.74284,397.5299],[14.715,-1.75183,407.6696],[14.6872,-1.77881,446.4749],[14.67852,-1.79017,434.537],[14.66673,-1.80898,416.6151],[14.64699,-1.83131,469.6049],[14.64214,-1.83885,521.8145],[14.63097,-1.86862,456.4616],[14.62694,-1.87596,471.4521],[14.58756,-1.93053,454.1959],[14.56503,-1.95141,475.7975],[14.55005,-1.96215,465.0279],[14.5332,-1.9697,491.5739],[14.52235,-1.97239,571.5081],[14.5148,-1.97745,555.0518],[14.50933,-1.98396,492.4922],[14.50158,-2.00039,500.7423],[14.49878,-2.00412,521.1996],[14.49465,-2.00846,525.5398],[14.48793,-2.01393,549.3812],[14.48049,-2.01745,586.0623],[14.44297,-2.02499,476.0674],[14.43522,-2.02582,449.9446],[14.42695,-2.02582,454.8804],[14.41093,-2.02375,457.9433],[14.39595,-2.02013,462.5428],[14.38799,-2.01497,457.0751],[14.38086,-2.00184,525.2544],[14.37497,-1.98241,574.4941],[14.37125,-1.92856,682.3442],[14.36857,-1.92212,664.647],[14.25218,-1.96758,652.6456],[14.24505,-1.97481,581.5058],[14.24009,-1.98226,697.2676],[14.23761,-1.99114,720.96],[14.23813,-2.00262,728.3167],[14.23286,-2.01202,715.949],[14.23348,-2.01822,704.0828],[14.23864,-2.02339,757.6506],[14.24681,-2.02938,744.6782],[14.25167,-2.03786,751.4357],[14.25063,-2.04778,715.4878],[14.24402,-2.06752,657.2221],[14.23844,-2.12023,593.905],[14.23379,-2.13449,781.9722],[14.22697,-2.14132,732.4805],[14.20971,-2.14741,697.085],[14.20433,-2.15217,729.1919],[14.20319,-2.16199,718.0188],[14.2094,-2.17987,655.3552],[14.20919,-2.1872,699.1532],[14.19586,-2.20178,693.8563],[14.16154,-2.21428,616.1233],[14.148,-2.22482,737.4064],[14.15121,-2.25903,512.3984],[14.22697,-2.32311,703.2787],[14.23441,-2.35495,776.9783],[14.23007,-2.35216,768.6242],[14.18232,-2.36332,755.6541],[14.1724,-2.36786,766.7285],[14.1633,-2.37396,556.2585],[14.14418,-2.39019,672.7378],[14.13602,-2.39877,742.2475],[14.13147,-2.4089,632.783],[14.13188,-2.43515,673.2567],[14.12485,-2.44383,645.5976],[14.11524,-2.45137,629.6887],[14.10677,-2.46026,611.4277],[14.10055,-2.47806,769.2469],[14.11069,-2.49308,780.3495],[14.12051,-2.52036,763.108],[14.14935,-2.54723,762.3541],[14.15297,-2.55468,681.5286],[14.154,-2.55922,640.5895],[14.15121,-2.56377,656.5869],[14.1479,-2.56646,631.7531],[14.14294,-2.56863,662.048],[14.1295,-2.57163,706.2493],[14.12403,-2.57783,697.0334],[14.1264,-2.58454,691.289],[14.13168,-2.59085,629.5233],[14.14687,-2.60129,616.298],[14.1539,-2.6046,659.1978],[14.15979,-2.60501,710.4589],[14.16382,-2.60087,750.3699],[14.16971,-2.59705,739.8625],[14.17725,-2.59643,661.9384],[14.18718,-2.60335,775.1439],[14.18924,-2.6108,742.3978],[14.18625,-2.61834,635.8329],[14.17963,-2.62403,595.3715],[14.16547,-2.63302,688.0479],[14.15245,-2.64521,656.9881],[14.13912,-2.65534,708.5381],[14.13519,-2.66165,693.2874],[14.13705,-2.66867,740.9507],[14.14108,-2.67529,712.0787],[14.14749,-2.68066,670.463],[14.15493,-2.68263,810.9695],[14.17095,-2.68273,739.653],[14.17932,-2.68397,800.2672],[14.18749,-2.68717,707.5098],[14.19772,-2.69348,697.0303],[14.2063,-2.69575,697.5194],[14.21467,-2.69462,615.6258],[14.23193,-2.68542,693.9328],[14.2403,-2.68366,674.1689],[14.24867,-2.68469,702.3339],[14.25797,-2.69017,744.7219],[14.26603,-2.6941,777.0438],[14.27534,-2.69441,774.5457],[14.28484,-2.69296,755.3578],[14.29766,-2.69555,740.4281],[14.30138,-2.70185,784.4699],[14.3019,-2.7096,762.6573],[14.29859,-2.71766,693.2415],[14.28546,-2.74143,688.3967],[14.28236,-2.75053,772.0669],[14.28143,-2.76004,703.2371],[14.28546,-2.76448,671.9175],[14.29022,-2.76169,667.0122],[14.2989,-2.75208,704.7972],[14.30324,-2.75218,649.2051],[14.30541,-2.75766,621.9084],[14.30748,-2.77347,621.7986],[14.33941,-2.86246,606.1085],[14.34272,-2.87621,560.4861],[14.34096,-2.88551,570.5652],[14.33538,-2.89254,569.56],[14.32856,-2.8975,578.1358],[14.3143,-2.90494,571.9015],[14.30758,-2.90969,550.7653],[14.30252,-2.91569,553.9456],[14.29942,-2.92189,560.7167],[14.29735,-2.93305,547.7843],[14.29549,-2.93801,550.6181],[14.2927,-2.94235,553.177],[14.28929,-2.94597,550.679],[14.2774,-2.95465,543.9734],[14.27099,-2.96085,545.4969],[14.26748,-2.96747,534.6877],[14.26603,-2.97129,556.712],[14.26087,-2.98132,548.4058],[14.28526,-3.01429,593.8993],[14.30572,-3.02266,662.13],[14.33693,-3.02059,656.0878],[14.35047,-3.02297,572.2915],[14.37187,-3.03578,605.6614],[14.37962,-3.03816,590.4015],[14.38644,-3.03837,557.8118],[14.3975,-3.03578,534.585],[14.4313,-3.03465,512.5281],[14.43708,-3.0364,554.827],[14.44204,-3.03919,578.1266],[14.44587,-3.04229,543.1487],[14.44897,-3.04602,506.0616],[14.45641,-3.05253,498.3702],[14.4684,-3.06069,621.3171],[14.49589,-3.07599,569.495],[14.51108,-3.08023,543.0834],[14.52049,-3.08064,480.246],[14.52421,-3.07692,478.8065],[14.53599,-3.05707,477.3143],[14.55139,-3.04209,475.907],[14.55749,-3.03434,475.8709],[14.57217,-3.00757,465.4654],[14.57527,-3.00426,512.6782],[14.57826,-3.00178,491.4394],[14.59573,-2.99124,466.0547],[14.61981,-2.96726,459.8928],[14.62746,-2.96096,569.6566],[14.64389,-2.9501,458.2832],[14.64637,-2.94793,448.0065],[14.64854,-2.94525,447.4819],[14.6533,-2.93191,451.8019],[14.65454,-2.92933,453.1922],[14.65629,-2.92675,453.1482],[14.66002,-2.92313,452.2339],[14.6873,-2.90401,451.4895],[14.71634,-2.87714,442.6337],[14.72244,-2.86887,430.4517],[14.72378,-2.86608,438.9103],[14.73639,-2.85595,434.4849],[14.77143,-2.83621,431.5402],[14.77949,-2.82877,431.8171],[14.78962,-2.82122,430.4106],[14.79065,-2.82019,430.8469],[14.79179,-2.81874,430.7964],[14.79313,-2.81657,433.5452],[14.79582,-2.81078,423.0421],[14.79902,-2.79807,424.4115],[14.79954,-2.79414,420.9949],[14.79923,-2.77606,419.4157],[14.80016,-2.77017,428.9346],[14.80419,-2.76479,457.4517],[14.8107,-2.75973,482.5481],[14.83478,-2.74629,390.604],[14.84378,-2.73906,390.9432],[14.87396,-2.72128,394.3575],[14.88532,-2.71766,383.3289],[14.89328,-2.71746,382.0052],[14.897,-2.72076,380.5173],[14.89979,-2.72479,382.3113],[14.90693,-2.73823,387.8457],[14.91292,-2.74598,396.6483],[14.91478,-2.75074,382.7226],[14.91561,-2.75632,386.235],[14.91406,-2.77296,373.4756],[14.91571,-2.7775,378.2799],[14.91881,-2.78092,375.7295],[14.92584,-2.78753,379.3632],[14.92904,-2.79135,376.1733],[14.93121,-2.7958,373.2019],[14.93245,-2.80159,382.3093],[14.93297,-2.80768,371.838],[14.93297,-2.83352,369.0411],[14.9401,-2.86649,366.9309],[14.94072,-2.87114,365.6104],[14.94062,-2.87404,367.327],[14.93824,-2.88334,400.166],[14.93793,-2.88892,403.354],[14.93917,-2.89419,462.2495],[14.94475,-2.89853,382.2741],[14.95436,-2.90132,352.0075],[14.97441,-2.90308,346.8473],[14.99198,-2.90235,354.1814],[15.01245,-2.89605,355.0922],[15.03457,-2.88665,361.4051],[15.0419,-2.88603,369.1066],[15.10557,-2.89223,351.6129],[15.11466,-2.8944,335.91],[15.1187,-2.89729,340.582],[15.12169,-2.90122,349.2289],[15.12676,-2.9098,344.6077],[15.13761,-2.91941,338.2133],[15.1404,-2.92365,340.0788],[15.14247,-2.9285,345.2985],[15.1465,-2.95848,343.7501],[15.15239,-2.97377,343.9799],[15.15497,-2.97791,353.0022],[15.15859,-2.98142,352.5827],[15.16283,-2.98411,339.6434],[15.16872,-2.98576,331.6283],[15.18453,-2.98845,340.8759],[15.19022,-2.99051,341.7924],[15.19425,-2.99351,343.4217],[15.19611,-2.99672,335.6072],[15.19724,-2.9992,330.4659],[15.19817,-3.00064,327.64],[15.19983,-3.00261,331.8992],[15.20344,-3.00467,336.7935],[15.21585,-3.00839,333.707],[15.21946,-3.01005,337.7772],[15.22318,-3.01243,338.8286],[15.24282,-3.01976,368.0097],[15.28179,-3.02627,327.2514],[15.29171,-3.02617,332.6966],[15.3099,-3.02173,326.3374],[15.32964,-3.01914,320.8816],[15.34049,-3.01883,335.2455],[15.34897,-3.01956,362.4747],[15.38545,-3.0302,321.931],[15.39444,-3.03093,335.153],[15.40188,-3.03051,322.538],[15.47361,-3.00643,319.1432],[15.48632,-3.00054,321.6855],[15.51113,-2.9838,323.6112],[15.51722,-2.9807,329.8472],[15.52477,-2.97553,313.1092],[15.53924,-2.9623,314.7982],[15.54699,-2.95631,317.5879],[15.55112,-2.95372,320.9599],[15.55495,-2.95083,312.6129],[15.56528,-2.93987,330.8237],[15.572,-2.9347,319.8071],[15.58595,-2.92664,317.7162],[15.59567,-2.92272,317.5354],[15.61779,-2.91693,311.0962],[15.62616,-2.91321,309.2372],[15.62864,-2.91155,310.3972],[15.63422,-2.90639,310.91],[15.63804,-2.90463,311.9481],[15.64383,-2.90277,309.8269],[15.65634,-2.90049,309.5151],[15.66316,-2.8976,309.4067],[15.66791,-2.89357,308.6509],[15.66946,-2.8882,308.8363],[15.67391,-2.87889,309.0353],[15.67659,-2.87528,308.447],[15.68042,-2.87114,307.6066],[15.68931,-2.86566,308.9541],[15.70047,-2.85709,308.112],[15.71576,-2.84933,307.9225],[15.72486,-2.84592,342.1387],[15.78956,-2.83197,308.3942],[15.79617,-2.83383,308.2253],[15.8061,-2.83941,308.3226],[15.80971,-2.83786,308.5548],[15.81695,-2.82897,308.3765],[15.82315,-2.82484,308.57],[15.82801,-2.82649,308.2999],[15.83297,-2.83001,309.2127],[15.84899,-2.83497,306.3354],[15.86149,-2.84117,307.5043],[15.87348,-2.84324,311.5575],[15.90077,-2.8545,307.7849],[15.91276,-2.86194,306.3394],[15.92402,-2.87135,308.2243],[15.92836,-2.87393,306.0],[15.93322,-2.87579,307.9637],[15.9389,-2.87703,306.0],[15.94376,-2.8792,310.7157],[15.94769,-2.8822,337.4918],[15.95368,-2.88985,358.5386],[15.9574,-2.89305,384.446],[15.9605,-2.89688,315.3141],[15.96329,-2.90101,379.306],[15.96784,-2.91693,307.687],[15.97125,-2.92034,308.4826],[15.9757,-2.92282,307.8817],[15.98066,-2.92478,307.9308],[15.985,-2.92737,308.1901],[15.98862,-2.93057,328.1046],[15.99141,-2.93481,306.0],[15.99678,-2.93894,306.0],[16.00474,-2.94235,306.0],[16.02076,-2.94535,318.9438],[16.03357,-2.94618,321.3237],[16.03575,-2.94535,338.5114],[16.03874,-2.9437,355.2176],[16.04215,-2.94101,324.0578],[16.04846,-2.9376,309.6896],[16.05786,-2.93419,287.0933],[16.07647,-2.92995,285.5802],[16.08742,-2.92881,287.0258],[16.09631,-2.92881,284.0263],[16.12173,-2.9315,282.8303],[16.14437,-2.93605,291.6567],[16.18344,-2.94039,274.0],[16.18398,-2.94045,274.0],[16.17703,-2.88246,275.0],[16.17816,-2.86809,275.0],[16.18085,-2.85414,275.5],[16.20452,-2.78272,276.0],[16.2256,-2.63524,277.0],[16.19232,-2.39515,280.0],[16.1917,-2.34688,280.6651],[16.18984,-2.33748,281.2531],[16.18747,-2.33231,281.3815],[16.17827,-2.31846,285.0145],[16.17486,-2.30306,281.0],[16.17692,-2.28684,281.5],[16.18995,-2.24188,282.0],[16.19005,-2.23547,282.0],[16.1886,-2.22772,282.0],[16.18736,-2.20457,282.0],[16.1946,-2.18204,282.0],[16.20679,-2.16095,282.0],[16.23129,-2.12902,282.0],[16.25609,-2.1068,282.0],[16.28441,-2.08757,282.5],[16.34022,-2.03414,283.0],[16.3826,-2.0022,283.0],[16.44564,-1.9405,283.0],[16.46094,-1.92086,285.7549],[16.47003,-1.9127,286.4243],[16.47479,-1.91011,287.0344],[16.49029,-1.9036,283.0],[16.50776,-1.89027,283.8401],[16.51396,-1.88738,286.0112],[16.51716,-1.87373,283.0],[16.52254,-1.86175,283.0],[16.52497,-1.85853,283.0],[16.60419,-1.75405,283.5],[16.61721,-1.72873,284.0],[16.6231,-1.69917,288.9282],[16.62248,-1.66517,288.5507],[16.62382,-1.6538,284.5],[16.62889,-1.63726,285.0],[16.63622,-1.62083,285.0],[16.65597,-1.59029,285.5],[16.65535,-1.59029,285.5],[16.62341,-1.59029,285.5],[16.60057,-1.59298,285.5],[16.59736,-1.58357,286.8934],[16.60212,-1.56859,290.11],[16.60305,-1.55474,294.6019],[16.5984,-1.54357,299.5827],[16.59716,-1.54244,301.8871],[16.59375,-1.54378,307.2584],[16.56429,-1.5319,292.7927],[16.54393,-1.52714,303.2203],[16.52357,-1.5289,301.0942],[16.50548,-1.54037,301.0351],[16.48915,-1.54513,305.386],[16.4629,-1.54575,307.1217],[16.4413,-1.54233,300.8403],[16.43903,-1.53458,306.3506],[16.4352,-1.52931,305.6717],[16.41815,-1.52394,307.9482],[16.4043,-1.51474,305.2333],[16.4104,-1.49841,306.6738],[16.36813,-1.49645,307.2691],[16.34332,-1.4735,299.6344],[16.31139,-1.38534,304.0896],[16.28979,-1.35702,316.1412],[16.27428,-1.32364,311.2955],[16.26994,-1.31651,311.4779],[16.26188,-1.30886,298.0],[16.25568,-1.30514,316.8097],[16.21713,-1.30049,304.7413],[16.20989,-1.29625,313.2137],[16.204,-1.29026,312.3398],[16.09331,-1.2206,318.4486],[16.06231,-1.20509,323.297],[16.03016,-1.19321,318.3095],[15.96598,-1.1869,315.1794],[15.948,-1.17791,322.7363],[15.94738,-1.15486,318.5372],[15.94417,-1.14536,321.7316],[15.93301,-1.15135,321.2988]]]}
,"properties": {"ISO3166-1-Alpha-3": "COG","country": "Republic of the Congo","fill": "#00F","name": "Plateaux","area_km2": 40001.11,"hist_schema_id": "Elevation0-9000","hist_area_km2": {"275": 1263.59,"300": 2978.21,"325": 2323.18,"350": 2541.08,"375": 3085.61,"400": 2899.79,"425": 2291.71,"450": 1992.11,"475": 1787.8,"500": 1698.41,"525": 1636.85,"550": 1577.86,"575": 1547.35,"600": 1517.07,"625": 1843.47,"650": 1972.59,"675": 1793.5,"700": 1704.8,"725": 1305.22,"750": 934.18,"775": 696.34,"800": 290.49,"825": 212.88,"850": 106.17,"875": 0.83}}}