{"type":"Feature","properties":{"GID_1":"COG.9_1","GID_0":"COG","country":"RepublicoftheCongo","province":"Plateaux","VARNAME_1":"NA","NL_NAME_1":"NA","TYPE_1":"Région","ENGTYPE_1":"Region","CC_1":"NA","HASC_1":"CG.PL","ISO_1":"NA","name":"Plateaux.province"},
"geometry":{"type": "MultiPolygon","coordinates": [[[[16.2354,-2.6069,277.5],[16.2092,-2.5166,279.0],[16.1891,-2.4238,280.0],[16.1843,-2.3829,280.5],[16.1852,-2.3199,281.0],[16.1897,-2.2729,281.5],[16.1915,-2.225,282.0],[16.201,-2.198,282.0],[16.242,-2.123,282.0],[16.2678,-2.1071,282.5],[16.3235,-2.0689,283.0],[16.3592,-2.0383,283.0],[16.4055,-1.992,285.323],[16.4879,-1.8956,283.0],[16.538,-1.829,284.0193],[16.552,-1.804,283.0],[16.589,-1.7452,287.9489],[16.6674,-1.5902,285.5],[16.6236,-1.5903,285.5],[16.6064,-1.5933,298.3907],[16.5953,-1.5908,294.9209],[16.5933,-1.5858,288.6208],[16.5939,-1.5797,299.6212],[16.6031,-1.5611,297.0507],[16.605,-1.5381,289.9136],[16.5822,-1.5411,303.6223],[16.5781,-1.5383,289.6628],[16.5728,-1.53,300.2713],[16.5631,-1.5256,304.2277],[16.5397,-1.5303,302.8461],[16.5156,-1.5292,300.0975],[16.5075,-1.5347,300.9792],[16.4997,-1.5478,304.3143],[16.495,-1.5497,305.6397],[16.4894,-1.5497,306.5486],[16.4769,-1.5411,294.5615],[16.4708,-1.5419,304.5854],[16.4642,-1.5486,305.9744],[16.4578,-1.5494,302.9451],[16.4386,-1.5478,304.5946],[16.4333,-1.5461,304.8895],[16.4319,-1.5408,305.9977],[16.4353,-1.5372,306.0622],[16.4447,-1.5333,305.1666],[16.4444,-1.5272,303.1782],[16.4403,-1.5244,301.8289],[16.4089,-1.5214,308.0697],[16.4039,-1.5192,292.0],[16.4006,-1.5156,305.4534],[16.3992,-1.51,306.4317],[16.4025,-1.5069,305.4206],[16.4139,-1.5042,303.9204],[16.4089,-1.4953,305.9974],[16.3892,-1.5025,294.7195],[16.3831,-1.5017,306.125],[16.3719,-1.4919,305.8867],[16.3664,-1.4908,294.9701],[16.3611,-1.4919,305.8073],[16.3583,-1.4958,304.8242],[16.3533,-1.4981,305.9642],[16.3467,-1.4911,299.5524],[16.3458,-1.4847,308.7464],[16.3367,-1.4614,298.5685],[16.3264,-1.4442,313.2312],[16.3206,-1.4292,297.2579],[16.3178,-1.4181,300.9224],[16.3169,-1.3919,299.4337],[16.3114,-1.3836,301.4267],[16.3061,-1.3686,311.377],[16.3028,-1.3647,315.8033],[16.2919,-1.3622,315.1683],[16.2839,-1.3428,311.435],[16.2736,-1.3394,299.8699],[16.27,-1.3358,311.7217],[16.2692,-1.3042,311.0409],[16.2658,-1.3008,306.2061],[16.2597,-1.3,312.8775],[16.2456,-1.3136,315.7959],[16.2408,-1.3114,304.5232],[16.2356,-1.3033,314.3426],[16.2308,-1.3008,313.4352],[16.2244,-1.3017,306.4438],[16.2133,-1.3111,314.145],[16.2072,-1.3103,303.0891],[16.2025,-1.3014,317.5288],[16.2047,-1.2911,312.3398],[16.2014,-1.2878,314.4861],[16.1917,-1.2833,313.6207],[16.19,-1.2717,315.176],[16.1864,-1.2683,314.7198],[16.1658,-1.2708,316.2207],[16.1564,-1.2664,306.3478],[16.1478,-1.2481,321.0891],[16.1272,-1.2408,318.8921],[16.1189,-1.2353,310.3609],[16.1094,-1.2242,307.7884],[16.1033,-1.2233,310.251],[16.0886,-1.2292,314.4934],[16.0833,-1.2278,314.9095],[16.0808,-1.2239,313.5353],[16.0808,-1.2114,321.7906],[16.0706,-1.2122,318.8163],[16.0669,-1.2153,317.4246],[16.0631,-1.2139,320.5575],[16.0542,-1.2022,323.3546],[16.0425,-1.2014,311.3022],[16.0378,-1.1994,319.5358],[16.0308,-1.1922,313.2991],[16.0192,-1.1917,310.9639],[15.9975,-1.1969,319.6536],[15.9808,-1.1856,322.9951],[15.9756,-1.1867,318.6288],[15.9678,-1.1931,306.2595],[15.9631,-1.1936,319.8597],[15.9528,-1.19,308.8828],[15.9472,-1.1817,322.4378],[15.9497,-1.1633,317.4524],[15.9458,-1.1467,320.6441],[15.9417,-1.1439,307.0],[15.9369,-1.1458,308.7914],[15.9306,-1.1603,318.4477],[15.925,-1.1586,317.5533],[15.9131,-1.13,319.0721],[15.9069,-1.1222,318.6664],[15.9028,-1.1194,320.2658],[15.8981,-1.1172,321.2332],[15.8856,-1.1186,324.1472],[15.8794,-1.1178,324.6631],[15.8753,-1.115,323.4084],[15.8694,-1.1072,323.0269],[15.8647,-1.1053,323.34],[15.8456,-1.1064,316.4966],[15.8386,-1.0994,331.5431],[15.8367,-1.0878,314.3362],[15.8314,-1.0794,312.6882],[15.8272,-1.0767,313.415],[15.81,-1.0731,331.2097],[15.7878,-1.0611,315.8633],[15.77,-1.0581,318.6705],[15.7636,-1.0586,321.3012],[15.7542,-1.0628,321.105],[15.7494,-1.0622,321.9525],[15.7467,-1.0578,320.4511],[15.7442,-1.0467,316.6877],[15.7386,-1.0386,326.4455],[15.7297,-1.0336,331.7163],[15.7272,-1.0294,319.2231],[15.7292,-1.0178,318.3876],[15.7278,-1.0122,317.2037],[15.7219,-1.0047,315.4842],[15.7211,-0.9986,331.019],[15.7283,-0.985,330.6061],[15.7275,-0.98,332.2681],[15.7217,-0.9725,320.6113],[15.7211,-0.9594,339.2902],[15.7164,-0.9572,337.4984],[15.6978,-0.955,331.1457],[15.6711,-0.9542,329.4016],[15.6528,-0.9517,317.5],[15.6431,-0.9475,336.3637],[15.6253,-0.9444,336.6869],[15.6136,-0.9367,337.2971],[15.6033,-0.94,336.0634],[15.5925,-0.9372,339.1009],[15.5869,-0.9386,339.7651],[15.5733,-0.9383,333.5146],[15.5631,-0.9414,332.8209],[15.5589,-0.9442,337.9008],[15.5483,-0.9592,331.6715],[15.5436,-0.9614,329.1921],[15.5139,-0.9644,343.5444],[15.5078,-0.9633,343.9781],[15.4956,-0.9553,350.2944],[15.4908,-0.9556,346.933],[15.4808,-0.9667,342.6021],[15.4728,-0.9719,338.8028],[15.4561,-0.9761,336.992],[15.45,-0.975,345.0272],[15.4314,-0.9769,344.5476],[15.4164,-0.9822,341.6574],[15.4086,-0.9883,331.461],[15.4044,-0.9978,338.7892],[15.4069,-1.0211,363.9092],[15.4039,-1.0322,359.6393],[15.39,-1.0456,346.8402],[15.3747,-1.0633,348.0307],[15.365,-1.0672,351.4126],[15.3486,-1.0631,344.6844],[15.3425,-1.0633,346.2319],[15.3383,-1.0661,345.5014],[15.3236,-1.0994,353.6922],[15.2994,-1.1094,348.4886],[15.2828,-1.1203,351.0801],[15.2572,-1.1289,353.6127],[15.2233,-1.1564,341.2094],[15.2133,-1.1742,355.7489],[15.2069,-1.1956,359.719],[15.2,-1.2022,352.9566],[15.1869,-1.2097,354.3455],[15.18,-1.2161,348.3029],[15.1744,-1.2244,341.5001],[15.1639,-1.2344,357.8764],[15.1594,-1.2442,359.7564],[15.1544,-1.2667,363.8388],[15.1439,-1.2836,346.0621],[15.1397,-1.2933,345.9111],[15.1344,-1.3294,355.1953],[15.1314,-1.3406,351.3086],[15.1267,-1.3494,364.7455],[15.1111,-1.3683,360.1906],[15.1064,-1.3772,361.0067],[15.1061,-1.3894,349.0043],[15.1031,-1.4006,356.7343],[15.0956,-1.4478,365.7963],[15.0853,-1.4578,372.7966],[15.0639,-1.4706,413.3859],[15.0589,-1.4792,400.5955],[15.0553,-1.4967,404.8362],[15.0383,-1.5142,359.0001],[15.03,-1.5194,364.3656],[15.0206,-1.5303,369.4975],[15.0036,-1.5617,375.5783],[14.9678,-1.5867,370.4908],[14.9603,-1.5842,383.0936],[14.9369,-1.5922,378.5956],[14.9289,-1.5928,381.4169],[14.8906,-1.5886,383.6888],[14.8817,-1.5894,386.4329],[14.8653,-1.5944,401.3667],[14.8094,-1.6214,395.8982],[14.7578,-1.6581,384.1552],[14.7511,-1.6658,396.6502],[14.7408,-1.6897,385.1481],[14.7389,-1.7133,404.4114],[14.7369,-1.7206,399.7766],[14.7261,-1.7356,412.1069],[14.7186,-1.75,399.137],[14.7125,-1.7572,408.6952],[14.6897,-1.7683,482.843],[14.6828,-1.7758,482.3703],[14.6678,-1.8097,419.2088],[14.6461,-1.8308,478.932],[14.6356,-1.8539,495.0114],[14.6322,-1.8686,448.8688],[14.6228,-1.8831,460.1788],[14.6094,-1.8989,467.3413],[14.6,-1.9156,452.9164],[14.5808,-1.9381,460.4057],[14.5572,-1.9578,431.641],[14.5358,-1.9706,485.5962],[14.5283,-1.9694,543.039],[14.52,-1.9706,588.2154],[14.5128,-1.9764,546.7079],[14.5025,-1.9997,513.4562],[14.4886,-2.0156,519.9825],[14.4806,-2.0189,561.8773],[14.4653,-2.0203,566.857],[14.4358,-2.0264,448.7832],[14.4108,-2.0242,457.9433],[14.3881,-2.0189,468.9679],[14.3806,-2.0139,467.6885],[14.3764,-2.0064,464.7643],[14.3719,-1.9819,616.6896],[14.3722,-1.9356,587.0164],[14.3764,-1.8917,664.5138],[14.3133,-1.9308,685.1879],[14.3024,-1.9412,588.6482],[14.2942,-1.946,617.3446],[14.2573,-1.9832,708.2122],[14.2505,-1.9973,704.5486],[14.2474,-2.0187,729.0212],[14.247,-2.0334,768.6945],[14.2554,-2.0879,634.5214],[14.2532,-2.1056,730.0887],[14.2446,-2.1146,490.6978],[14.2332,-2.1204,614.8654],[14.2252,-2.1271,714.1528],[14.2159,-2.1494,789.141],[14.2109,-2.1575,764.9917],[14.1972,-2.1654,662.7612],[14.1742,-2.1717,546.5654],[14.1641,-2.177,615.3112],[14.158,-2.1876,640.8698],[14.1564,-2.1943,657.688],[14.1645,-2.209,624.8746],[14.2169,-2.2849,679.8566],[14.2213,-2.2966,793.9987],[14.2202,-2.3037,697.713],[14.2136,-2.3141,671.1931],[14.179,-2.3421,515.0688],[14.166,-2.3601,614.1141],[14.1197,-2.4488,636.8327],[14.1113,-2.4614,665.656],[14.1122,-2.5011,729.804],[14.1192,-2.5233,770.1757],[14.1267,-2.5303,742.2584],[14.1414,-2.5331,690.1649],[14.1489,-2.5361,770.9886],[14.1558,-2.5428,739.3035],[14.1567,-2.5503,661.7715],[14.1553,-2.5575,641.1432],[14.1517,-2.565,642.6008],[14.1444,-2.5697,628.5143],[14.1289,-2.5678,706.0731],[14.1217,-2.5692,750.3431],[14.1183,-2.5778,701.4572],[14.1244,-2.5856,651.5995],[14.1314,-2.5911,634.5768],[14.1544,-2.6064,669.6628],[14.1617,-2.6086,690.5183],[14.1633,-2.6014,739.9846],[14.1672,-2.5942,744.3593],[14.1747,-2.5906,675.3677],[14.1822,-2.5917,718.5358],[14.1894,-2.5964,754.4794],[14.1939,-2.6036,726.3461],[14.1933,-2.6117,692.2338],[14.1878,-2.6192,645.6671],[14.1797,-2.625,598.4104],[14.1653,-2.6314,672.9282],[14.1533,-2.6464,637.0535],[14.1378,-2.6542,690.6202],[14.1314,-2.6614,698.5203],[14.1403,-2.6758,712.0787],[14.1469,-2.6833,715.0068],[14.1792,-2.6819,800.1043],[14.1939,-2.6894,703.1211],[14.1994,-2.6964,685.0739],[14.2069,-2.6986,685.1203],[14.2144,-2.6964,616.3824],[14.2331,-2.6836,728.7812],[14.2478,-2.6808,718.6751],[14.2547,-2.6842,750.8873],[14.2592,-2.6914,740.9785],[14.2667,-2.6981,721.4758],[14.2739,-2.6958,778.9311],[14.2817,-2.6892,779.0428],[14.2903,-2.6844,756.671],[14.2983,-2.6844,737.679],[14.305,-2.6928,780.4338],[14.3031,-2.7094,718.1373],[14.2953,-2.7258,641.3378],[14.2811,-2.7489,775.471],[14.2778,-2.7639,684.379],[14.285,-2.77,706.1108],[14.2917,-2.7631,651.6769],[14.2981,-2.7486,753.4531],[14.3053,-2.7483,612.1214],[14.3069,-2.7569,617.8328],[14.3064,-2.7739,668.8929],[14.3142,-2.7897,702.3765],[14.3172,-2.8219,686.5521],[14.3214,-2.8294,704.9283],[14.3289,-2.835,629.1017],[14.3342,-2.8425,694.1332],[14.335,-2.8567,701.0394],[14.3436,-2.8708,561.2482],[14.3456,-2.8781,574.9058],[14.3433,-2.8856,570.1862],[14.3358,-2.8939,573.2096],[14.3069,-2.9086,548.6962],[14.2981,-2.9222,554.8074],[14.2981,-2.9333,547.7843],[14.2931,-2.9431,543.6672],[14.27,-2.9614,537.4119],[14.2667,-2.9717,556.712],[14.2607,-2.9819,548.4058],[14.2645,-2.9842,555.5438],[14.2758,-3.0108,568.8849],[14.2856,-3.02,585.4724],[14.2964,-3.0231,648.7378],[14.3058,-3.0239,643.4246],[14.3356,-3.0197,656.0878],[14.3539,-3.0203,595.0522],[14.3611,-3.0336,606.5281],[14.375,-3.0406,555.7967],[14.3969,-3.0353,597.4232],[14.4169,-3.035,549.6476],[14.4281,-3.0325,568.3068],[14.4342,-3.0333,556.4539],[14.4467,-3.0419,557.6257],[14.4567,-3.0592,504.1594],[14.4633,-3.0658,501.7348],[14.4722,-3.0711,579.6306],[14.4908,-3.0733,597.4146],[14.4975,-3.0803,553.8788],[14.5064,-3.0853,538.0991],[14.5175,-3.0839,480.7993],[14.5217,-3.0814,479.2539],[14.5372,-3.0556,482.8792],[14.5519,-3.0428,475.907],[14.5578,-3.0344,474.9274],[14.5717,-3.0072,465.7096],[14.5753,-3.0036,512.6782],[14.5961,-2.9917,464.3771],[14.6233,-2.9639,461.0174],[14.645,-2.95,450.176],[14.6483,-2.9464,448.5751],[14.6533,-2.9308,450.6989],[14.6564,-2.9267,453.1482],[14.6675,-2.9169,451.1071],[14.6883,-2.9039,451.4895],[14.7133,-2.8808,445.5639],[14.7225,-2.8692,430.4517],[14.7325,-2.8514,438.6163],[14.7544,-2.8464,431.3599],[14.7642,-2.8422,427.8848],[14.7906,-2.8208,430.8469],[14.7956,-2.8119,425.7618],[14.8,-2.7956,423.2021],[14.7992,-2.7692,426.6434],[14.8053,-2.7617,487.0248],[14.8089,-2.7583,450.4073],[14.8289,-2.7503,392.2717],[14.8372,-2.745,386.9089],[14.8506,-2.7306,394.4348],[14.8664,-2.7192,380.5864],[14.8764,-2.7153,385.0706],[14.8825,-2.7147,393.7372],[14.8894,-2.7147,389.0375],[14.8942,-2.7169,382.0052],[14.9003,-2.7247,382.3113],[14.9061,-2.7392,387.8457],[14.9136,-2.7456,399.1009],[14.9164,-2.7564,386.235],[14.9125,-2.7736,378.471],[14.9144,-2.7783,377.2161],[14.9228,-2.7839,376.1538],[14.9322,-2.7953,379.9045],[14.9336,-2.84,369.5573],[14.9414,-2.8731,367.327],[14.9369,-2.8894,403.354],[14.9408,-2.8992,382.8446],[14.9497,-2.9039,361.6687],[14.9561,-2.905,351.9307],[14.9831,-2.9044,353.8655],[15.01,-2.8975,346.2464],[15.0314,-2.8847,365.6444],[15.0375,-2.8839,382.2605],[15.0486,-2.8869,354.1133],[15.0575,-2.8919,341.5196],[15.0744,-2.8956,347.3426],[15.0911,-2.8917,354.9326],[15.1106,-2.8919,345.0231],[15.1194,-2.8967,339.064],[15.1261,-2.9106,344.6077],[15.1383,-2.9192,340.907],[15.1411,-2.9231,340.0788],[15.145,-2.9397,345.7805],[15.1461,-2.9592,343.7501],[15.1519,-2.9744,349.0904],[15.1581,-2.9819,352.4651],[15.1678,-2.9861,345.1525],[15.1869,-2.9878,334.6877],[15.1953,-2.9933,343.4217],[15.1983,-3.0022,332.1428],[15.2025,-3.0053,336.7935],[15.2142,-3.0072,332.4206],[15.2272,-3.015,326.8691],[15.2347,-3.0214,339.0642],[15.2483,-3.0244,345.4703],[15.2614,-3.0247,333.3473],[15.2794,-3.0278,335.4786],[15.2925,-3.0272,334.3999],[15.3014,-3.0225,327.1949],[15.3236,-3.0172,345.2429],[15.3436,-3.0181,336.0134],[15.36,-3.0225,330.4235],[15.3689,-3.0275,331.3539],[15.3842,-3.0331,323.6268],[15.3908,-3.0331,318.0],[15.4186,-3.0267,326.0875],[15.4475,-3.0147,326.4058],[15.4739,-3.0069,319.1432],[15.4878,-3.0,318.932],[15.5119,-2.9831,323.6112],[15.5253,-2.9758,313.1092],[15.5425,-2.9592,315.1777],[15.5517,-2.9542,322.4547],[15.565,-2.94,330.8237],[15.5725,-2.9339,320.7648],[15.5858,-2.9264,317.7162],[15.6272,-2.9131,309.2372],[15.6419,-2.9003,309.581],[15.6611,-2.9006,309.1488],[15.6658,-2.8986,310.0455],[15.6689,-2.8944,307.5883],[15.6689,-2.8875,309.0818],[15.6767,-2.8747,308.447],[15.6842,-2.8686,308.9432],[15.6892,-2.8667,309.1969],[15.6961,-2.8597,308.4137],[15.71,-2.8519,307.6599],[15.7244,-2.8456,342.1387],[15.7647,-2.8381,306.6732],[15.7956,-2.8281,308.2516],[15.8017,-2.8428,308.2994],[15.8072,-2.8428,308.4031],[15.8108,-2.8392,308.1943],[15.8142,-2.8289,308.6797],[15.8169,-2.825,308.2494],[15.8206,-2.8214,307.042],[15.8261,-2.8203,308.2617],[15.8281,-2.825,308.3147],[15.8278,-2.8319,309.0687],[15.83,-2.8367,308.2877],[15.8361,-2.8375,308.1384],[15.8417,-2.8364,308.2442],[15.8458,-2.8336,307.5301],[15.8514,-2.8336,308.4027],[15.8581,-2.8461,308.1736],[15.8628,-2.8481,310.9671],[15.8689,-2.8475,308.4069],[15.8781,-2.8428,306.4644],[15.8831,-2.845,306.0],[15.8856,-2.8492,306.0],[15.9014,-2.8542,308.3217],[15.9281,-2.8744,306.0],[15.9328,-2.8767,308.1339],[15.9397,-2.8767,306.0],[15.9486,-2.8814,378.2372],[15.9533,-2.8906,358.5386],[15.9581,-2.8928,413.2526],[15.9639,-2.9003,379.306],[15.9667,-2.9181,307.1153],[15.9706,-2.9211,308.0801],[15.9858,-2.9269,333.4052],[15.9975,-2.9425,306.0],[16.0275,-2.9472,331.9323],[16.0336,-2.9464,317.2054],[16.0386,-2.9447,377.2119],[16.0497,-2.935,315.0484],[16.0594,-2.9308,337.2147],[16.0836,-2.9281,302.0941],[16.1283,-2.9319,285.5184],[16.1428,-2.9383,281.7831],[16.1536,-2.9411,274.513],[16.1807,-2.942,274.0],[16.179,-2.928,274.0],[16.1802,-2.875,275.0],[16.1851,-2.8527,275.5],[16.2004,-2.8105,276.0],[16.2044,-2.7929,276.0],[16.2055,-2.7837,276.0],[16.2027,-2.7463,276.0],[16.2067,-2.7264,276.0],[16.2277,-2.6828,276.0],[16.2357,-2.6565,276.5],[16.2374,-2.6248,277.0],[16.2354,-2.6069,277.5]]]]}}