{"type":"Feature","properties":{"featurecla":"River","scalerank":8,"rivernum":812,"dissolve":"812River","name":"Alima","name_alt":null,"note":null,"min_zoom":7.0,"strokeweig":0.15,"name_en":"Alima","min_label":8.0},
"geometry":{"type": "LineString","coordinates": [[14.208154296875023,-2.48796965938088,601.3627],[14.22412109375,-2.46624114375588,544.6786],[14.275634765625,-2.4392880187558892,540.9449],[14.296875,-2.4226864562558892,478.14],[14.379541015625023,-2.30364348750588,460.9565],[14.427490234375,-2.2519833312558859,512.91],[14.491357421875023,-2.21379973750588,464.0077],[14.52783203125,-2.1997372375058859,428.7417],[14.546044921875023,-2.19524505000588,425.0341],[14.565185546875,-2.1938778625058859,427.4009],[14.596582031250023,-2.1868466125058892,425.4642],[14.620849609375,-2.1673153625058892,422.3019],[14.669580078125023,-2.0971981750058859,408.3035],[14.685205078125023,-2.0801083312558859,422.6873]]}}