{"type":"Feature","properties":{"GID_2":"COG.5.2_1","GID_0":"COG","country":"RepublicoftheCongo","GID_1":"COG.5_1","province":"Kouilou","NL_NAME_1":"NA","county":"Loandjili","VARNAME_2":"PointeNoire","NL_NAME_2":"NA","TYPE_2":"District","ENGTYPE_2":"District","CC_2":"NA","HASC_2":"NA","name":"Loandjili.county"},
"geometry":{"type": "MultiPolygon","coordinates": [[[[12.2022,-4.7804,71.7167],[12.2093,-4.7692,62.4265],[12.2157,-4.7075,27.246],[12.21,-4.6684,17.391],[12.2144,-4.6335,23.2324],[12.2257,-4.6087,91.987799999999993],[12.2413,-4.5846,94.1928],[12.2322,-4.5641,82.2813],[12.1928,-4.5466,68.7338],[12.1685,-4.5333,76.5303],[12.1545,-4.5168,80.1369],[12.1354,-4.4896,102.8067],[12.1162,-4.4479,36.2427],[12.1107,-4.4227,87.4171],[12.0857,-4.3742,87.175],[12.0763,-4.339,84.8391],[12.0572,-4.3448,131.9616],[12.0122,-4.3526,78.5664],[11.9488,-4.3518,9.8073],[11.898,-4.3402,6.5779],[11.8437,-4.3602,7.178],[11.7903,-4.3717,7.202],[11.7554,-4.3763,23.4933],[11.7195,-4.373,14.6794],[11.688,-4.3626,32.3966],[11.6772,-4.3782,38.477],[11.6421,-4.4193,0.5562],[11.686,-4.4515,1.8852],[11.6893,-4.4576,0.6888],[11.6965,-4.464,0.0],[11.7068,-4.4693,7.9066],[11.711,-4.4735,0.0],[11.7165,-4.4735,0.0],[11.7171,-4.4751,0.6922],[11.7146,-4.4785,3.0678],[11.7093,-4.4776,0.0],[11.7357,-4.4982,0.7033],[11.7576,-4.5187,4.3977],[11.7976,-4.5629,1.9966],[11.8171,-4.5918,2.4643],[11.8263,-4.6121,0.0],[11.8246,-4.6287,0.0],[11.8224,-4.6343,0.0],[11.8176,-4.6382,5.5128],[11.8112,-4.6512,2.3292],[11.8024,-4.6593,0.7569],[11.7988,-4.6604,1.0892],[11.7885,-4.6582,2.0371],[11.7815,-4.6593,0.0],[11.781,-4.6668,0.0],[11.7846,-4.674,6.1633],[11.7857,-4.6821,0.0],[11.7988,-4.6985,0.0],[11.8246,-4.7185,0.0],[11.8385,-4.7318,0.4474],[11.849,-4.7467,0.0],[11.8693,-4.7474,10.9087],[11.9018,-4.7644,48.9715],[11.9114,-4.7962,22.035],[11.8989,-4.808,18.6545],[11.8627,-4.831,0.0],[11.8912,-4.8624,6.7926],[11.8954,-4.8718,0.0],[11.894,-4.8771,0.0],[11.8979,-4.8843,0.0],[11.919,-4.9082,0.0],[11.9221,-4.9076,0.7663],[11.929,-4.901,3.0262],[11.9276,-4.8949,2.8413],[11.9288,-4.894,0.5809],[11.9307,-4.8985,2.7258],[11.9293,-4.9049,4.6415],[11.9257,-4.9057,2.2571],[11.9207,-4.9101,0.0],[11.9671,-4.9665,1.0153],[12.0099,-5.0307,0.0],[12.1253,-4.9365,34.8092],[12.1631,-4.9079,100.5126],[12.1732,-4.898,72.2616],[12.1796,-4.8778,101.2784],[12.2022,-4.7804,71.7167]]],
[[[11.6982,-4.4674,0.0],[11.6987,-4.4685,0.0],[11.7001,-4.4676,0.0],[11.6999,-4.4671,0.0],[11.6982,-4.4674,0.0]]],
[[[11.6971,-4.4674,0.0],[11.6976,-4.4676,0.0],[11.6932,-4.4646,0.0],[11.6949,-4.4671,0.0],[11.6971,-4.4674,0.0]]]]}}