{"type": "Feature","id": "3341","bbox": [13.86027,-4.90363,16.22746,-2.71746],"geometry": {"type": "Polygon","coordinates": [[[14.97441,-2.90308,346.8473],[14.95436,-2.90132,352.0075],[14.94475,-2.89853,382.2741],[14.93917,-2.89419,462.2495],[14.93793,-2.88892,403.354],[14.93824,-2.88334,400.166],[14.94062,-2.87404,367.327],[14.94072,-2.87114,365.6104],[14.9401,-2.86649,366.9309],[14.93297,-2.83352,369.0411],[14.93297,-2.80768,371.838],[14.93245,-2.80159,382.3093],[14.93121,-2.7958,373.2019],[14.92904,-2.79135,376.1733],[14.92584,-2.78753,379.3632],[14.91881,-2.78092,375.7295],[14.91571,-2.7775,378.2799],[14.91406,-2.77296,373.4756],[14.91561,-2.75632,386.235],[14.91478,-2.75074,382.7226],[14.91292,-2.74598,396.6483],[14.90693,-2.73823,387.8457],[14.89979,-2.72479,382.3113],[14.897,-2.72076,380.5173],[14.89328,-2.71746,382.0052],[14.88532,-2.71766,383.3289],[14.87396,-2.72128,394.3575],[14.84378,-2.73906,390.9432],[14.83478,-2.74629,390.604],[14.8107,-2.75973,482.5481],[14.80419,-2.76479,457.4517],[14.80016,-2.77017,428.9346],[14.79923,-2.77606,419.4157],[14.79954,-2.79414,420.9949],[14.79902,-2.79807,424.4115],[14.79582,-2.81078,423.0421],[14.79313,-2.81657,433.5452],[14.79179,-2.81874,430.7964],[14.79065,-2.82019,430.8469],[14.78962,-2.82122,430.4106],[14.77949,-2.82877,431.8171],[14.77143,-2.83621,431.5402],[14.73639,-2.85595,434.4849],[14.72378,-2.86608,438.9103],[14.72244,-2.86887,430.4517],[14.71634,-2.87714,442.6337],[14.6873,-2.90401,451.4895],[14.66002,-2.92313,452.2339],[14.65629,-2.92675,453.1482],[14.65454,-2.92933,453.1922],[14.6533,-2.93191,451.8019],[14.64854,-2.94525,447.4819],[14.64637,-2.94793,448.0065],[14.64389,-2.9501,458.2832],[14.62746,-2.96096,569.6566],[14.61981,-2.96726,459.8928],[14.59573,-2.99124,466.0547],[14.57826,-3.00178,491.4394],[14.57527,-3.00426,512.6782],[14.57217,-3.00757,465.4654],[14.55749,-3.03434,475.8709],[14.55139,-3.04209,475.907],[14.53599,-3.05707,477.3143],[14.52421,-3.07692,478.8065],[14.52049,-3.08064,480.246],[14.51108,-3.08023,543.0834],[14.49589,-3.07599,569.495],[14.4684,-3.06069,621.3171],[14.45641,-3.05253,498.3702],[14.44897,-3.04602,506.0616],[14.44587,-3.04229,543.1487],[14.44204,-3.03919,578.1266],[14.43708,-3.0364,554.827],[14.4313,-3.03465,512.5281],[14.3975,-3.03578,534.585],[14.38644,-3.03837,557.8118],[14.37962,-3.03816,590.4015],[14.37187,-3.03578,605.6614],[14.35047,-3.02297,572.2915],[14.33693,-3.02059,656.0878],[14.30572,-3.02266,662.13],[14.28526,-3.01429,593.8993],[14.26087,-2.98132,548.4058],[14.18811,-3.02421,528.9807],[14.16919,-3.0394,532.8935],[14.16537,-3.04622,536.3094],[14.16206,-3.05356,525.0911],[14.14563,-3.11319,505.6982],[14.13075,-3.1472,506.873],[14.12764,-3.15743,521.4162],[14.12682,-3.17066,528.3854],[14.12733,-3.17831,530.7134],[14.12671,-3.18161,512.3661],[14.12361,-3.18502,512.3972],[14.11369,-3.19102,510.5533],[14.11028,-3.19598,511.743],[14.1017,-3.21706,507.2055],[14.09674,-3.2243,521.0538],[14.09209,-3.22905,528.4573],[14.0862,-3.23277,533.8209],[14.08465,-3.23515,509.6841],[14.08444,-3.23949,512.7205],[14.08599,-3.24383,534.7037],[14.08537,-3.25014,528.1017],[14.08196,-3.25334,510.4178],[14.06894,-3.25923,506.9698],[14.05953,-3.26533,516.2549],[14.0553,-3.26884,497.5247],[14.05189,-3.27349,536.5071],[14.04496,-3.29127,529.2142],[14.04279,-3.29396,508.3228],[14.02677,-3.30367,531.2433],[14.02222,-3.30874,536.3203],[14.01809,-3.31525,538.3287],[14.01168,-3.32765,530.5645],[14.00734,-3.33385,510.1938],[13.97044,-3.3753,517.0276],[13.96807,-3.37695,512.1594],[13.96145,-3.38016,546.0422],[13.94605,-3.3908,521.0184],[13.92445,-3.41085,539.6385],[13.92073,-3.41571,548.1492],[13.92001,-3.41902,494.4481],[13.9198,-3.42088,501.3607],[13.92032,-3.42284,486.3931],[13.92073,-3.42728,487.3356],[13.91939,-3.43359,483.1736],[13.91195,-3.44816,564.9562],[13.9073,-3.45963,537.4502],[13.89562,-3.48144,510.5612],[13.88911,-3.48919,536.8767],[13.87815,-3.49911,475.3246],[13.8767,-3.50128,499.0272],[13.8766,-3.50418,473.3779],[13.87753,-3.51534,494.8783],[13.8766,-3.52392,505.4003],[13.87453,-3.52805,481.844],[13.87174,-3.53146,488.616],[13.86027,-3.53839,478.6485],[13.89593,-3.55865,528.1265],[13.90544,-3.56051,616.6116],[13.93355,-3.56299,580.4994],[13.94574,-3.56671,562.5606],[13.96145,-3.57436,627.7627],[13.97179,-3.57735,624.0276],[13.98068,-3.57849,618.2435],[14.02315,-3.57477,593.9707],[14.03246,-3.57229,606.8318],[14.0401,-3.56857,583.7908],[14.09633,-3.50035,573.3257],[14.10418,-3.49395,538.1945],[14.12434,-3.48061,531.0336],[14.12992,-3.47524,519.4749],[14.13726,-3.46108,505.7303],[14.14408,-3.45581,528.8808],[14.15049,-3.45808,509.7899],[14.16237,-3.46956,512.4409],[14.16919,-3.47421,523.3629],[14.20723,-3.48961,511.859],[14.22862,-3.49364,527.8881],[14.24309,-3.50025,521.7415],[14.24939,-3.50842,519.5092],[14.25704,-3.51503,512.0673],[14.26231,-3.52247,510.2228],[14.2712,-3.5388,481.142],[14.27833,-3.54862,463.34],[14.28309,-3.55668,454.7472],[14.28464,-3.56423,490.7816],[14.28433,-3.57859,452.7793],[14.28929,-3.60154,441.5854],[14.29291,-3.61001,446.0399],[14.30045,-3.61962,463.1234],[14.305,-3.62696,442.0407],[14.30748,-3.63234,442.5869],[14.30334,-3.63358,455.8985],[14.27802,-3.64712,463.2344],[14.27058,-3.64918,444.3878],[14.26293,-3.65239,437.3229],[14.24898,-3.66903,450.8102],[14.23947,-3.67647,450.8065],[14.2248,-3.67843,444.1819],[14.21477,-3.67471,431.8713],[14.21053,-3.67533,438.1281],[14.21281,-3.69073,451.0568],[14.23947,-3.7391,414.3352],[14.26107,-3.76411,408.0422],[14.29415,-3.81765,297.1075],[14.29425,-3.83553,440.153],[14.29694,-3.85196,412.1223],[14.30603,-3.86416,287.6396],[14.32515,-3.86891,342.4849],[14.34396,-3.87883,293.4984],[14.35523,-3.90229,272.8032],[14.36453,-3.92979,215.0269],[14.37735,-3.95139,241.3926],[14.36515,-3.95542,254.699],[14.35698,-3.96162,224.4005],[14.34252,-3.97867,253.1402],[14.32691,-4.00182,222.4771],[14.32205,-4.00668,212.465],[14.2805,-4.00668,227.6457],[14.24815,-3.98746,251.5781],[14.23947,-3.9856,254.2455],[14.23451,-3.99076,262.5795],[14.22965,-4.01123,234.9801],[14.22645,-4.0197,220.5988],[14.21973,-4.02694,234.2069],[14.16878,-4.06239,218.129],[14.15576,-4.07541,225.0875],[14.14387,-4.09484,248.8981],[14.16165,-4.13463,200.3872],[14.16072,-4.15137,224.0821],[14.14387,-4.16305,261.7865],[14.15142,-4.17049,184.8787],[14.1355,-4.17732,206.4753],[14.10212,-4.18558,243.4684],[14.08868,-4.19096,214.0768],[14.07824,-4.19902,214.5399],[14.04837,-4.23199,216.7127],[14.02553,-4.24915,213.0341],[13.98957,-4.26682,217.0763],[13.97479,-4.26961,182.759],[13.969,-4.27447,198.7381],[13.96424,-4.28015,223.4471],[13.96207,-4.28367,211.4752],[13.95349,-4.31322,203.8169],[13.94781,-4.38071,277.117],[13.94564,-4.39074,211.4381],[13.93386,-4.41379,276.5637],[13.93086,-4.42154,465.813],[13.92683,-4.43621,527.0826],[13.92342,-4.44366,577.7244],[13.91298,-4.46071,637.1346],[13.90544,-4.48944,662.3651],[13.90544,-4.49006,655.0443],[13.90544,-4.4901,655.0443],[13.93458,-4.49848,621.3008],[13.9445,-4.49807,624.6826],[13.95494,-4.49187,615.9679],[13.97179,-4.47161,625.9081],[13.9877,-4.46014,639.4261],[13.98987,-4.45797,633.8193],[13.99163,-4.45508,641.761],[14.02109,-4.41539,611.7713],[14.0584,-4.40051,595.8544],[14.14635,-4.38986,605.9294],[14.18469,-4.37746,584.7446],[14.22221,-4.35978,547.6574],[14.25963,-4.32692,523.5638],[14.27999,-4.31276,417.0116],[14.32546,-4.3018,551.2446],[14.36856,-4.27845,418.0728],[14.38706,-4.2771,431.8137],[14.39285,-4.28175,507.8167],[14.39533,-4.28971,485.2318],[14.39522,-4.30036,499.1404],[14.39347,-4.31317,549.8418],[14.38913,-4.32754,566.7986],[14.38572,-4.33291,565.4669],[14.38603,-4.33829,570.4293],[14.39274,-4.35276,511.8713],[14.40907,-4.37756,463.8915],[14.42861,-4.4004,462.2968],[14.46323,-4.42262,445.1357],[14.46974,-4.42934,452.5127],[14.46654,-4.44805,437.3106],[14.45248,-4.46799,437.1086],[14.43574,-4.4867,442.1643],[14.42458,-4.50231,461.8962],[14.41259,-4.5145,465.7619],[14.37476,-4.53021,591.4507],[14.35895,-4.54458,558.8853],[14.35078,-4.55905,595.0641],[14.34996,-4.5669,564.6619],[14.3575,-4.58912,580.6892],[14.36577,-4.62726,561.6827],[14.38096,-4.64618,583.2919],[14.39584,-4.66013,552.958],[14.4069,-4.67604,597.1246],[14.41093,-4.70106,587.6647],[14.40918,-4.71056,606.9675],[14.40153,-4.72813,629.7288],[14.39905,-4.73754,538.0759],[14.39967,-4.74932,492.0407],[14.4037,-4.75883,440.5285],[14.40876,-4.76782,397.8228],[14.41259,-4.77816,365.9387],[14.39646,-4.85588,349.7555],[14.4007,-4.88626,223.6132],[14.41817,-4.88316,249.3475],[14.43729,-4.88017,174.0],[14.44948,-4.87396,175.5],[14.47005,-4.85216,178.375],[14.48194,-4.84585,179.5],[14.50147,-4.84069,237.7397],[14.51987,-4.84131,299.8648],[14.52803,-4.85216,208.899],[14.53248,-4.85619,223.617],[14.55387,-4.85515,198.5521],[14.56214,-4.85588,315.9364],[14.56689,-4.86053,234.5973],[14.57506,-4.87365,287.9947],[14.57961,-4.87634,254.619],[14.59211,-4.88058,359.461],[14.62332,-4.89949,424.7744],[14.63449,-4.90363,367.8525],[14.67273,-4.89991,309.0232],[14.70218,-4.88957,406.589],[14.76843,-4.84823,200.0],[14.81546,-4.82797,312.8872],[14.83117,-4.81505,352.3555],[14.8414,-4.80017,376.5256],[14.84905,-4.78374,374.0965],[14.93101,-4.6469,340.1787],[15.00821,-4.57104,250.209],[15.01462,-4.55802,224.5],[15.02278,-4.54706,235.7615],[15.07611,-4.52008,393.2321],[15.04363,-4.4795,384.5653],[15.01975,-4.43173,377.0898],[14.99188,-4.39988,468.2283],[14.95605,-4.36405,435.5711],[14.98252,-4.32002,377.9817],[15.02631,-4.26428,340.3127],[15.04622,-4.2165,344.6266],[15.0701,-4.15679,326.7968],[15.10195,-4.10503,396.3549],[15.11788,-4.02939,502.3997],[15.1139,-3.97763,559.58],[15.09399,-3.91393,696.4223],[15.09399,-3.86218,669.5278],[15.12186,-3.81042,472.0751],[15.1776,-3.77857,459.7226],[15.2152,-3.73864,753.4182],[15.2351,-3.67892,743.2712],[15.24307,-3.61522,755.621],[15.24705,-3.54754,507.9245],[15.25501,-3.48384,455.2682],[15.27492,-3.44801,564.1024],[15.30278,-3.45199,501.108],[15.33463,-3.47588,738.3649],[15.39071,-3.49176,720.2036],[15.4345,-3.50769,714.4047],[15.45839,-3.53555,673.8618],[15.48625,-3.56342,697.6002],[15.52208,-3.60722,682.6788],[15.55393,-3.63907,660.4705],[15.5804,-3.64543,668.6453],[15.60429,-3.62154,662.1965],[15.62818,-3.56978,654.8578],[15.64808,-3.53395,581.0514],[15.67595,-3.50608,547.2576],[15.71178,-3.49812,622.8157],[15.74761,-3.51405,635.2115],[15.80335,-3.53395,630.3829],[15.82954,-3.56716,613.9443],[15.86139,-3.61891,412.9653],[15.88527,-3.66669,559.9873],[15.9012,-3.71048,531.963],[15.90518,-3.74631,575.142],[15.9211,-3.7702,543.8051],[15.93703,-3.7901,499.7473],[15.95785,-3.8151,281.632],[15.97425,-3.78649,287.4613],[15.9911,-3.73894,273.0],[16.00526,-3.72478,293.3834],[16.0127,-3.70225,273.0],[16.05331,-3.61998,291.8663],[16.11553,-3.54423,329.6379],[16.13786,-3.50072,377.5913],[16.15842,-3.44728,307.6182],[16.20772,-3.36191,287.1542],[16.22075,-3.33173,318.3731],[16.2256,-3.31323,273.0],[16.22746,-3.28988,279.9891],[16.22209,-3.27913,275.339],[16.21041,-3.27107,273.0],[16.19863,-3.25949,299.1018],[16.19336,-3.23841,338.0843],[16.19946,-3.19479,285.308],[16.19925,-3.17185,273.0],[16.18995,-3.15304,307.0275],[16.18571,-3.1364,277.9103],[16.18984,-3.08234,419.2522],[16.18447,-3.02612,274.0],[16.18829,-2.97641,274.0],[16.18398,-2.94045,274.0],[16.18344,-2.94039,274.0],[16.14437,-2.93605,291.6567],[16.12173,-2.9315,282.8303],[16.09631,-2.92881,284.0263],[16.08742,-2.92881,287.0258],[16.07647,-2.92995,285.5802],[16.05786,-2.93419,287.0933],[16.04846,-2.9376,309.6896],[16.04215,-2.94101,324.0578],[16.03874,-2.9437,355.2176],[16.03575,-2.94535,338.5114],[16.03357,-2.94618,321.3237],[16.02076,-2.94535,318.9438],[16.00474,-2.94235,306.0],[15.99678,-2.93894,306.0],[15.99141,-2.93481,306.0],[15.98862,-2.93057,328.1046],[15.985,-2.92737,308.1901],[15.98066,-2.92478,307.9308],[15.9757,-2.92282,307.8817],[15.97125,-2.92034,308.4826],[15.96784,-2.91693,307.687],[15.96329,-2.90101,379.306],[15.9605,-2.89688,315.3141],[15.9574,-2.89305,384.446],[15.95368,-2.88985,358.5386],[15.94769,-2.8822,337.4918],[15.94376,-2.8792,310.7157],[15.9389,-2.87703,306.0],[15.93322,-2.87579,307.9637],[15.92836,-2.87393,306.0],[15.92402,-2.87135,308.2243],[15.91276,-2.86194,306.3394],[15.90077,-2.8545,307.7849],[15.87348,-2.84324,311.5575],[15.86149,-2.84117,307.5043],[15.84899,-2.83497,306.3354],[15.83297,-2.83001,309.2127],[15.82801,-2.82649,308.2999],[15.82315,-2.82484,308.57],[15.81695,-2.82897,308.3765],[15.80971,-2.83786,308.5548],[15.8061,-2.83941,308.3226],[15.79617,-2.83383,308.2253],[15.78956,-2.83197,308.3942],[15.72486,-2.84592,342.1387],[15.71576,-2.84933,307.9225],[15.70047,-2.85709,308.112],[15.68931,-2.86566,308.9541],[15.68042,-2.87114,307.6066],[15.67659,-2.87528,308.447],[15.67391,-2.87889,309.0353],[15.66946,-2.8882,308.8363],[15.66791,-2.89357,308.6509],[15.66316,-2.8976,309.4067],[15.65634,-2.90049,309.5151],[15.64383,-2.90277,309.8269],[15.63804,-2.90463,311.9481],[15.63422,-2.90639,310.91],[15.62864,-2.91155,310.3972],[15.62616,-2.91321,309.2372],[15.61779,-2.91693,311.0962],[15.59567,-2.92272,317.5354],[15.58595,-2.92664,317.7162],[15.572,-2.9347,319.8071],[15.56528,-2.93987,330.8237],[15.55495,-2.95083,312.6129],[15.55112,-2.95372,320.9599],[15.54699,-2.95631,317.5879],[15.53924,-2.9623,314.7982],[15.52477,-2.97553,313.1092],[15.51722,-2.9807,329.8472],[15.51113,-2.9838,323.6112],[15.48632,-3.00054,321.6855],[15.47361,-3.00643,319.1432],[15.40188,-3.03051,322.538],[15.39444,-3.03093,335.153],[15.38545,-3.0302,321.931],[15.34897,-3.01956,362.4747],[15.34049,-3.01883,335.2455],[15.32964,-3.01914,320.8816],[15.3099,-3.02173,326.3374],[15.29171,-3.02617,332.6966],[15.28179,-3.02627,327.2514],[15.24282,-3.01976,368.0097],[15.22318,-3.01243,338.8286],[15.21946,-3.01005,337.7772],[15.21585,-3.00839,333.707],[15.20344,-3.00467,336.7935],[15.19983,-3.00261,331.8992],[15.19817,-3.00064,327.64],[15.19724,-2.9992,330.4659],[15.19611,-2.99672,335.6072],[15.19425,-2.99351,343.4217],[15.19022,-2.99051,341.7924],[15.18453,-2.98845,340.8759],[15.16872,-2.98576,331.6283],[15.16283,-2.98411,339.6434],[15.15859,-2.98142,352.5827],[15.15497,-2.97791,353.0022],[15.15239,-2.97377,343.9799],[15.1465,-2.95848,343.7501],[15.14247,-2.9285,345.2985],[15.1404,-2.92365,340.0788],[15.13761,-2.91941,338.2133],[15.12676,-2.9098,344.6077],[15.12169,-2.90122,349.2289],[15.1187,-2.89729,340.582],[15.11466,-2.8944,335.91],[15.10557,-2.89223,351.6129],[15.0419,-2.88603,369.1066],[15.03457,-2.88665,361.4051],[15.01245,-2.89605,355.0922],[14.99198,-2.90235,354.1814],[14.97441,-2.90308,346.8473]]]}
,"properties": {"ISO3166-1-Alpha-3": "COG","country": "Republic of the Congo","fill": "#F00","name": "Pool","area_km2": 29055.17,"hist_schema_id": "Elevation0-9000","hist_area_km2": {"175": 20.04,"200": 70.77,"225": 155.44,"250": 159.93,"275": 426.44,"300": 470.2,"325": 797.05,"350": 1040.58,"375": 1249.09,"400": 1445.04,"425": 1817.57,"450": 2475.14,"475": 2313.33,"500": 1857.87,"525": 2184.46,"550": 2392.66,"575": 2012.87,"600": 2068.09,"625": 1956.62,"650": 1496.46,"675": 1027.35,"700": 735.53,"725": 608.14,"750": 240.07,"775": 32.9,"800": 1.52}}}