{"type": "Feature","bbox": [13.8623,-4.9232,16.2224,-2.7147],"geometry": {"type": "MultiPolygon","coordinates": [[[[14.9471,-4.6499,401.0984],[14.9955,-4.6034,359.6095],[15.024,-4.5639,334.9659],[15.041,-4.5452,309.6393],[15.0525,-4.54,315.8555],[15.061,-4.5331,375.6546],[15.0628,-4.5293,309.7531],[15.0714,-4.5227,365.8943],[15.0757,-4.5173,327.7541],[15.0872,-4.5105,323.8256],[15.0982,-4.4968,258.7357],[15.1048,-4.495,295.821],[15.1047,-4.487,231.0],[15.108,-4.4844,249.2666],[15.1083,-4.4813,246.0916],[15.115,-4.4775,232.5],[15.1141,-4.4738,233.0],[15.1168,-4.4687,233.5],[15.1248,-4.4625,237.6155],[15.1232,-4.4617,234.5],[15.126,-4.4586,270.9823],[15.1249,-4.4549,235.0],[15.129,-4.4453,236.0],[15.1327,-4.4441,248.3436],[15.137,-4.4462,267.5138],[15.1475,-4.4268,343.0342],[15.1622,-4.4106,253.0448],[15.161,-4.4065,256.4139],[15.1687,-4.3986,265.5635],[15.174,-4.397,259.4919],[15.1746,-4.394,243.7205],[15.1793,-4.3902,264.0539],[15.1814,-4.3785,282.018],[15.1943,-4.3476,287.382],[15.2076,-4.3381,262.4086],[15.2235,-4.3299,254.5],[15.2192,-4.3015,312.2174],[15.213,-4.2832,288.7927],[15.216,-4.2602,339.5067],[15.2317,-4.2357,395.118],[15.2517,-4.2226,400.388],[15.2642,-4.2219,319.6941],[15.2769,-4.2062,395.4324],[15.2933,-4.2078,299.7911],[15.3051,-4.2209,269.4545],[15.3246,-4.2809,268.0],[15.3719,-4.2894,269.8055],[15.3972,-4.2998,268.9876],[15.4153,-4.2965,268.0],[15.4286,-4.2914,268.0],[15.4489,-4.2802,270.8924],[15.4638,-4.2696,271.1745],[15.4765,-4.2522,268.0],[15.4994,-4.2123,268.0],[15.5039,-4.201,271.1926],[15.5057,-4.1909,268.0],[15.5054,-4.1782,268.0],[15.5005,-4.161,268.0],[15.5,-4.1492,268.0],[15.5065,-4.1264,269.0],[15.5144,-4.1066,270.5],[15.5339,-4.0736,287.6034],[15.5564,-4.0482,283.7721],[15.5898,-4.0346,272.7189],[15.5947,-4.0304,281.0533],[15.6137,-4.0255,278.8249],[15.6449,-4.0137,275.4831],[15.6603,-4.0096,276.1177],[15.6699,-4.0091,275.6629],[15.6791,-4.0037,273.9442],[15.7138,-3.9941,272.0],[15.7702,-3.9882,272.364],[15.8009,-3.9818,272.5],[15.8316,-3.9783,275.2162],[15.8592,-3.967,274.2132],[15.8693,-3.9665,312.708],[15.8748,-3.9633,280.0068],[15.878,-3.9653,293.8595],[15.8806,-3.9645,272.5],[15.8929,-3.9585,289.0561],[15.9005,-3.9514,272.7524],[15.9059,-3.9379,272.9091],[15.9112,-3.9342,272.5],[15.9104,-3.9281,274.7463],[15.9138,-3.9263,280.5929],[15.9174,-3.9204,272.5],[15.9213,-3.9103,272.5],[15.9263,-3.8838,275.8012],[15.9437,-3.8411,273.0],[15.9575,-3.8173,284.3264],[15.9817,-3.7679,289.7994],[16.001,-3.7386,297.6848],[16.0236,-3.6823,302.7348],[16.0372,-3.6603,281.3183],[16.0468,-3.6322,304.3036],[16.0581,-3.6089,294.0748],[16.0866,-3.5765,300.6338],[16.1102,-3.5384,277.4562],[16.1129,-3.5363,292.8022],[16.1253,-3.5042,273.0],[16.1324,-3.4768,289.7145],[16.1449,-3.4548,273.0],[16.1649,-3.431,273.0],[16.1871,-3.3954,276.0918],[16.2112,-3.3396,274.5429],[16.2224,-3.2963,273.0],[16.2194,-3.2901,273.0],[16.1979,-3.2763,273.0],[16.1893,-3.2673,273.0],[16.1841,-3.2505,273.0],[16.1864,-3.2224,287.2347],[16.1927,-3.1989,273.0],[16.1909,-3.1787,273.0],[16.1803,-3.1375,273.25],[16.1783,-3.1021,273.5],[16.1824,-3.0696,273.5],[16.1953,-3.016,274.0],[16.1945,-2.9999,274.0],[16.1905,-2.9773,274.0],[16.1824,-2.9571,274.0],[16.1807,-2.942,274.0],[16.1536,-2.9411,274.513],[16.1428,-2.9383,281.7831],[16.1283,-2.9319,285.5184],[16.0836,-2.9281,302.0941],[16.0594,-2.9308,337.2147],[16.0497,-2.935,315.0484],[16.0386,-2.9447,377.2119],[16.0336,-2.9464,317.2054],[16.0275,-2.9472,331.9323],[15.9975,-2.9425,306.0],[15.9858,-2.9269,333.4052],[15.9706,-2.9211,308.0801],[15.9667,-2.9181,307.1153],[15.9639,-2.9003,379.306],[15.9581,-2.8928,413.2526],[15.9533,-2.8906,358.5386],[15.9486,-2.8814,378.2372],[15.9397,-2.8767,306.0],[15.9328,-2.8767,308.1339],[15.9281,-2.8744,306.0],[15.9014,-2.8542,308.3217],[15.8856,-2.8492,306.0],[15.8831,-2.845,306.0],[15.8781,-2.8428,306.4644],[15.8689,-2.8475,308.4069],[15.8628,-2.8481,310.9671],[15.8581,-2.8461,308.1736],[15.8514,-2.8336,308.4027],[15.8458,-2.8336,307.5301],[15.8417,-2.8364,308.2442],[15.8361,-2.8375,308.1384],[15.83,-2.8367,308.2877],[15.8278,-2.8319,309.0687],[15.8281,-2.825,308.3147],[15.8261,-2.8203,308.2617],[15.8206,-2.8214,307.042],[15.8169,-2.825,308.2494],[15.8142,-2.8289,308.6797],[15.8108,-2.8392,308.1943],[15.8072,-2.8428,308.4031],[15.8017,-2.8428,308.2994],[15.7956,-2.8281,308.2516],[15.7647,-2.8381,306.6732],[15.7244,-2.8456,342.1387],[15.71,-2.8519,307.6599],[15.6961,-2.8597,308.4137],[15.6892,-2.8667,309.1969],[15.6842,-2.8686,308.9432],[15.6767,-2.8747,308.447],[15.6689,-2.8875,309.0818],[15.6689,-2.8944,307.5883],[15.6658,-2.8986,310.0455],[15.6611,-2.9006,309.1488],[15.6419,-2.9003,309.581],[15.6272,-2.9131,309.2372],[15.5858,-2.9264,317.7162],[15.5725,-2.9339,320.7648],[15.565,-2.94,330.8237],[15.5517,-2.9542,322.4547],[15.5425,-2.9592,315.1777],[15.5253,-2.9758,313.1092],[15.5119,-2.9831,323.6112],[15.4878,-3.0,318.932],[15.4739,-3.0069,319.1432],[15.4475,-3.0147,326.4058],[15.4186,-3.0267,326.0875],[15.3908,-3.0331,318.0],[15.3842,-3.0331,323.6268],[15.3689,-3.0275,331.3539],[15.36,-3.0225,330.4235],[15.3436,-3.0181,336.0134],[15.3236,-3.0172,345.2429],[15.3014,-3.0225,327.1949],[15.2925,-3.0272,334.3999],[15.2794,-3.0278,335.4786],[15.2614,-3.0247,333.3473],[15.2483,-3.0244,345.4703],[15.2347,-3.0214,339.0642],[15.2272,-3.015,326.8691],[15.2142,-3.0072,332.4206],[15.2025,-3.0053,336.7935],[15.1983,-3.0022,332.1428],[15.1953,-2.9933,343.4217],[15.1869,-2.9878,334.6877],[15.1678,-2.9861,345.1525],[15.1581,-2.9819,352.4651],[15.1519,-2.9744,349.0904],[15.1461,-2.9592,343.7501],[15.145,-2.9397,345.7805],[15.1411,-2.9231,340.0788],[15.1383,-2.9192,340.907],[15.1261,-2.9106,344.6077],[15.1194,-2.8967,339.064],[15.1106,-2.8919,345.0231],[15.0911,-2.8917,354.9326],[15.0744,-2.8956,347.3426],[15.0575,-2.8919,341.5196],[15.0486,-2.8869,354.1133],[15.0375,-2.8839,382.2605],[15.0314,-2.8847,365.6444],[15.01,-2.8975,346.2464],[14.9831,-2.9044,353.8655],[14.9561,-2.905,351.9307],[14.9497,-2.9039,361.6687],[14.9408,-2.8992,382.8446],[14.9369,-2.8894,403.354],[14.9414,-2.8731,367.327],[14.9336,-2.84,369.5573],[14.9322,-2.7953,379.9045],[14.9228,-2.7839,376.1538],[14.9144,-2.7783,377.2161],[14.9125,-2.7736,378.471],[14.9164,-2.7564,386.235],[14.9136,-2.7456,399.1009],[14.9061,-2.7392,387.8457],[14.9003,-2.7247,382.3113],[14.8942,-2.7169,382.0052],[14.8894,-2.7147,389.0375],[14.8825,-2.7147,393.7372],[14.8764,-2.7153,385.0706],[14.8664,-2.7192,380.5864],[14.8506,-2.7306,394.4348],[14.8372,-2.745,386.9089],[14.8289,-2.7503,392.2717],[14.8089,-2.7583,450.4073],[14.8019,-2.765,435.9104],[14.7992,-2.7692,426.6434],[14.8,-2.7956,423.2021],[14.7956,-2.8119,425.7618],[14.7906,-2.8208,430.8469],[14.7642,-2.8422,427.8848],[14.7544,-2.8464,431.3599],[14.7325,-2.8514,438.6163],[14.7225,-2.8692,430.4517],[14.7133,-2.8808,445.5639],[14.6883,-2.9039,451.4895],[14.6675,-2.9169,451.1071],[14.6564,-2.9267,453.1482],[14.6533,-2.9308,450.6989],[14.6483,-2.9464,448.5751],[14.645,-2.95,450.176],[14.6233,-2.9639,461.0174],[14.5961,-2.9917,464.3771],[14.5753,-3.0036,512.6782],[14.5717,-3.0072,465.7096],[14.5603,-3.0303,472.0346],[14.5519,-3.0428,475.907],[14.5372,-3.0556,482.8792],[14.5217,-3.0814,479.2539],[14.5175,-3.0839,480.7993],[14.5064,-3.0853,538.0991],[14.4975,-3.0803,553.8788],[14.4908,-3.0733,597.4146],[14.4722,-3.0711,579.6306],[14.4675,-3.0686,513.5119],[14.4567,-3.0592,504.1594],[14.4467,-3.0419,557.6257],[14.4342,-3.0333,556.4539],[14.4281,-3.0325,568.3068],[14.4169,-3.035,549.6476],[14.3969,-3.0353,597.4232],[14.375,-3.0406,555.7967],[14.3611,-3.0336,606.5281],[14.3539,-3.0203,595.0522],[14.3258,-3.0203,684.2861],[14.3058,-3.0239,643.4246],[14.2856,-3.02,585.4724],[14.2758,-3.0108,568.8849],[14.2645,-2.9842,555.5438],[14.2607,-2.9819,548.4058],[14.2511,-2.9906,536.6707],[14.2317,-2.9986,531.338],[14.2158,-3.0031,534.366],[14.2017,-3.0103,540.7492],[14.1747,-3.0314,537.8223],[14.1619,-3.0531,525.0911],[14.1444,-3.1189,506.8647],[14.1372,-3.1322,523.493],[14.1272,-3.1569,527.6308],[14.1264,-3.1703,528.3854],[14.1283,-3.1819,512.8246],[14.1247,-3.1853,512.3972],[14.1142,-3.1883,518.1925],[14.1108,-3.1919,499.2432],[14.1078,-3.2097,498.6071],[14.1036,-3.2192,528.3658],[14.0964,-3.2267,513.2546],[14.0833,-3.2342,509.4801],[14.0839,-3.2389,505.8105],[14.0894,-3.2472,538.9363],[14.0878,-3.2528,535.5119],[14.0656,-3.2578,532.7755],[14.0614,-3.2606,533.4382],[14.05,-3.2769,510.3332],[14.0481,-3.2886,499.8056],[14.045,-3.2928,529.2142],[14.0311,-3.2992,533.0706],[14.0236,-3.3056,535.1503],[14.0206,-3.3094,536.3203],[14.01,-3.3333,515.6724],[13.9906,-3.3467,488.7177],[13.9883,-3.3514,506.829],[13.9778,-3.3617,494.4808],[13.9742,-3.3719,498.0936],[13.9708,-3.3756,517.0276],[13.9478,-3.3872,548.918],[13.9344,-3.4017,533.1326],[13.9233,-3.4111,529.6673],[13.9203,-3.415,548.1492],[13.9197,-3.4214,486.3931],[13.9225,-3.4253,480.3605],[13.9222,-3.4325,488.1552],[13.9175,-3.4411,547.7579],[13.9111,-3.4486,565.8737],[13.9081,-3.4597,537.4502],[13.9017,-3.4739,555.4548],[13.8944,-3.4878,507.4212],[13.8814,-3.495,528.3164],[13.8775,-3.4983,475.3246],[13.8756,-3.5031,489.5008],[13.8803,-3.5192,488.5602],[13.8794,-3.5239,490.8246],[13.8731,-3.5314,475.4883],[13.8623,-3.5371,464.722],[13.9242,-3.5586,550.9883],[13.9361,-3.5603,589.6874],[13.9431,-3.5633,543.826],[13.9578,-3.5767,585.9261],[13.9653,-3.5786,642.7712],[13.9883,-3.5786,619.9353],[14.0269,-3.575,597.9667],[14.0419,-3.5703,582.1919],[14.0486,-3.5556,577.0068],[14.0961,-3.5006,573.3257],[14.1036,-3.4939,538.1945],[14.1322,-3.4767,518.1265],[14.1344,-3.4603,501.8505],[14.1372,-3.4531,539.6205],[14.1447,-3.45,530.1913],[14.1517,-3.4558,506.2418],[14.1617,-3.4711,507.9686],[14.1847,-3.4803,530.3317],[14.1989,-3.4897,501.8893],[14.2072,-3.4931,555.022],[14.2314,-3.4903,507.4777],[14.2389,-3.4933,511.2114],[14.2464,-3.5078,509.5121],[14.2522,-3.515,524.3745],[14.2594,-3.5147,513.5256],[14.2644,-3.5222,519.1248],[14.2683,-3.5375,477.2501],[14.2725,-3.545,534.4453],[14.2803,-3.55,466.5135],[14.2864,-3.5572,464.9207],[14.2831,-3.5783,459.3449],[14.2869,-3.5861,454.0262],[14.2894,-3.6089,444.2653],[14.3033,-3.6211,468.6555],[14.3086,-3.6347,439.0131],[14.2947,-3.6378,488.8661],[14.2775,-3.6478,453.4543],[14.2572,-3.6553,454.7579],[14.2578,-3.6681,445.6045],[14.2556,-3.6731,440.4668],[14.2458,-3.6772,445.4512],[14.2333,-3.6783,437.4937],[14.2208,-3.6767,446.4308],[14.2081,-3.6772,447.7788],[14.2036,-3.6797,448.0927],[14.2036,-3.6853,425.522],[14.2056,-3.69,463.367],[14.2206,-3.7028,451.4156],[14.2319,-3.7189,440.7487],[14.2364,-3.7347,442.2051],[14.2364,-3.7417,471.1044],[14.2414,-3.7506,429.6587],[14.2556,-3.7572,350.2434],[14.2672,-3.7661,363.1179],[14.2706,-3.7764,361.8277],[14.2742,-3.8,400.1163],[14.2803,-3.8078,374.7756],[14.2886,-3.8131,310.0678],[14.2911,-3.8175,392.7458],[14.2925,-3.8283,336.2808],[14.2878,-3.845,246.6855],[14.29,-3.85,281.6051],[14.2961,-3.8575,251.5902],[14.3064,-3.8611,380.4054],[14.3206,-3.8742,219.0821],[14.3339,-3.8753,331.4119],[14.3428,-3.8803,241.0022],[14.3453,-3.8842,300.3156],[14.3497,-3.9003,232.528],[14.3581,-3.9058,226.4144],[14.3608,-3.91,292.4264],[14.3636,-3.9197,269.1605],[14.3625,-3.9314,263.3837],[14.3725,-3.9486,230.254],[14.3739,-3.9542,255.4976],[14.3711,-3.9583,217.5184],[14.355,-3.9628,237.6578],[14.3508,-3.9656,258.8056],[14.3475,-3.9692,235.2249],[14.3453,-3.9814,251.0744],[14.3381,-3.9881,213.9222],[14.3319,-3.9889,249.0072],[14.3278,-3.9917,205.5898],[14.3264,-4.0039,240.0484],[14.3239,-4.0086,214.8997],[14.3192,-4.0106,209.9024],[14.3131,-4.0097,246.7789],[14.3042,-4.0047,255.1],[14.2925,-4.0025,252.7044],[14.2833,-4.0072,242.9008],[14.2778,-4.0083,219.6369],[14.2675,-4.005,243.1105],[14.2642,-4.0014,215.0712],[14.2469,-3.9908,238.5199],[14.2408,-3.9917,220.2074],[14.2367,-3.9942,251.9108],[14.2297,-4.0008,211.0488],[14.2275,-4.0058,268.0931],[14.2267,-4.0186,215.9498],[14.2203,-4.0261,218.2169],[14.2119,-4.0317,217.6776],[14.2019,-4.0425,239.4739],[14.1797,-4.0478,262.8713],[14.1783,-4.06,211.5784],[14.1747,-4.0633,203.1177],[14.1589,-4.0681,221.7075],[14.1561,-4.0719,242.2374],[14.1475,-4.0911,251.9677],[14.1467,-4.0972,281.4025],[14.1528,-4.105,206.7895],[14.1539,-4.1228,248.0853],[14.1578,-4.1258,227.1229],[14.1633,-4.1342,216.9143],[14.1644,-4.1467,195.4206],[14.1594,-4.1553,237.8676],[14.1506,-4.1603,202.774],[14.1475,-4.1642,203.1088],[14.1464,-4.1697,203.0564],[14.1475,-4.1753,199.4589],[14.1453,-4.18,182.0673],[14.1344,-4.1811,231.6774],[14.1231,-4.1781,233.4423],[14.095,-4.1839,231.4838],[14.0908,-4.1867,216.0079],[14.0817,-4.1983,212.4501],[14.0586,-4.2164,219.072],[14.055,-4.2206,228.5831],[14.0492,-4.2356,195.6982],[14.0433,-4.2439,179.8648],[14.0394,-4.2467,218.51],[14.0214,-4.2542,209.1576],[13.9839,-4.2647,197.5876],[13.9706,-4.2722,222.71],[13.9614,-4.2836,211.4752],[13.9533,-4.3131,203.8169],[13.9508,-4.3361,244.5797],[13.9461,-4.3508,230.7071],[13.9492,-4.375,250.2701],[13.9469,-4.3908,219.8831],[13.9333,-4.4136,276.5637],[13.9253,-4.4439,577.4415],[13.9178,-4.4503,611.4878],[13.9117,-4.4583,634.8077],[13.9086,-4.4667,652.0588],[13.9005,-4.5084,652.0789],[13.9193,-4.5096,656.9598],[13.9441,-4.5185,642.6736],[13.9597,-4.5182,637.09],[13.9691,-4.5113,626.8807],[14.001,-4.4739,644.449],[14.0176,-4.434,614.9119],[14.0205,-4.4308,623.4507],[14.0535,-4.4201,600.8232],[14.0823,-4.4146,585.6852],[14.1283,-4.4156,597.7692],[14.1441,-4.4124,607.0114],[14.1557,-4.4087,597.0291],[14.1714,-4.4009,623.2581],[14.1849,-4.3977,631.9301],[14.2517,-4.3612,583.7795],[14.286,-4.3374,549.5228],[14.3013,-4.3301,573.6208],[14.3138,-4.3174,584.5468],[14.3206,-4.3141,568.7367],[14.34,-4.3127,577.9813],[14.3583,-4.3142,539.1198],[14.3617,-4.31,526.9272],[14.3622,-4.3023,527.0522],[14.37,-4.3018,537.8654],[14.3817,-4.2981,505.0591],[14.4084,-4.3077,475.1094],[14.4031,-4.3232,533.3251],[14.3958,-4.3313,553.7361],[14.3866,-4.3373,573.6101],[14.3873,-4.3412,583.5555],[14.4171,-4.3825,468.2163],[14.4208,-4.3906,469.8385],[14.4388,-4.4126,447.1966],[14.4581,-4.4277,451.8716],[14.4805,-4.4363,434.1093],[14.4696,-4.446,435.482],[14.4661,-4.4511,435.6358],[14.46,-4.47,459.7292],[14.4474,-4.481,442.3122],[14.4426,-4.4829,448.2028],[14.4385,-4.4923,452.717],[14.433,-4.4933,442.7119],[14.4353,-4.4988,457.3045],[14.4319,-4.5202,454.0177],[14.4284,-4.5158,443.7703],[14.4259,-4.516,446.0329],[14.4238,-4.514,445.2195],[14.4213,-4.5142,444.7882],[14.414,-4.5195,446.0964],[14.4119,-4.5138,465.7619],[14.406,-4.5169,449.9937],[14.4014,-4.5149,445.1115],[14.3817,-4.5249,485.3836],[14.3589,-4.5436,558.8853],[14.3582,-4.5466,575.0252],[14.3507,-4.5561,568.0593],[14.3493,-4.5641,582.0531],[14.3524,-4.5749,560.8513],[14.3572,-4.583,556.519],[14.3816,-4.596,540.0786],[14.378,-4.6155,547.6449],[14.3811,-4.6326,585.8749],[14.3861,-4.6378,568.0621],[14.3804,-4.6496,592.4849],[14.3813,-4.6628,478.4011],[14.3869,-4.6702,556.9277],[14.406,-4.688,582.2709],[14.4083,-4.6931,576.0173],[14.411,-4.7209,606.9457],[14.4097,-4.724,631.1802],[14.4078,-4.7661,412.2711],[14.409,-4.7705,392.6821],[14.4159,-4.7785,365.0857],[14.4166,-4.7831,360.892],[14.4057,-4.7956,349.0498],[14.4011,-4.8064,361.3202],[14.404,-4.8301,355.7418],[14.403,-4.8609,346.4589],[14.4092,-4.8745,308.8996],[14.412,-4.8936,172.0],[14.4162,-4.8975,172.0],[14.4291,-4.8944,184.1753],[14.43,-4.8964,263.3742],[14.4355,-4.8858,239.4925],[14.4458,-4.8798,195.5844],[14.45,-4.8807,238.1268],[14.4605,-4.8736,281.547],[14.471,-4.863,218.9093],[14.4776,-4.853,254.2912],[14.4828,-4.8498,220.1117],[14.4899,-4.8482,210.6128],[14.497,-4.8507,181.0],[14.5085,-4.858,181.5],[14.5283,-4.8625,183.0],[14.5427,-4.8622,183.5],[14.5576,-4.8654,184.75],[14.5763,-4.8834,186.5],[14.5867,-4.8997,187.5],[14.592,-4.9034,188.0],[14.612,-4.9075,189.0],[14.6286,-4.9166,198.5011],[14.6462,-4.9232,191.5],[14.6879,-4.9176,329.1242],[14.6937,-4.9144,272.5959],[14.7252,-4.8865,196.5],[14.7394,-4.8758,198.0],[14.7616,-4.8651,325.5083],[14.7718,-4.8582,376.5453],[14.8007,-4.8429,338.2194],[14.8129,-4.843,307.8531],[14.826599999999999,-4.8363,333.4695],[14.8438,-4.8245,348.0085],[14.8497,-4.8178,328.5109],[14.8552,-4.8088,361.8224],[14.8562,-4.8034,367.2489],[14.8706,-4.7838,278.4568],[14.8756,-4.7558,322.9388],[14.8821,-4.7426,313.4763],[14.8965,-4.7209,295.7203],[14.9036,-4.6988,384.3466],[14.9131,-4.6811,348.5369],[14.9251,-4.6686,378.5022],[14.9471,-4.6499,401.0984]]]]}
,"properties": {"GID_1": "COG.11_1","GID_0": "COG","country": "RepublicoftheCongo","province": "Pool","VARNAME_1": "NA","NL_NAME_1": "NA","TYPE_1": "Région","ENGTYPE_1": "Region","CC_1": "NA","HASC_1": "CG.PO","ISO_1": "NA","name": "Pool.province","area_km2": 35308.13,"hist_schema_id": "Elevation0-9000","hist_area_km2": {"175": 34.24,"200": 96.1,"225": 181.36,"250": 194.34,"275": 923.12,"300": 635.35,"325": 1024.6,"350": 1272.38,"375": 1476.57,"400": 1664.92,"425": 2012.13,"450": 2650.37,"475": 2472.47,"500": 2000.22,"525": 2311.44,"550": 2512.17,"575": 2132.66,"600": 2213.05,"625": 2215.28,"650": 2410.1,"675": 1857.89,"700": 1442.63,"725": 1094.92,"750": 443.28,"775": 35.05,"800": 1.52}}}