{"type":"Feature","properties":{"featurecla":"River","scalerank":8,"rivernum":727,"dissolve":"727River","name":"Niari","name_alt":null,"note":null,"min_zoom":7.0,"strokeweig":0.15,"name_en":"Niari","min_label":8.0},
"geometry":{"type": "LineString","coordinates": [[14.603271484375,-3.30706145625588,599.4702],[14.592187500000023,-3.3384091125058859,507.0494],[14.550927734375023,-3.3865536437558892,486.9559],[14.541748046875,-3.4163388000058892,470.7979],[14.546289062500023,-3.4373348937558892,474.5689],[14.5537109375,-3.45891692500588,465.2292],[14.55615234375,-3.48064544063088,459.4331],[14.544921875,-3.5019833312558859,460.2832]]}}