{"type":"Feature","properties":{"GID_2":"COG.1.5_1","GID_0":"COG","country":"RepublicoftheCongo","GID_1":"COG.1_1","province":"Bouenza","NL_NAME_1":"NA","county":"Mouyondzi","VARNAME_2":"NA","NL_NAME_2":"NA","TYPE_2":"District","ENGTYPE_2":"District","CC_2":"NA","HASC_2":"CG.BO.MO","name":"Mouyondzi.county"},
"geometry":{"type": "MultiPolygon","coordinates": [[[[13.8755,-4.3148,197.5677],[13.8827,-4.3186,181.9933],[13.8998,-4.3235,253.8115],[13.9313,-4.3205,220.1217],[13.9519,-4.3218,181.6335],[13.9614,-4.2836,211.4752],[13.9706,-4.2722,222.71],[13.9839,-4.2647,197.5876],[14.0214,-4.2542,209.1576],[14.0394,-4.2467,218.51],[14.0433,-4.2439,179.8648],[14.0492,-4.2356,195.6982],[14.055,-4.2206,228.5831],[14.0586,-4.2164,219.072],[14.0817,-4.1983,212.4501],[14.0908,-4.1867,216.0079],[14.095,-4.1839,231.4838],[14.1231,-4.1781,233.4423],[14.1344,-4.1811,231.6774],[14.1453,-4.18,182.0673],[14.1475,-4.1753,199.4589],[14.1464,-4.1697,203.0564],[14.1475,-4.1642,203.1088],[14.1506,-4.1603,202.774],[14.1594,-4.1553,237.8676],[14.1644,-4.1467,195.4206],[14.1633,-4.1342,216.9143],[14.1578,-4.1258,227.1229],[14.1539,-4.1228,248.0853],[14.1528,-4.105,206.7895],[14.1467,-4.0972,281.4025],[14.1475,-4.0911,251.9677],[14.1561,-4.0719,242.2374],[14.1589,-4.0681,221.7075],[14.1747,-4.0633,203.1177],[14.1783,-4.06,211.5784],[14.1797,-4.0478,262.8713],[14.2019,-4.0425,239.4739],[14.2119,-4.0317,217.6776],[14.2203,-4.0261,218.2169],[14.2267,-4.0186,215.9498],[14.2275,-4.0058,268.0931],[14.2297,-4.0008,211.0488],[14.2367,-3.9942,251.9108],[14.2408,-3.9917,220.2074],[14.2469,-3.9908,238.5199],[14.2642,-4.0014,215.0712],[14.2675,-4.005,243.1105],[14.2778,-4.0083,219.6369],[14.2833,-4.0072,242.9008],[14.2925,-4.0025,252.7044],[14.3042,-4.0047,255.1],[14.3131,-4.0097,246.7789],[14.3192,-4.0106,209.9024],[14.3239,-4.0086,214.8997],[14.3264,-4.0039,240.0484],[14.3278,-3.9917,205.5898],[14.3319,-3.9889,249.0072],[14.3381,-3.9881,213.9222],[14.3453,-3.9814,251.0744],[14.3475,-3.9692,235.2249],[14.3508,-3.9656,258.8056],[14.355,-3.9628,237.6578],[14.3711,-3.9583,217.5184],[14.3739,-3.9542,255.4976],[14.3725,-3.9486,230.254],[14.3625,-3.9314,263.3837],[14.3636,-3.9197,269.1605],[14.3608,-3.91,292.4264],[14.3581,-3.9058,226.4144],[14.3497,-3.9003,232.528],[14.3453,-3.8842,300.3156],[14.3428,-3.8803,241.0022],[14.3339,-3.8753,331.4119],[14.3206,-3.8742,219.0821],[14.3064,-3.8611,380.4054],[14.2961,-3.8575,251.5902],[14.29,-3.85,281.6051],[14.2878,-3.845,246.6855],[14.2925,-3.8283,336.2808],[14.2911,-3.8175,392.7458],[14.2886,-3.8131,310.0678],[14.2803,-3.8078,374.7756],[14.2742,-3.8,400.1163],[14.2706,-3.7764,361.8277],[14.2672,-3.7661,363.1179],[14.2556,-3.7572,350.2434],[14.2414,-3.7506,429.6587],[14.2364,-3.7417,471.1044],[14.2364,-3.7347,442.2051],[14.2319,-3.7189,440.7487],[14.2206,-3.7028,451.4156],[14.2056,-3.69,463.367],[14.2036,-3.6853,425.522],[14.2036,-3.6797,448.0927],[14.2081,-3.6772,447.7788],[14.2208,-3.6767,446.4308],[14.2333,-3.6783,437.4937],[14.2458,-3.6772,445.4512],[14.2556,-3.6731,440.4668],[14.2578,-3.6681,445.6045],[14.2572,-3.6553,454.7579],[14.2775,-3.6478,453.4543],[14.2947,-3.6378,488.8661],[14.3086,-3.6347,439.0131],[14.3033,-3.6211,468.6555],[14.2894,-3.6089,444.2653],[14.2869,-3.5861,454.0262],[14.2831,-3.5783,459.3449],[14.2864,-3.5572,464.9207],[14.2803,-3.55,466.5135],[14.2725,-3.545,534.4453],[14.2683,-3.5375,477.2501],[14.2644,-3.5222,519.1248],[14.2594,-3.5147,513.5256],[14.2522,-3.515,524.3745],[14.2464,-3.5078,509.5121],[14.2389,-3.4933,511.2114],[14.2314,-3.4903,507.4777],[14.2072,-3.4931,555.022],[14.1989,-3.4897,501.8893],[14.1847,-3.4803,530.3317],[14.1617,-3.4711,507.9686],[14.1517,-3.4558,506.2418],[14.1447,-3.45,530.1913],[14.1372,-3.4531,539.6205],[14.1344,-3.4603,501.8505],[14.1322,-3.4767,518.1265],[14.1036,-3.4939,538.1945],[14.0961,-3.5006,573.3257],[14.0486,-3.5556,577.0068],[14.0419,-3.5703,582.1919],[14.0344,-3.5731,590.3192],[13.9958,-3.5781,606.6416],[13.9653,-3.5786,642.7712],[13.9578,-3.5767,585.9261],[13.9431,-3.5633,543.826],[13.9361,-3.5603,589.6874],[13.9242,-3.5586,550.9883],[13.8623,-3.5371,464.722],[13.8514,-3.5439,480.59],[13.8381,-3.5653,488.028],[13.8267,-3.5883,480.7748],[13.8169,-3.5992,478.8051],[13.8064,-3.6025,463.9648],[13.7933,-3.6017,459.2635],[13.7883,-3.6033,452.2341],[13.785,-3.6069,472.0271],[13.7778,-3.6206,467.5232],[13.7747,-3.6314,463.8543],[13.7789,-3.64,449.5172],[13.7808,-3.6517,452.7388],[13.7667,-3.6722,464.5657],[13.7397,-3.6792,479.0271],[13.7319,-3.685,478.4966],[13.7256,-3.6925,477.4918],[13.7178,-3.7056,469.5312],[13.7169,-3.7117,483.023],[13.7222,-3.7269,451.6932],[13.7219,-3.7339,466.8389],[13.7194,-3.7381,450.5749],[13.7131,-3.7386,452.1717],[13.7036,-3.7342,461.5563],[13.6931,-3.7375,462.9938],[13.6669,-3.7303,440.2287],[13.6475,-3.7314,468.7837],[13.6436,-3.7339,464.4109],[13.6514,-3.7467,471.7076],[13.65,-3.7506,438.6005],[13.6356,-3.7564,475.9929],[13.6244,-3.7661,476.5676],[13.6194,-3.7681,466.9118],[13.6133,-3.7672,462.159],[13.5947,-3.7578,446.1765],[13.5886,-3.7572,445.0855],[13.5822,-3.7578,443.4788],[13.5781,-3.7603,428.3948],[13.5697,-3.7658,467.9235],[13.5678,-3.7706,455.0143],[13.5692,-3.7961,477.4827],[13.5747,-3.7975,467.2487],[13.5867,-3.7956,459.4286],[13.5914,-3.7978,483.0863],[13.5861,-3.8119,486.7347],[13.5869,-3.8169,469.8545],[13.5908,-3.8197,462.5574],[13.6025,-3.8219,456.4594],[13.5961,-3.8411,481.498],[13.5908,-3.8489,494.1943],[13.5831,-3.8561,468.6374],[13.5675,-3.8628,493.0424],[13.5667,-3.8703,465.7482],[13.5694,-3.8847,490.9637],[13.5694,-3.9006,486.2854],[13.5639,-3.9081,377.8882],[13.5336,-3.9303,330.6751],[13.5267,-3.9378,295.9107],[13.5225,-3.9458,278.7513],[13.5203,-3.96,277.9983],[13.5217,-3.9831,250.0392],[13.5171,-4.003,232.0417],[13.5252,-4.0124,343.3406],[13.5447,-4.0144,292.2537],[13.5771,-4.0312,251.8331],[13.6135,-4.0469,303.3582],[13.6268,-4.0662,236.8377],[13.6448,-4.0796,252.0295],[13.6704,-4.1082,217.1208],[13.7017,-4.1467,159.0937],[13.7209,-4.1753,176.0631],[13.7527,-4.206,197.5319],[13.7846,-4.2326,189.3678],[13.8223,-4.2674,190.179],[13.8437,-4.2917,233.0214],[13.8611,-4.307,204.027],[13.8755,-4.3148,197.5677]]]]}}