{"type":"Feature","properties":{"featurecla":"River","scalerank":3,"rivernum":60,"dissolve":"60River","name":"Ubangi1","name_alt":null,"note":null,"min_zoom":3.0,"strokeweig":1.0,"name_en":"Ubangi","min_label":4.0},
"geometry":{"type": "LineString","coordinates": [[18.01171875,1.4221377624941169,309.0],[18.006103515625,1.40253327030662,309.0],[18.00146484375,1.36591217655662,310.9518],[17.966455078125023,1.25385162968162,341.2333],[17.962890625,1.19159577030662,342.1437],[17.955712890625023,1.171747137494108,332.3256],[17.914306640625,1.10211823124412,333.1444],[17.891992187500023,1.07758209843162,332.0906],[17.872705078125023,1.0398135437441169,333.0172],[17.865966796875,1.016717840619108,301.5],[17.877685546875,0.947284246869117,334.542],[17.877343750000023,0.868036199994108,327.7277],[17.907128906250023,0.74054596561912,333.1838],[17.907128906250023,0.71320221561912,325.5956],[17.892236328125023,0.63605377811912,321.1648],[17.892724609375023,0.607782293744108,328.1801],[17.898828125000023,0.583368231244108,326.6639],[17.917871093750023,0.53534577030662,301.4389],[17.9326171875,0.52728912968162,315.9296],[17.943115234375,0.511004949994117,297.5],[17.949462890625,0.491717840619117,297.5],[17.951562500000023,0.47455475468162,303.2235],[17.944970703125023,0.377460028119117,329.7055],[17.939453125,0.36139557499412,311.9626],[17.853515625,0.24127838749412,321.8893],[17.77490234375,0.026483465619108,314.2895],[17.756591796875,-0.00933196406838,319.3056],[17.7158203125,-0.19573333125588,317.2266],[17.713134765625,-0.220733331255886,316.0167],[17.715722656250023,-0.24602630000588,314.6182],[17.740234375,-0.346026300005889,313.3246],[17.7490234375,-0.523272393755889,294.0]]}}