{"type": "Feature","bbox": [12.7775,-4.9199,13.5786,-4.3182],"geometry": {"type": "MultiPolygon","coordinates": [[[[13.1048,-4.6486,344.9051],[13.1063,-4.6473,366.6907],[13.1309,-4.652,370.1526],[13.1444,-4.6523,352.6213],[13.1565,-4.6504,361.7041],[13.1825,-4.639,349.8736],[13.1882,-4.643,354.6699],[13.1923,-4.6527,354.229],[13.2004,-4.6573,349.6786],[13.2098,-4.669,352.8028],[13.2229,-4.6764,371.4015],[13.2329,-4.6798,359.6707],[13.2467,-4.696,362.6996],[13.2564,-4.7194,364.2144],[13.2646,-4.727,369.5827],[13.2651,-4.7291,370.0277],[13.2584,-4.7286,364.8305],[13.2555,-4.7307,363.1772],[13.2536,-4.7351,367.7275],[13.2548,-4.7383,364.6667],[13.269,-4.75,367.935],[13.2731,-4.7588,370.3103],[13.2818,-4.7664,373.2479],[13.2846,-4.7714,375.3936],[13.2899,-4.7705,375.11],[13.294,-4.7746,375.246],[13.2984,-4.7751,376.386],[13.3025,-4.7822,383.933],[13.3062,-4.7843,379.1161],[13.3101,-4.7838,380.3679],[13.3133,-4.7866,381.3993],[13.3165,-4.7864,380.7479],[13.3197,-4.7829,381.6555],[13.3241,-4.7836,382.7742],[13.3323,-4.7891,388.0659],[13.3404,-4.7848,390.7069],[13.345,-4.7852,387.4307],[13.3502,-4.7868,391.701],[13.3594,-4.7974,392.9476],[13.3638,-4.799,397.5875],[13.3727,-4.7986,401.8772],[13.3785,-4.8059,404.0356],[13.3815,-4.8165,417.1443],[13.3773,-4.8234,412.5018],[13.3787,-4.8326,423.0711],[13.3826,-4.8363,464.4214],[13.3815,-4.8402,427.1518],[13.3856,-4.8493,472.4558],[13.3807,-4.8512,463.405],[13.3785,-4.8607,594.4001],[13.3792,-4.8669,478.2751],[13.3875,-4.8786,534.6023],[13.3916,-4.8799,510.3174],[13.4013,-4.8887,518.0914],[13.4257,-4.9164,648.207],[13.431,-4.9199,714.9825],[13.4346,-4.9196,650.261],[13.4365,-4.9171,700.4535],[13.4383,-4.9056,704.2307],[13.435,-4.892,718.3544],[13.4276,-4.8825,726.3068],[13.4436,-4.868,710.2347],[13.4631,-4.8694,677.5033],[13.472,-4.8653,699.5897],[13.5044,-4.8351,432.9881],[13.5067,-4.831,445.3835],[13.4983,-4.8123,443.7358],[13.5034,-4.7995,400.9666],[13.5187,-4.7835,439.9374],[13.5275,-4.7766,433.9109],[13.5401,-4.7784,481.1827],[13.5433,-4.783,444.0606],[13.5503,-4.8018,425.5704],[13.5652,-4.8123,375.29],[13.5786,-4.8179,454.0107],[13.5775,-4.7722,436.0464],[13.575,-4.7497,560.0909],[13.5706,-4.7353,367.5467],[13.5658,-4.7275,339.693],[13.5356,-4.7078,310.6123],[13.4983,-4.6906,327.3767],[13.475,-4.6736,355.2615],[13.4461,-4.6556,313.8242],[13.4239,-4.6378,283.1208],[13.4158,-4.6356,306.9434],[13.3994,-4.635,269.4592],[13.3922,-4.6322,261.6846],[13.3861,-4.6247,290.611],[13.3828,-4.6164,288.581],[13.3814,-4.6083,298.7867],[13.3822,-4.5861,297.8755],[13.3775,-4.5781,281.0061],[13.3706,-4.5728,262.8611],[13.3628,-4.5697,255.4617],[13.3589,-4.5625,229.0847],[13.3517,-4.5556,247.0821],[13.3472,-4.5483,250.6802],[13.3469,-4.5408,219.9691],[13.3442,-4.5328,224.6077],[13.3289,-4.525,279.7173],[13.3242,-4.5172,273.2639],[13.3253,-4.5025,257.9156],[13.3219,-4.4939,255.9515],[13.3147,-4.4892,255.9409],[13.2869,-4.4503,208.4503],[13.2681,-4.4122,177.9566],[13.2611,-4.4039,197.6432],[13.2542,-4.4006,176.2504],[13.2469,-4.4,177.0362],[13.2311,-4.4047,172.707],[13.2236,-4.4047,171.4246],[13.2078,-4.3947,212.6038],[13.2003,-4.395,201.1958],[13.1931,-4.3978,263.8124],[13.17,-4.3844,196.9663],[13.1411,-4.3883,286.0681],[13.1333,-4.3844,284.9297],[13.1269,-4.3772,279.8134],[13.1197,-4.375,267.5641],[13.0967,-4.3817,337.3541],[13.0806,-4.3753,350.5375],[13.0644,-4.3786,426.2784],[13.0567,-4.3781,428.7411],[13.0494,-4.3753,395.2875],[13.0458,-4.3681,363.1476],[13.04,-4.3467,410.3053],[13.0328,-4.3394,374.8182],[13.025,-4.3367,378.5108],[13.011,-4.3356,340.9265],[12.98,-4.3385,353.0497],[12.965,-4.3291,363.3534],[12.9364,-4.3291,416.6459],[12.9038,-4.3245,448.4673],[12.8216,-4.3182,376.5289],[12.7876,-4.3368,412.162],[12.7877,-4.361,441.7714],[12.7775,-4.3814,645.9629],[12.8131,-4.4194,520.1058],[12.867,-4.4149,414.3533],[12.903,-4.4093,392.0165],[12.9061,-4.4675,605.2675],[12.9505,-4.5088,440.2001],[12.9633,-4.5188,414.7164],[12.9861,-4.5414,450.987],[13.0034,-4.5791,554.679],[13.0133,-4.5922,480.5593],[13.0615,-4.6197,404.3929],[13.0993,-4.6465,382.0475],[13.1039,-4.6465,432.9749],[13.1048,-4.6486,344.9051]]]]}
,"properties": {"GID_2": "COG.8.3_1","GID_0": "COG","country": "RepublicoftheCongo","GID_1": "COG.8_1","province": "Niari","NL_NAME_1": "NA","county": "Kimongo","VARNAME_2": "NA","NL_NAME_2": "NA","TYPE_2": "District","ENGTYPE_2": "District","CC_2": "NA","HASC_2": "CG.NI.KM","name": "Kimongo.county","area_km2": 2018.832,"hist_schema_id": "Elevation0-9000","hist_area_km2": {"175": 9.555,"200": 15.854,"225": 30.756,"250": 55.783,"275": 75.459,"300": 97.059,"325": 127.088,"350": 443.849,"375": 404.798,"400": 274.251,"425": 164.095,"450": 83.515,"475": 60.374,"500": 47.081,"525": 32.754,"550": 24.998,"575": 15.827,"600": 11.241,"625": 8.346,"650": 7.057,"675": 7.289,"700": 6.591,"725": 5.577,"750": 5.007,"775": 3.613,"800": 1.014}}}