{"type":"Feature","properties":{"ISO3166-1-Alpha-3":"COG","country":"Republic of the Congo","fill":"#FF0","id":"3344","name":"Lékoumou"},
"geometry":{"type": "Polygon","coordinates": [[[13.90947,-2.48972,774.3535],[13.88497,-2.48848,628.7908],[13.86213,-2.48093,648.9672],[13.8458,-2.46657,650.5939],[13.84694,-2.46161,621.1558],[13.84766,-2.42306,539.3572],[13.8551,-2.41427,570.4573],[13.87588,-2.40383,590.731],[13.89004,-2.37365,631.0182],[13.90192,-2.36631,693.8754],[13.90616,-2.3598,790.6356],[13.89252,-2.3412,659.5522],[13.88218,-2.33386,588.5829],[13.87164,-2.3288,666.7776],[13.86389,-2.32146,687.4297],[13.86058,-2.29366,644.8359],[13.85386,-2.28384,666.7404],[13.83557,-2.26524,569.5876],[13.82327,-2.24684,525.8506],[13.80053,-2.20043,526.6609],[13.79144,-2.15909,525.9315],[13.78276,-2.13801,467.033],[13.77066,-2.11909,461.8689],[13.75692,-2.10587,462.6576],[13.74637,-2.09832,484.1027],[13.74317,-2.09708,480.3616],[13.7409,-2.10245,487.7884],[13.72002,-2.13356,527.6453],[13.70948,-2.15351,513.0792],[13.70679,-2.16457,532.146],[13.70524,-2.18431,530.1483],[13.70157,-2.19475,537.7712],[13.69351,-2.20591,523.5381],[13.61744,-2.2796,502.4914],[13.61072,-2.28994,542.4344],[13.60783,-2.31112,566.8429],[13.60339,-2.32001,542.9541],[13.59336,-2.32683,537.6895],[13.56949,-2.33448,537.5498],[13.5576,-2.34048,535.404],[13.54768,-2.34936,571.8942],[13.53311,-2.36766,550.9166],[13.52463,-2.37603,560.0544],[13.49218,-2.39846,561.6475],[13.48226,-2.40807,552.5818],[13.47678,-2.41768,541.3109],[13.47399,-2.42698,529.4197],[13.46944,-2.43504,570.9536],[13.4589,-2.44104,555.125],[13.45373,-2.43938,583.972],[13.44536,-2.42709,560.556],[13.43895,-2.42543,592.7451],[13.4249,-2.42977,607.84],[13.41973,-2.42967,609.9798],[13.39802,-2.42616,588.3866],[13.3788,-2.43091,601.981],[13.36102,-2.42884,583.1762],[13.18667,-2.36414,620.8537],[13.17685,-2.36197,625.001],[13.16527,-2.36352,624.9187],[13.14615,-2.37469,681.4309],[13.1352,-2.37696,659.381],[13.11432,-2.3719,648.1841],[13.04983,-2.34265,727.5438],[13.02502,-2.3382,718.0075],[13.0121,-2.34203,755.6365],[12.99401,-2.36012,761.6653],[13.0012,-2.36771,732.4376],[13.00771,-2.3735,733.9272],[13.01319,-2.37474,694.3136],[13.02012,-2.37308,722.8066],[13.02745,-2.36926,697.9224],[13.03489,-2.36626,725.3221],[13.04172,-2.36637,732.365],[13.04761,-2.37009,690.8876],[13.05122,-2.37691,677.0974],[13.05102,-2.38631,721.4933],[13.04203,-2.4322,659.4584],[13.03789,-2.60335,530.0835],[13.04936,-2.74464,493.2995],[13.0537,-2.76128,539.632],[13.07489,-2.8081,471.5897],[13.07572,-2.81544,529.4427],[13.07324,-2.82133,518.4364],[13.06456,-2.82494,472.1634],[13.04854,-2.8268,497.9812],[13.04141,-2.83063,482.9426],[13.02756,-2.84272,482.7893],[13.02032,-2.84716,540.1627],[13.00637,-2.85213,510.1441],[13.00141,-2.85585,459.7026],[12.99872,-2.85998,561.2322],[12.99872,-2.86877,518.5189],[13.0011,-2.87414,442.7928],[13.00833,-2.88675,430.6919],[13.01226,-2.90225,430.2568],[13.01484,-2.90918,425.6407],[13.01887,-2.91496,498.9966],[13.02508,-2.91868,428.804],[13.04688,-2.92468,446.2249],[13.06146,-2.92571,420.5643],[13.06859,-2.92819,438.7589],[13.11448,-2.96561,424.2174],[13.12099,-2.97294,417.5981],[13.12647,-2.9807,415.5488],[13.12967,-2.98855,439.0592],[13.12926,-2.99651,434.7092],[13.12833,-3.00157,420.3068],[13.11561,-3.03516,418.1693],[13.10548,-3.08074,411.1557],[13.10797,-3.13976,420.7388],[13.10362,-3.15061,469.2487],[13.09587,-3.16394,438.3587],[13.06115,-3.19939,409.6531],[13.03386,-3.21376,405.452],[13.02373,-3.22099,443.5167],[13.01453,-3.23288,430.3958],[12.99872,-3.24073,321.9473],[12.9919,-3.24146,315.7729],[12.98498,-3.24332,274.6613],[12.96182,-3.25241,277.9932],[12.95438,-3.25365,279.6858],[12.94694,-3.25334,288.6139],[12.93268,-3.24952,285.7755],[12.92679,-3.2489,278.8592],[12.92348,-3.25065,294.4875],[12.92224,-3.25779,296.9245],[12.92286,-3.28507,286.7516],[12.92152,-3.29034,279.0069],[12.91842,-3.29437,281.845],[12.91087,-3.2953,267.4198],[12.90653,-3.29282,241.9544],[12.89971,-3.28559,286.505],[12.89382,-3.28538,259.969],[12.88576,-3.28848,267.6838],[12.87201,-3.29727,270.0231],[12.86364,-3.30119,250.9738],[12.85609,-3.30254,211.0394],[12.85113,-3.30099,222.9743],[12.83863,-3.29282,235.8474],[12.83367,-3.29096,257.0151],[12.82757,-3.29055,253.3923],[12.82157,-3.29086,217.7034],[12.81145,-3.29231,226.9747],[12.80855,-3.29313,202.9295],[12.79109,-3.30119,161.1551],[12.78602,-3.30305,132.1252],[12.78013,-3.30367,132.1379],[12.77362,-3.30378,148.6414],[12.74365,-3.29913,97.7107],[12.73093,-3.29913,142.7195],[12.72422,-3.30016,143.1844],[12.71894,-3.30181,160.2189],[12.71336,-3.3045,175.5596],[12.69817,-3.31504,142.9997],[12.68494,-3.32062,201.8829],[12.68122,-3.32269,205.9808],[12.67833,-3.32517,199.071],[12.6743,-3.33013,203.9794],[12.67161,-3.33427,251.6376],[12.66975,-3.3383,175.6418],[12.66014,-3.3814,149.5669],[12.65321,-3.39835,173.9966],[12.65146,-3.40093,213.7691],[12.64866,-3.40393,178.9447],[12.64484,-3.4061,224.9052],[12.63957,-3.40744,168.6307],[12.62014,-3.40682,219.9458],[12.61683,-3.40765,239.3305],[12.61115,-3.41033,179.4064],[12.60753,-3.41281,144.6968],[12.60433,-3.41592,143.5755],[12.60278,-3.42635,100.1231],[12.61497,-3.43845,89.3221],[12.60836,-3.45116,113.1703],[12.60836,-3.45798,166.2952],[12.619,-3.45881,104.1649],[12.62551,-3.46315,84.1395],[12.62861,-3.4708,88.3329],[12.62944,-3.48185,117.2618],[12.63368,-3.49074,92.5004],[12.64308,-3.49167,118.1093],[12.65249,-3.49105,130.5224],[12.65673,-3.49519,154.0323],[12.65693,-3.52816,99.5051],[12.66014,-3.53312,99.3271],[12.67223,-3.53084,107.4086],[12.69218,-3.52154,169.9342],[12.70117,-3.51937,264.8778],[12.7236,-3.52454,165.4948],[12.71812,-3.54986,165.1455],[12.73931,-3.55978,147.004],[12.77941,-3.55772,133.823],[12.79594,-3.56226,101.7609],[12.80762,-3.58087,102.4246],[12.79388,-3.58769,113.124],[12.80897,-3.59306,97.315],[12.81238,-3.60216,117.5094],[12.81176,-3.61446,102.4804],[12.81444,-3.62924,202.1812],[12.81827,-3.63203,101.1738],[12.83129,-3.63358,103.287],[12.83553,-3.63544,132.8391],[12.83801,-3.64091,149.6483],[12.83935,-3.65197,93.3557],[12.84173,-3.65662,109.9103],[12.85,-3.66603,109.8598],[12.85444,-3.67306,175.3463],[12.86953,-3.71853,159.5752],[12.87749,-3.72835,133.562],[12.8901,-3.73166,151.7341],[12.88348,-3.75088,209.1273],[12.87956,-3.75553,167.0847],[12.8748,-3.76287,131.9352],[12.87914,-3.76804,128.4922],[12.8901,-3.77331,102.4995],[12.8901,-3.81083,137.3763],[12.89981,-3.83222,192.0932],[12.93082,-3.85641,137.3913],[12.9426,-3.85992,133.5239],[12.94539,-3.86261,188.964],[12.95449,-3.86788,157.7862],[12.97815,-3.87522,191.4518],[12.98477,-3.88162,148.8695],[12.9888,-3.88855,152.5531],[12.9919,-3.89516,157.0569],[12.99676,-3.89909,156.8583],[13.00079,-3.90085,154.4353],[13.00585,-3.9024,178.2537],[13.01102,-3.90508,191.4698],[13.01505,-3.91067,224.8148],[13.01856,-3.91707,154.3835],[13.02342,-3.92338,160.6786],[13.03045,-3.92762,170.5491],[13.04006,-3.92865,207.8429],[13.05133,-3.92803,301.6536],[13.06952,-3.92462,224.2319],[13.1215,-3.91976,246.5117],[13.12926,-3.92007,311.6998],[13.13742,-3.92141,268.2665],[13.1615,-3.92979,229.4878],[13.17359,-3.92782,234.6655],[13.21783,-3.91273,285.2155],[13.23302,-3.91087,316.7964],[13.2448,-3.9118,360.621],[13.26692,-3.92648,345.569],[13.27416,-3.92979,330.6573],[13.28346,-3.92999,291.2934],[13.30826,-3.92617,249.0918],[13.32728,-3.92999,259.3632],[13.33441,-3.93082,316.0449],[13.34041,-3.92627,340.0427],[13.34681,-3.92803,348.8058],[13.35126,-3.93299,307.2366],[13.35622,-3.94012,323.608],[13.3586,-3.94756,257.2598],[13.35684,-3.95511,218.765],[13.35425,-3.96265,206.1619],[13.35301,-3.9703,214.1544],[13.35374,-3.97805,252.7433],[13.37038,-4.02611,178.3112],[13.37472,-4.03335,166.9114],[13.38092,-4.03934,164.3764],[13.38795,-4.04265,170.5996],[13.39539,-4.0444,179.446],[13.41069,-4.04564,174.8565],[13.44304,-4.05216,187.1254],[13.45399,-4.05154,219.4905],[13.47104,-4.04812,192.0743],[13.48582,-4.04347,192.371],[13.49843,-4.03779,190.3841],[13.50246,-4.0349,193.2282],[13.50784,-4.0288,205.2608],[13.5128,-4.02063,194.7493],[13.52076,-3.98332,250.0392],[13.52117,-3.97578,241.6319],[13.52055,-3.96038,278.8274],[13.52117,-3.95283,298.8777],[13.52572,-3.94384,290.456],[13.53378,-3.93361,333.099],[13.56034,-3.90694,378.1247],[13.56696,-3.89444,499.2209],[13.5684,-3.88565,490.9637],[13.5682,-3.87739,482.5656],[13.56882,-3.87015,462.1899],[13.57212,-3.86292,470.0067],[13.58173,-3.85444,497.3773],[13.59,-3.84504,488.0213],[13.59775,-3.83181,468.6877],[13.60023,-3.82561,467.1062],[13.60003,-3.8222,473.9392],[13.59186,-3.81889,466.0175],[13.58835,-3.8161,481.7963],[13.58763,-3.81186,467.5414],[13.59093,-3.79966,449.8682],[13.59073,-3.79811,462.9244],[13.58949,-3.79718,462.4489],[13.58577,-3.79646,445.1252],[13.5806,-3.79667,478.2922],[13.57553,-3.79605,465.1732],[13.57119,-3.79388,472.2396],[13.56933,-3.78902,469.2889],[13.56789,-3.77248,451.744],[13.56809,-3.77021,455.0143],[13.56871,-3.76814,459.1342],[13.57181,-3.76587,456.3244],[13.57677,-3.76401,428.9692],[13.59,-3.7606,439.3764],[13.59755,-3.76101,445.202],[13.60427,-3.76235,462.4692],[13.60871,-3.76463,484.3096],[13.61357,-3.76618,479.3294],[13.62008,-3.76576,478.6509],[13.627,-3.76308,477.2035],[13.64364,-3.75274,479.1996],[13.64798,-3.7485,451.0132],[13.64798,-3.73838,483.7821],[13.64953,-3.73435,460.618],[13.65842,-3.73155,454.026],[13.66586,-3.73073,442.0884],[13.67279,-3.73114,451.6151],[13.68819,-3.736,445.0209],[13.69315,-3.73641,462.9938],[13.70328,-3.73548,466.9526],[13.70834,-3.73641,456.6323],[13.71299,-3.736,451.0604],[13.71723,-3.73311,445.7755],[13.71857,-3.72442,482.8561],[13.71816,-3.71119,487.4796],[13.71919,-3.7051,464.4576],[13.72467,-3.69714,490.4323],[13.73129,-3.69001,531.3792],[13.74524,-3.68029,453.8972],[13.75382,-3.67605,447.8017],[13.76529,-3.67192,464.5657],[13.7687,-3.6683,455.2308],[13.77201,-3.66252,486.9951],[13.77666,-3.6498,454.3727],[13.77738,-3.64195,453.1965],[13.77676,-3.63544,459.8052],[13.77583,-3.63079,465.6267],[13.77635,-3.62551,449.3734],[13.7779,-3.62076,467.5232],[13.78007,-3.6159,461.5593],[13.78358,-3.61146,457.4481],[13.78854,-3.60722,461.3049],[13.79774,-3.60381,448.7538],[13.80498,-3.60236,463.9648],[13.82224,-3.58955,463.9733],[13.86027,-3.53839,478.6485],[13.87174,-3.53146,488.616],[13.87453,-3.52805,481.844],[13.8766,-3.52392,505.4003],[13.87753,-3.51534,494.8783],[13.8766,-3.50418,473.3779],[13.8767,-3.50128,499.0272],[13.87815,-3.49911,475.3246],[13.88911,-3.48919,536.8767],[13.89562,-3.48144,510.5612],[13.9073,-3.45963,537.4502],[13.91195,-3.44816,564.9562],[13.91939,-3.43359,483.1736],[13.92073,-3.42728,487.3356],[13.92032,-3.42284,486.3931],[13.9198,-3.42088,501.3607],[13.92001,-3.41902,494.4481],[13.92073,-3.41571,548.1492],[13.92445,-3.41085,539.6385],[13.94605,-3.3908,521.0184],[13.96145,-3.38016,546.0422],[13.96807,-3.37695,512.1594],[13.97044,-3.3753,517.0276],[14.00734,-3.33385,510.1938],[14.01168,-3.32765,530.5645],[14.01809,-3.31525,538.3287],[14.02222,-3.30874,536.3203],[14.02677,-3.30367,531.2433],[14.04279,-3.29396,508.3228],[14.04496,-3.29127,529.2142],[14.05189,-3.27349,536.5071],[14.0553,-3.26884,497.5247],[14.05953,-3.26533,516.2549],[14.06894,-3.25923,506.9698],[14.08196,-3.25334,510.4178],[14.08537,-3.25014,528.1017],[14.08599,-3.24383,534.7037],[14.08444,-3.23949,512.7205],[14.08465,-3.23515,509.6841],[14.0862,-3.23277,533.8209],[14.09209,-3.22905,528.4573],[14.09674,-3.2243,521.0538],[14.1017,-3.21706,507.2055],[14.11028,-3.19598,511.743],[14.11369,-3.19102,510.5533],[14.12361,-3.18502,512.3972],[14.12671,-3.18161,512.3661],[14.12733,-3.17831,530.7134],[14.12682,-3.17066,528.3854],[14.12764,-3.15743,521.4162],[14.13075,-3.1472,506.873],[14.14563,-3.11319,505.6982],[14.16206,-3.05356,525.0911],[14.16537,-3.04622,536.3094],[14.16919,-3.0394,532.8935],[14.18811,-3.02421,528.9807],[14.26087,-2.98132,548.4058],[14.26603,-2.97129,556.712],[14.26748,-2.96747,534.6877],[14.27099,-2.96085,545.4969],[14.2774,-2.95465,543.9734],[14.28929,-2.94597,550.679],[14.2927,-2.94235,553.177],[14.29549,-2.93801,550.6181],[14.29735,-2.93305,547.7843],[14.29942,-2.92189,560.7167],[14.30252,-2.91569,553.9456],[14.30758,-2.90969,550.7653],[14.3143,-2.90494,571.9015],[14.32856,-2.8975,578.1358],[14.33538,-2.89254,569.56],[14.34096,-2.88551,570.5652],[14.34272,-2.87621,560.4861],[14.33941,-2.86246,606.1085],[14.30748,-2.77347,621.7986],[14.30541,-2.75766,621.9084],[14.30324,-2.75218,649.2051],[14.2989,-2.75208,704.7972],[14.29022,-2.76169,667.0122],[14.28546,-2.76448,671.9175],[14.28143,-2.76004,703.2371],[14.28236,-2.75053,772.0669],[14.28546,-2.74143,688.3967],[14.29859,-2.71766,693.2415],[14.3019,-2.7096,762.6573],[14.30138,-2.70185,784.4699],[14.29766,-2.69555,740.4281],[14.28484,-2.69296,755.3578],[14.27534,-2.69441,774.5457],[14.26603,-2.6941,777.0438],[14.25797,-2.69017,744.7219],[14.24867,-2.68469,702.3339],[14.2403,-2.68366,674.1689],[14.23193,-2.68542,693.9328],[14.21467,-2.69462,615.6258],[14.2063,-2.69575,697.5194],[14.19772,-2.69348,697.0303],[14.18749,-2.68717,707.5098],[14.17932,-2.68397,800.2672],[14.17095,-2.68273,739.653],[14.15493,-2.68263,810.9695],[14.14749,-2.68066,670.463],[14.14108,-2.67529,712.0787],[14.13705,-2.66867,740.9507],[14.13519,-2.66165,693.2874],[14.13912,-2.65534,708.5381],[14.15245,-2.64521,656.9881],[14.16547,-2.63302,688.0479],[14.17963,-2.62403,595.3715],[14.18625,-2.61834,635.8329],[14.18924,-2.6108,742.3978],[14.18718,-2.60335,775.1439],[14.17725,-2.59643,661.9384],[14.16971,-2.59705,739.8625],[14.16382,-2.60087,750.3699],[14.15979,-2.60501,710.4589],[14.1539,-2.6046,659.1978],[14.14687,-2.60129,616.298],[14.13168,-2.59085,629.5233],[14.1264,-2.58454,691.289],[14.12403,-2.57783,697.0334],[14.1295,-2.57163,706.2493],[14.14294,-2.56863,662.048],[14.1479,-2.56646,631.7531],[14.15121,-2.56377,656.5869],[14.154,-2.55922,640.5895],[14.15297,-2.55468,681.5286],[14.14935,-2.54723,762.3541],[14.12051,-2.52036,763.108],[14.11069,-2.49308,780.3495],[14.10055,-2.47806,769.2469],[14.09602,-2.49106,705.2128],[14.09002,-2.49861,692.8946],[14.08093,-2.49995,675.8044],[14.07101,-2.49582,752.2563],[14.05561,-2.48693,659.8853],[14.04558,-2.4861,684.2795],[14.03928,-2.48724,718.9301],[13.99328,-2.5016,706.8316],[13.98564,-2.5015,756.6611],[13.97923,-2.49561,620.0536],[13.97623,-2.47732,751.0946],[13.96703,-2.4706,768.2139],[13.95732,-2.4706,721.9998],[13.94771,-2.47494,803.7468],[13.93045,-2.48538,734.2703],[13.90947,-2.48972,774.3535]]]}}