{"type": "Feature","bbox": [12.5989,-4.0542,14.3456,-2.1134],"geometry": {"type": "MultiPolygon","coordinates": [[[[13.3578,-3.9553,218.765],[13.3528,-3.9625,209.8831],[13.3517,-3.9703,214.1544],[13.3531,-3.9781,304.1673],[13.3622,-4.0017,175.4048],[13.3697,-4.0267,169.0383],[13.3736,-4.0339,172.0466],[13.3806,-4.0411,169.3727],[13.3881,-4.0439,177.5645],[13.4264,-4.0472,195.3842],[13.4411,-4.0542,186.6207],[13.4561,-4.0519,203.6567],[13.4858,-4.0439,192.371],[13.5008,-4.0369,191.3722],[13.5081,-4.0308,200.2159],[13.515,-4.0225,202.7366],[13.5169,-4.0144,230.5278],[13.5175,-3.9989,224.1281],[13.5217,-3.9831,250.0392],[13.5203,-3.96,277.9983],[13.5225,-3.9458,278.7513],[13.5267,-3.9378,295.9107],[13.5336,-3.9303,330.6751],[13.5639,-3.9081,377.8882],[13.5694,-3.9006,486.2854],[13.5694,-3.8847,490.9637],[13.5667,-3.8703,465.7482],[13.5675,-3.8628,493.0424],[13.5831,-3.8561,468.6374],[13.5908,-3.8489,494.1943],[13.5961,-3.8411,481.498],[13.6025,-3.8219,456.4594],[13.5908,-3.8197,462.5574],[13.5869,-3.8169,469.8545],[13.5861,-3.8119,486.7347],[13.5914,-3.7978,483.0863],[13.5867,-3.7956,459.4286],[13.5747,-3.7975,467.2487],[13.5692,-3.7961,477.4827],[13.5678,-3.7706,455.0143],[13.5697,-3.7658,467.9235],[13.5822,-3.7578,443.4788],[13.5886,-3.7572,445.0855],[13.5947,-3.7578,446.1765],[13.6133,-3.7672,462.159],[13.6194,-3.7681,466.9118],[13.6244,-3.7661,476.5676],[13.6356,-3.7564,475.9929],[13.65,-3.7506,438.6005],[13.6514,-3.7467,471.7076],[13.6436,-3.7339,464.4109],[13.6475,-3.7314,468.7837],[13.6669,-3.7303,440.2287],[13.6931,-3.7375,462.9938],[13.7036,-3.7342,461.5563],[13.7131,-3.7386,452.1717],[13.7194,-3.7381,450.5749],[13.7219,-3.7339,466.8389],[13.7222,-3.7269,451.6932],[13.7169,-3.7117,483.023],[13.7178,-3.7056,469.5312],[13.7256,-3.6925,477.4918],[13.7319,-3.685,478.4966],[13.7397,-3.6792,479.0271],[13.7667,-3.6722,464.5657],[13.7808,-3.6517,452.7388],[13.7789,-3.64,449.5172],[13.7747,-3.6314,463.8543],[13.7778,-3.6206,467.5232],[13.785,-3.6069,472.0271],[13.7883,-3.6033,452.2341],[13.7933,-3.6017,459.2635],[13.8064,-3.6025,463.9648],[13.8169,-3.5992,478.8051],[13.8267,-3.5883,480.7748],[13.8381,-3.5653,488.028],[13.8514,-3.5439,480.59],[13.8731,-3.5314,475.4883],[13.8794,-3.5239,490.8246],[13.8803,-3.5192,488.5602],[13.8756,-3.5031,489.5008],[13.8775,-3.4983,475.3246],[13.8814,-3.495,528.3164],[13.8944,-3.4878,507.4212],[13.9017,-3.4739,555.4548],[13.9081,-3.4597,537.4502],[13.9111,-3.4486,565.8737],[13.9175,-3.4411,547.7579],[13.9222,-3.4325,488.1552],[13.9225,-3.4253,480.3605],[13.9197,-3.4214,486.3931],[13.9203,-3.415,548.1492],[13.9478,-3.3872,548.918],[13.9708,-3.3756,517.0276],[13.9742,-3.3719,498.0936],[13.9778,-3.3617,494.4808],[13.9883,-3.3514,506.829],[13.9906,-3.3467,488.7177],[14.01,-3.3333,515.6724],[14.0206,-3.3094,536.3203],[14.0236,-3.3056,535.1503],[14.0311,-3.2992,533.0706],[14.045,-3.2928,529.2142],[14.0481,-3.2886,499.8056],[14.05,-3.2769,510.3332],[14.0614,-3.2606,533.4382],[14.0656,-3.2578,532.7755],[14.0878,-3.2528,535.5119],[14.0894,-3.2472,538.9363],[14.0839,-3.2389,505.8105],[14.0833,-3.2342,509.4801],[14.0964,-3.2267,513.2546],[14.1036,-3.2192,528.3658],[14.1078,-3.2097,498.6071],[14.1108,-3.1919,499.2432],[14.1142,-3.1883,518.1925],[14.1247,-3.1853,512.3972],[14.1283,-3.1819,512.8246],[14.1264,-3.1703,528.3854],[14.1272,-3.1569,527.6308],[14.1372,-3.1322,523.493],[14.1444,-3.1189,506.8647],[14.1619,-3.0531,525.0911],[14.1747,-3.0314,537.8223],[14.1858,-3.0217,529.1589],[14.2061,-3.0078,540.1085],[14.2158,-3.0031,534.366],[14.2414,-2.9947,549.8607],[14.2553,-2.9878,536.3702],[14.2644,-2.9764,555.7534],[14.27,-2.9614,537.4119],[14.2931,-2.9431,543.6672],[14.2981,-2.9333,547.7843],[14.2981,-2.9222,554.8074],[14.3069,-2.9086,548.6962],[14.3358,-2.8939,573.2096],[14.3433,-2.8856,570.1862],[14.3456,-2.8781,574.9058],[14.3436,-2.8708,561.2482],[14.335,-2.8567,701.0394],[14.3342,-2.8425,694.1332],[14.3289,-2.835,629.1017],[14.3214,-2.8294,704.9283],[14.3172,-2.8219,686.5521],[14.3142,-2.7897,702.3765],[14.3064,-2.7739,668.8929],[14.3069,-2.7569,617.8328],[14.3053,-2.7483,612.1214],[14.2981,-2.7486,753.4531],[14.2917,-2.7631,651.6769],[14.285,-2.77,706.1108],[14.2778,-2.7639,684.379],[14.2811,-2.7489,775.471],[14.2953,-2.7258,641.3378],[14.3031,-2.7094,718.1373],[14.305,-2.6928,780.4338],[14.2983,-2.6844,737.679],[14.2903,-2.6844,756.671],[14.2817,-2.6892,779.0428],[14.2739,-2.6958,778.9311],[14.2667,-2.6981,721.4758],[14.2592,-2.6914,740.9785],[14.2547,-2.6842,750.8873],[14.2478,-2.6808,718.6751],[14.2403,-2.6817,675.3784],[14.2331,-2.6836,728.7812],[14.2144,-2.6964,616.3824],[14.2069,-2.6986,685.1203],[14.1994,-2.6964,685.0739],[14.1939,-2.6894,703.1211],[14.1792,-2.6819,800.1043],[14.1469,-2.6833,715.0068],[14.1403,-2.6758,712.0787],[14.1314,-2.6614,698.5203],[14.1378,-2.6542,690.6202],[14.1533,-2.6464,637.0535],[14.1653,-2.6314,672.9282],[14.1797,-2.625,598.4104],[14.1878,-2.6192,645.6671],[14.1933,-2.6117,692.2338],[14.1939,-2.6036,726.3461],[14.1894,-2.5964,754.4794],[14.1822,-2.5917,718.5358],[14.1747,-2.5906,675.3677],[14.1672,-2.5942,744.3593],[14.1633,-2.6014,739.9846],[14.1617,-2.6086,690.5183],[14.1544,-2.6064,669.6628],[14.1314,-2.5911,634.5768],[14.1244,-2.5856,651.5995],[14.1183,-2.5778,701.4572],[14.1217,-2.5692,750.3431],[14.1289,-2.5678,706.0731],[14.1444,-2.5697,628.5143],[14.1517,-2.565,642.6008],[14.1553,-2.5575,641.1432],[14.1567,-2.5503,661.7715],[14.1558,-2.5428,739.3035],[14.1489,-2.5361,770.9886],[14.1414,-2.5331,690.1649],[14.1267,-2.5303,742.2584],[14.1192,-2.5233,770.1757],[14.1122,-2.5011,729.804],[14.1113,-2.4614,665.656],[14.1029,-2.474,735.2251],[14.083,-2.4816,704.4045],[14.0693,-2.4741,672.8086],[14.0562,-2.4597,570.1089],[14.0502,-2.4555,560.7524],[14.0445,-2.4556,548.3284],[14.0285,-2.4708,678.6085],[14.0246,-2.4717,683.3789],[14.0184,-2.4683,659.3341],[13.998,-2.4465,614.864],[13.9868,-2.4431,604.6199],[13.9776,-2.4436,697.7909],[13.9696,-2.4464,628.1028],[13.9477,-2.4612,713.9429],[13.9372,-2.4645,686.3775],[13.9226,-2.465,623.4905],[13.8916,-2.454,616.8101],[13.8855,-2.4502,572.6518],[13.8719,-2.4362,541.6529],[13.8687,-2.4288,539.8398],[13.8684,-2.4205,549.8722],[13.8707,-2.4125,555.6641],[13.8832,-2.3936,602.463],[13.9164,-2.3587,799.899],[13.9189,-2.3438,638.5413],[13.9166,-2.3339,760.1019],[13.9134,-2.3297,727.5372],[13.8922,-2.3133,540.4785],[13.8867,-2.3045,541.5874],[13.8804,-2.2606,561.1437],[13.8369,-2.1968,556.345],[13.8139,-2.1534,469.4556],[13.7905,-2.1324,466.4455],[13.771,-2.1182,461.8689],[13.7582,-2.1134,479.0661],[13.7536,-2.1139,469.5698],[13.7488,-2.1203,459.9715],[13.7247,-2.1623,506.2607],[13.6914,-2.1953,537.2695],[13.6748,-2.2169,525.5933],[13.645,-2.2506,511.0954],[13.6382,-2.2612,530.662],[13.5839,-2.3244,547.8943],[13.5712,-2.3422,545.8956],[13.5361,-2.3841,512.7612],[13.5061,-2.4295,540.4599],[13.5031,-2.4312,527.663],[13.4928,-2.4335,522.0994],[13.4843,-2.4305,544.8536],[13.4708,-2.4211,586.963],[13.4539,-2.415,551.5082],[13.4424,-2.4141,581.4608],[13.4305,-2.4153,525.417],[13.3999,-2.4262,569.8685],[13.3914,-2.4267,570.2081],[13.3848,-2.4246,527.7267],[13.374,-2.4207,546.3442],[13.3561,-2.4072,524.6519],[13.3364,-2.3969,548.5559],[13.3321,-2.3923,535.4191],[13.3163,-2.3859,602.6445],[13.2632,-2.3792,565.5072],[13.2501,-2.3742,613.0795],[13.2398,-2.3678,566.31],[13.2318,-2.3593,611.5609],[13.2233,-2.342,606.693],[13.2159,-2.3379,582.5564],[13.21,-2.3393,574.5598],[13.1997,-2.3513,561.2062],[13.189,-2.3693,637.7401],[13.182,-2.3764,612.4816],[13.1756,-2.3794,639.8874],[13.1664,-2.3788,613.5417],[13.1304,-2.3602,650.7786],[13.1217,-2.3538,669.8179],[13.089,-2.3429,655.9409],[13.0723,-2.3431,675.7529],[13.0572,-2.3374,699.0753],[13.0478,-2.3365,720.7206],[13.0409,-2.3338,719.1436],[13.0311,-2.3246,723.4225],[13.0298,-2.3216,697.6981],[13.0315,-2.3856,747.0002],[13.0365,-2.411,708.0139],[13.0365,-2.444,666.5645],[13.0391,-2.4719,611.7908],[13.0467,-2.4973,541.1727],[13.0416,-2.5328,511.7491],[13.0375,-2.5881,546.1166],[13.0411,-2.6497,536.9697],[13.0461,-2.6972,479.437],[13.0458,-2.7214,527.5993],[13.0492,-2.7442,493.4393],[13.0536,-2.7617,539.632],[13.0633,-2.7842,518.3433],[13.0761,-2.8081,475.0972],[13.0783,-2.8158,454.8957],[13.0781,-2.8231,462.626],[13.0708,-2.8275,479.1159],[13.0633,-2.8275,479.5658],[13.0486,-2.8244,466.791],[13.0414,-2.8286,464.2421],[13.035,-2.8378,539.083],[13.0278,-2.8439,480.3186],[13.0206,-2.8481,551.6734],[13.0056,-2.8519,512.2165],[12.9975,-2.8561,457.3596],[12.9944,-2.8644,475.622],[12.9975,-2.8722,471.765],[13.005,-2.8786,434.0235],[13.01,-2.8861,450.9536],[13.0119,-2.9025,433.459],[13.0175,-2.9167,477.6955],[13.025,-2.9206,428.8436],[13.0319,-2.9189,440.934],[13.0394,-2.9214,493.6581],[13.0472,-2.9267,432.5002],[13.0617,-2.9239,420.2144],[13.0689,-2.9256,425.6522],[13.0836,-2.9419,424.5279],[13.1072,-2.9578,430.2439],[13.1283,-2.98,420.3673],[13.1325,-2.9883,461.6929],[13.1278,-3.0042,416.1981],[13.1153,-3.0353,418.1693],[13.105,-3.0808,411.1557],[13.1086,-3.1311,474.1709],[13.1061,-3.1553,434.824],[13.1022,-3.1633,416.8895],[13.0731,-3.1808,410.3247],[13.0678,-3.1956,453.2514],[13.0633,-3.2031,438.2083],[13.0556,-3.2083,405.4832],[13.0397,-3.2111,455.8643],[13.0328,-3.2108,414.6674],[13.0253,-3.2161,444.0004],[13.015,-3.2311,441.2289],[13.0156,-3.2389,433.9176],[13.0078,-3.2431,378.9213],[12.9931,-3.2406,323.1138],[12.9772,-3.2456,335.26],[12.9619,-3.2536,283.1986],[12.9544,-3.2544,279.6858],[12.9472,-3.2542,288.6139],[12.9239,-3.2469,278.0746],[12.9219,-3.2519,302.3598],[12.9233,-3.2911,278.4576],[12.9219,-3.2967,244.5],[12.9183,-3.3,289.7999],[12.9128,-3.3,287.4925],[12.9081,-3.2978,255.2427],[12.9006,-3.2844,300.4348],[12.8958,-3.2825,283.4149],[12.8903,-3.2839,260.6221],[12.8839,-3.2911,265.2499],[12.8722,-3.3,267.1516],[12.8625,-3.3039,225.7415],[12.8556,-3.3036,207.2866],[12.8508,-3.3017,216.9913],[12.8344,-3.2903,257.0151],[12.8094,-3.2925,239.9677],[12.7867,-3.3039,132.1252],[12.7733,-3.3042,151.0311],[12.7439,-3.2989,97.7107],[12.7247,-3.3,143.1844],[12.7142,-3.3031,144.419],[12.6989,-3.3153,142.9997],[12.6794,-3.3231,196.5472],[12.6731,-3.3306,203.9794],[12.6689,-3.3403,170.2899],[12.6678,-3.36,176.1934],[12.6653,-3.3717,135.8866],[12.6497,-3.4044,178.9447],[12.64,-3.4083,167.0703],[12.6206,-3.4064,219.9458],[12.6164,-3.4078,239.3305],[12.6075,-3.4125,144.6968],[12.5989,-3.4239,143.5372],[12.605,-3.4317,66.0],[12.6178,-3.4394,71.6165],[12.6206,-3.4439,92.8605],[12.6192,-3.4492,111.9315],[12.6081,-3.4586,166.2952],[12.6092,-3.4628,179.259],[12.6208,-3.4636,92.5199],[12.6278,-3.4708,88.3329],[12.6297,-3.4756,87.0336],[12.6267,-3.4867,107.2336],[12.6281,-3.4919,138.6605],[12.6319,-3.495,180.4178],[12.6375,-3.4936,96.2779],[12.6508,-3.4944,121.8139],[12.6575,-3.5017,142.864],[12.6581,-3.5078,122.2579],[12.6536,-3.5242,152.4518],[12.6569,-3.5347,98.9384],[12.6614,-3.5367,110.9737],[12.6872,-3.5364,88.9093],[12.6956,-3.5244,277.4747],[12.7156,-3.5239,272.2592],[12.7258,-3.5275,124.6473],[12.7306,-3.5367,94.8284],[12.7269,-3.54,81.8817],[12.7203,-3.54,101.1024],[12.7158,-3.5425,99.2665],[12.7139,-3.5472,123.5018],[12.7139,-3.5528,188.2393],[12.7178,-3.5628,93.5592],[12.7233,-3.5639,106.8283],[12.7556,-3.5628,217.1196],[12.7694,-3.5561,223.7032],[12.775,-3.5561,196.1333],[12.7947,-3.5708,106.3266],[12.805,-3.5744,123.2408],[12.8083,-3.5781,118.7356],[12.8078,-3.5828,84.3344],[12.7986,-3.5875,136.3841],[12.7958,-3.5917,239.9471],[12.7978,-3.5964,321.7768],[12.8025,-3.5983,126.5171],[12.8144,-3.5981,119.7341],[12.8119,-3.6153,122.3521],[12.8136,-3.6269,236.1107],[12.8239,-3.6375,106.4261],[12.8336,-3.6417,113.1815],[12.8367,-3.6453,115.9673],[12.8364,-3.6578,120.8012],[12.84,-3.6611,119.4851],[12.855,-3.6669,155.7117],[12.8625,-3.6731,132.7574],[12.8656,-3.6975,111.6978],[12.8697,-3.7003,105.2697],[12.8714,-3.705,116.9898],[12.8692,-3.7167,144.4567],[12.8711,-3.7286,131.4527],[12.8744,-3.7319,205.9523],[12.8869,-3.7322,108.576],[12.8858,-3.7508,190.4652],[12.8761,-3.7617,131.9352],[12.8792,-3.7722,181.2418],[12.8819,-3.7761,175.3091],[12.8936,-3.7786,124.071],[12.8956,-3.7833,106.0801],[12.8917,-3.8003,162.6807],[12.8928,-3.8131,146.9388],[12.8914,-3.8253,208.0304],[12.8942,-3.8364,190.1031],[12.8978,-3.8381,177.3602],[12.9047,-3.8339,125.6386],[12.9119,-3.8322,118.2716],[12.9192,-3.8339,195.935],[12.9447,-3.8633,189.762],[12.9531,-3.87,156.1187],[12.9614,-3.8708,241.5434],[12.9689,-3.8689,218.1097],[12.9769,-3.8692,167.8187],[12.9842,-3.8728,156.9489],[12.9875,-3.8814,167.084],[12.9906,-3.8969,159.2575],[12.9983,-3.9008,145.2158],[13.0125,-3.9031,260.0652],[13.0175,-3.9172,155.5094],[13.0219,-3.925,160.0625],[13.0306,-3.9292,160.3838],[13.0456,-3.9306,237.4247],[13.0528,-3.9297,313.4147],[13.0756,-3.9225,224.4345],[13.0911,-3.9231,288.5468],[13.1289,-3.9194,324.8833],[13.1378,-3.9203,253.6536],[13.1617,-3.9314,217.6884],[13.1697,-3.9306,242.9184],[13.1769,-3.9289,280.165],[13.1842,-3.925,269.2385],[13.2067,-3.9092,289.3034],[13.215,-3.9056,281.9465],[13.2231,-3.9044,288.8962],[13.23,-3.9053,292.6442],[13.245,-3.9111,374.7178],[13.2739,-3.9317,314.509],[13.2903,-3.9297,264.7648],[13.3047,-3.9219,272.8253],[13.3125,-3.9222,248.536],[13.3275,-3.9325,253.258],[13.3353,-3.9356,261.4033],[13.3406,-3.9283,302.9729],[13.3406,-3.9208,426.7503],[13.3481,-3.925,429.5569],[13.3506,-3.9328,317.1384],[13.3578,-3.94,323.608],[13.3622,-3.9475,219.9144],[13.3578,-3.9553,218.765]]]]}
,"properties": {"GID_1": "COG.6_1","GID_0": "COG","country": "RepublicoftheCongo","province": "Lékoumou","VARNAME_1": "NA","NL_NAME_1": "NA","TYPE_1": "Région","ENGTYPE_1": "Region","CC_1": "NA","HASC_1": "CG.LE","ISO_1": "NA","name": "Lékoumou.province","area_km2": 21231.79,"hist_schema_id": "Elevation0-9000","hist_area_km2": {"75": 15.51,"100": 55.65,"125": 128.31,"150": 167.81,"175": 245.33,"200": 274.02,"225": 259.13,"250": 247.87,"275": 294.58,"300": 314.75,"325": 245.72,"350": 254.39,"375": 315.71,"400": 362.48,"425": 580.63,"450": 1650.52,"475": 2119.57,"500": 1302.37,"525": 1335.4,"550": 2187.57,"575": 2526.05,"600": 2180.66,"625": 1726.33,"650": 1086.85,"675": 557.87,"700": 356.27,"725": 228.19,"750": 107.76,"775": 62.01,"800": 29.23,"825": 11.4,"850": 1.86}}}