{"type":"Feature","properties":{"featurecla":"River","scalerank":8,"rivernum":647,"dissolve":"647River","name":"Ogooué4","name_alt":null,"note":null,"min_zoom":7.0,"strokeweig":0.2,"name_en":"Ogooué","min_label":8.0},
"geometry":{"type": "LineString","coordinates": [[13.8701171875,-2.8247372375058859,556.8037],[13.828369140625,-2.73064544063088,536.4246],[13.777978515625023,-2.6453427062558892,551.6779],[13.769921875000023,-2.6235653625058859,563.7484],[13.761132812500023,-2.57805755000588,560.2855],[13.747949218750023,-2.56609465938088,542.809],[13.732177734375,-2.55730559688088,505.9538],[13.71875,-2.5393856750058892,522.7259],[13.71728515625,-2.52849700313088,523.5401],[13.720458984375,-2.52019622188088,553.5153],[13.724609375,-2.5130184875058892,520.3968],[13.726220703125023,-2.5052059875058892,508.0306],[13.722070312500023,-2.4939755187558892,530.4992],[13.708154296875023,-2.47966887813088,527.5314],[13.705078125,-2.47380950313088,541.8511],[13.699609375000023,-2.4558895812558892,515.4087],[13.686914062500023,-2.44182708125588,533.9019],[13.67333984375,-2.4295223937558892,546.3279],[13.664794921875,-2.41643645625588,507.3031],[13.653076171875,-2.30657317500588,521.4517],[13.638671875,-2.26677825313088,513.6982],[13.636865234375023,-2.24504973750588,486.755],[13.643701171875023,-2.21477630000588,516.652],[13.643701171875023,-2.20354583125588,482.9976],[13.639404296875,-2.1922177062558892,524.4402],[13.626123046875023,-2.1758114562558859,469.8393],[13.620996093750023,-2.1567684875058859,523.7637],[13.611718750000023,-2.13689544063088,478.2726],[13.609521484375023,-2.12468840938088,507.9034],[13.595947265625,-2.09368255000588,499.2241],[13.592529296875,-2.0887020812558892,503.5515],[13.585107421875023,-2.0849911437558859,479.5458],[13.582275390625,-2.08001067500588,479.4376],[13.581689453125023,-2.07512786250588,500.7189],[13.582666015625023,-2.0644833312558859,460.1671],[13.582275390625,-2.05950286250588,460.5934],[13.576562500000023,-2.0381161437558859,488.9126],[13.575439453125,-2.01506926875588,492.058],[13.571044921875,-2.0088192687558859,500.2617],[13.551904296875023,-2.0024716125058859,438.8762],[13.54736328125,-1.9946591125058859,468.0026],[13.548730468750023,-1.98284270625588,447.0622],[13.554345703125023,-1.96477630000588,493.8441],[13.554931640625,-1.9570614562558859,504.9673],[13.552734375,-1.95647551875588,503.4629],[13.547998046875023,-1.95623137813088,477.9875],[13.543359375000023,-1.95378997188088,456.3543],[13.541259765625,-1.946612237505889,463.0525],[13.541894531250023,-1.9282528625058859,455.583],[13.541259765625,-1.9223934875058859,437.8248],[13.531884765625023,-1.8906552062558859,409.2094],[13.527587890625,-1.8813778625058859,434.5082],[13.531640625000023,-1.87761809688088,425.432],[13.53662109375,-1.87102630000588,447.6793],[13.541259765625,-1.8677059875058859,420.0468],[13.53564453125,-1.85808684688088,402.52],[13.537353515625,-1.85100676875588,493.4772],[13.542724609375,-1.8437802062558859,439.1725],[13.54736328125,-1.8335263000058859,426.2666],[13.545166015625,-1.832842706255889,439.7127],[13.541162109375023,-1.8286434875058859,433.5543],[13.538720703125023,-1.8218075500058859,405.9912],[13.541259765625,-1.81316497188088,400.9431],[13.544824218750023,-1.813311456255889,410.7757],[13.568603515625,-1.8056942687558859,401.8638],[13.568603515625,-1.81316497188088,456.0087],[13.571533203125,-1.80950286250588,427.2922],[13.5732421875,-1.8066708312558859,439.2094],[13.574462890625,-1.8037411437558859,454.6172],[13.575439453125,-1.79949309688088,427.4357],[13.559228515625023,-1.79412200313088,446.264],[13.550927734375023,-1.79265715938088,445.2267],[13.541259765625,-1.79265715938088,418.0896],[13.559814453125,-1.76604583125588,484.7174],[13.561181640625023,-1.75261809688088,384.6247],[13.54736328125,-1.73796965938088,325.185],[13.551660156250023,-1.723467706255889,383.8948],[13.545312500000023,-1.70989348750588,358.5458],[13.541894531250023,-1.69841887813088,310.4607],[13.554931640625,-1.690264581255889,340.9958],[13.554931640625,-1.68279387813088,339.7289],[13.53173828125,-1.675616143755889,322.4179],[13.527587890625,-1.67595794063088,370.2552],[13.526757812500023,-1.66692473750588,348.6495],[13.52880859375,-1.65813567500588,292.3687],[13.532861328125023,-1.65129973750588,319.5892],[13.537841796875,-1.64861419063088,315.1971],[13.552490234375,-1.64446380000588,369.5851],[13.550048828125,-1.62346770625588,348.979],[13.561767578125,-1.61443450313088,341.8852],[13.547509765625023,-1.608721612505889,303.0975],[13.541259765625,-1.60759856563088,297.3981],[13.542724609375,-1.6011044250058859,309.0634],[13.542382812500023,-1.595538018755889,363.9609],[13.541259765625,-1.59075286250588,364.2776],[13.541259765625,-1.58660247188088,334.575],[13.521630859375023,-1.593584893755889,341.2695],[13.42626953125,-1.5747372375058859,298.0225],[13.407128906250023,-1.56096770625588,301.5632],[13.369384765625,-1.525713800005889,286.9387],[13.3740234375,-1.52214934688088,283.3039],[13.378662109375,-1.5151669250058859,293.5987],[13.382958984375023,-1.51140715938088,288.8833],[13.371337890625,-1.50261809688088,283.6994],[13.364013671875,-1.49187590938088,298.0385],[13.355712890625,-1.470538018755889,402.0833],[13.339990234375023,-1.47673919063088,279.808],[13.3349609375,-1.46868255000588,274.9554],[13.336181640625,-1.456377862505889,290.339],[13.338623046875,-1.450030206255889,346.1414],[13.345605468750023,-1.44475676875588,327.2861],[13.346093750000023,-1.4331356750058859,316.5916],[13.342041015625,-1.415850518755889,328.5189],[13.33935546875,-1.4096981750058859,311.6612],[13.330322265625,-1.399248956255889,296.4219],[13.328369140625,-1.39128997188088,290.8691],[13.33056640625,-1.3877255187558859,268.0],[13.33984375,-1.3813778625058859,311.1562],[13.342041015625,-1.377764581255889,297.968],[13.344482421875,-1.363604425005889,278.2417],[13.350341796875,-1.35613372188088,293.3014],[13.357324218750023,-1.3501278625058859,287.0818],[13.363183593750023,-1.340166925005889,310.6822],[13.369384765625,-1.2954403625058859,294.6328],[13.37158203125,-1.28801848750588,289.1072],[13.376220703125,-1.282549737505889,299.2206],[13.379052734375023,-1.275713800005889,299.6775],[13.376708984375,-1.264483331255889,311.1708],[13.371972656250023,-1.257159112505889,291.7627],[13.364160156250023,-1.25066497188088,298.4893],[13.354882812500023,-1.24578215938088,297.8486],[13.345458984375,-1.243975518755889,308.1619],[13.341943359375023,-1.23870208125588,292.0437],[13.335205078125,-1.202959893755889,288.4125],[13.316064453125023,-1.2031552062558859,283.6391],[13.29443359375,-1.19085051875588,286.5847],[13.239404296875023,-1.1445614562558859,297.2988],[13.16650390625,-1.10906340938088,317.3774],[13.156005859375,-1.106280206255889,313.3147],[13.146240234375,-1.10222747188088,305.1233],[13.136621093750023,-1.09368255000588,332.7952],[13.133056640625,-1.0845028625058859,327.2274],[13.130859375,-1.059893487505889,440.1959],[13.1259765625,-1.04900481563088,444.3316]]}}