{"type":"Feature","properties":{"featurecla":"River","scalerank":8,"rivernum":647,"dissolve":"647River","name":"Ogooué3","name_alt":null,"note":null,"min_zoom":7.0,"strokeweig":0.2,"name_en":"Ogooué","min_label":8.0},
"geometry":{"type": "LineString","coordinates": [[13.944726562500023,-3.0600888000058859,591.095],[13.9326171875,-3.0164364562558892,605.0182],[13.929443359375,-2.99163176875588,598.093],[13.93505859375,-2.9741513000058859,583.9777],[13.936669921875023,-2.96233489375588,583.5707],[13.90771484375,-2.88518645625588,576.8818],[13.8701171875,-2.8247372375058859,556.8037]]}}