{"type":"Feature","properties":{"GID_2":"COG.8.6_1","GID_0":"COG","country":"RepublicoftheCongo","GID_1":"COG.8_1","province":"Niari","NL_NAME_1":"NA","county":"Mossendjo","VARNAME_2":"NA","NL_NAME_2":"NA","TYPE_2":"District","ENGTYPE_2":"District","CC_2":"NA","HASC_2":"NA","name":"Mossendjo.county"},
"geometry":{"type": "MultiPolygon","coordinates": [[[[13.0386,-2.5702,569.9417],[13.0274,-2.5905,608.4925],[12.9798,-2.6362,582.5805],[12.9344,-2.6478,574.559],[12.8871,-2.662,546.9481],[12.8397,-2.6735,548.0734],[12.7982,-2.6705,572.8535],[12.7615,-2.6765,580.1107],[12.7266,-2.6657,568.4606],[12.7146,-2.6493,581.1404],[12.6729,-2.6005,593.2565],[12.6419,-2.6003,677.1078],[12.5682,-2.5657,675.8583],[12.5159,-2.5606,632.0723],[12.4812,-2.5712,578.9519],[12.4567,-2.5709,640.3025],[12.4415,-2.604,523.6508],[12.4191,-2.6358,521.5119],[12.4075,-2.6693,506.5821],[12.4351,-2.678,526.6292],[12.4024,-2.7582,507.6063],[12.376,-2.7958,443.0456],[12.3559,-2.8199,458.903],[12.3481,-2.8421,436.7657],[12.3371,-2.8592,371.0892],[12.3289,-2.8974,300.3508],[12.3042,-2.9695,205.6758],[12.3043,-3.015,199.1137],[12.2832,-3.0579,173.6388],[12.279,-3.1052,309.8297],[12.2684,-3.1489,215.0176],[12.2741,-3.1861,173.9322],[12.2948,-3.2344,147.2374],[12.3123,-3.2666,167.3002],[12.3383,-3.3001,136.8459],[12.3468,-3.3158,125.5745],[12.437,-3.4151,108.665],[12.4608,-3.439,107.1957],[12.4811,-3.4639,94.3844],[12.4938,-3.4882,79.5764],[12.5042,-3.5005,69.4207],[12.5289,-3.4844,69.3157],[12.5481,-3.4833,79.4921],[12.5889,-3.4959,102.8072],[12.6142,-3.4993,157.9713],[12.6305,-3.5135,158.8404],[12.6546,-3.5282,118.5491],[12.6536,-3.5242,152.4518],[12.6581,-3.5078,122.2579],[12.6575,-3.5017,142.864],[12.6508,-3.4944,121.8139],[12.6375,-3.4936,96.2779],[12.6319,-3.495,180.4178],[12.6281,-3.4919,138.6605],[12.6267,-3.4867,107.2336],[12.6297,-3.4756,87.0336],[12.6278,-3.4708,88.3329],[12.6208,-3.4636,92.5199],[12.6092,-3.4628,179.259],[12.6081,-3.4586,166.2952],[12.6192,-3.4492,111.9315],[12.6206,-3.4439,92.8605],[12.6178,-3.4394,71.6165],[12.605,-3.4317,66.0],[12.5989,-3.4239,143.5372],[12.6075,-3.4125,144.6968],[12.6164,-3.4078,239.3305],[12.6206,-3.4064,219.9458],[12.64,-3.4083,167.0703],[12.6497,-3.4044,178.9447],[12.6669,-3.3661,134.5144],[12.6689,-3.3403,170.2899],[12.6731,-3.3306,203.9794],[12.6794,-3.3231,196.5472],[12.6989,-3.3153,142.9997],[12.7142,-3.3031,144.419],[12.7308,-3.2992,142.7195],[12.7439,-3.2989,97.7107],[12.7806,-3.3044,132.1379],[12.7914,-3.3019,142.9441],[12.8094,-3.2925,239.9677],[12.8344,-3.2903,257.0151],[12.8508,-3.3017,216.9913],[12.8556,-3.3036,207.2866],[12.8625,-3.3039,225.7415],[12.8722,-3.3,267.1516],[12.8839,-3.2911,265.2499],[12.8903,-3.2839,260.6221],[12.8958,-3.2825,283.4149],[12.9006,-3.2844,300.4348],[12.9081,-3.2978,255.2427],[12.9128,-3.3,287.4925],[12.9183,-3.3,289.7999],[12.9219,-3.2967,244.5],[12.9233,-3.2911,278.4576],[12.9219,-3.2519,302.3598],[12.9239,-3.2469,278.0746],[12.9472,-3.2542,288.6139],[12.9544,-3.2544,279.6858],[12.9619,-3.2536,283.1986],[12.9772,-3.2456,335.26],[12.9931,-3.2406,323.1138],[13.0078,-3.2431,378.9213],[13.0156,-3.2389,433.9176],[13.015,-3.2311,441.2289],[13.0253,-3.2161,444.0004],[13.0328,-3.2108,414.6674],[13.0397,-3.2111,455.8643],[13.0556,-3.2083,405.4832],[13.0633,-3.2031,438.2083],[13.0678,-3.1956,453.2514],[13.0731,-3.1808,410.3247],[13.1022,-3.1633,416.8895],[13.1061,-3.1553,434.824],[13.1086,-3.1403,420.7388],[13.105,-3.0808,411.1557],[13.1153,-3.0353,418.1693],[13.1278,-3.0042,416.1981],[13.1325,-2.9883,461.6929],[13.1283,-2.98,420.3673],[13.1072,-2.9578,430.2439],[13.0836,-2.9419,424.5279],[13.0689,-2.9256,425.6522],[13.0617,-2.9239,420.2144],[13.0472,-2.9267,432.5002],[13.0394,-2.9214,493.6581],[13.0319,-2.9189,440.934],[13.025,-2.9206,428.8436],[13.0175,-2.9167,477.6955],[13.0119,-2.9025,433.459],[13.01,-2.8861,450.9536],[13.005,-2.8786,434.0235],[12.9975,-2.8722,471.765],[12.9944,-2.8644,475.622],[12.9975,-2.8561,457.3596],[13.0056,-2.8519,512.2165],[13.0206,-2.8481,551.6734],[13.0278,-2.8439,480.3186],[13.035,-2.8378,539.083],[13.0414,-2.8286,464.2421],[13.0486,-2.8244,466.791],[13.0633,-2.8275,479.5658],[13.0708,-2.8275,479.1159],[13.0781,-2.8231,462.626],[13.0783,-2.8158,454.8957],[13.0761,-2.8081,475.0972],[13.0567,-2.7694,504.7372],[13.0511,-2.7531,544.6876],[13.0478,-2.7367,479.6847],[13.0458,-2.7214,527.5993],[13.0456,-2.6894,473.9054],[13.0383,-2.6117,530.9771],[13.0375,-2.5881,546.1166],[13.0386,-2.5702,569.9417]]]]}}